Address,ChildListingUrl,ChildListings,Description,DispensaryName,Email,Facebook,Friday,Instagram,ListingUrl,Listings,Monday,Phone,Saturday,State,StoreUrl,Sunday,Thursday,Tuesday,Twitter,Type,Website,Wednesday,latitude,longitude
,https://weedmaps.com/dispensaries/in/united-states/arkansas/conway,Conway,,,,,,,https://weedmaps.com/dispensaries/in/united-states/arkansas,Arkansas,,,,United States,https://weedmaps.com/dispensaries/grassroots-opco,,,,,,,,,
,nan,nan,,,,,,,https://weedmaps.com/dispensaries/in/united-states/alabama,Alabama,,,,United States,https://weedmaps.com/dispensaries/pickup-am-test,,,,,,,,,
,https://weedmaps.com/dispensaries/in/united-states/delaware/dover-de,"Dover, DE",,,,,,,https://weedmaps.com/dispensaries/in/united-states/delaware,Delaware,,,,United States,https://weedmaps.com/dispensaries/columbia-care-delaware,,,,,,,,,
,https://weedmaps.com/dispensaries/in/united-states/connecticut/bridgeport,Bridgeport,,,,,,,https://weedmaps.com/dispensaries/in/united-states/connecticut,Connecticut,,,,United States,https://weedmaps.com/dispensaries/willow-brook-wellness,,,,,,,,,
,https://weedmaps.com/dispensaries/in/united-states/connecticut/bridgeport,Bridgeport,,,,,,,https://weedmaps.com/dispensaries/in/united-states/connecticut,Connecticut,,,,United States,https://weedmaps.com/dispensaries/the-healing-corner,,,,,,,,,
,https://weedmaps.com/dispensaries/in/united-states/arizona/apache-county,Apache County,,,,,,,https://weedmaps.com/dispensaries/in/united-states/arizona,Arizona,,,,United States,https://weedmaps.com/dispensaries/uncle-herbs-health-center-payson,,,,,,,,,
,https://weedmaps.com/dispensaries/in/united-states/alaska/anchorage,Anchorage,,,,,,,https://weedmaps.com/dispensaries/in/united-states/alaska,Alaska,,,,United States,https://weedmaps.com/dispensaries/goodsinse,,,,,,,,,
,https://weedmaps.com/dispensaries/in/united-states/alaska/anchorage,Anchorage,,,,,,,https://weedmaps.com/dispensaries/in/united-states/alaska,Alaska,,,,United States,https://weedmaps.com/dispensaries/herbal-outfitters,,,,,,,,,
,https://weedmaps.com/dispensaries/in/united-states/alaska/anchorage,Anchorage,,,,,,,https://weedmaps.com/dispensaries/in/united-states/alaska,Alaska,,,,United States,https://weedmaps.com/dispensaries/green-jar-wasilla,,,,,,,,,
,https://weedmaps.com/dispensaries/in/united-states/alaska/anchorage,Anchorage,,,,,,,https://weedmaps.com/dispensaries/in/united-states/alaska,Alaska,,,,United States,https://weedmaps.com/dispensaries/cannabaska,,,,,,,,,
,https://weedmaps.com/dispensaries/in/united-states/alaska/anchorage,Anchorage,,,,,,,https://weedmaps.com/dispensaries/in/united-states/alaska,Alaska,,,,United States,https://weedmaps.com/dispensaries/remedy-shoppe,,,,,,,,,
,https://weedmaps.com/dispensaries/in/united-states/alaska/anchorage,Anchorage,,,,,,,https://weedmaps.com/dispensaries/in/united-states/alaska,Alaska,,,,United States,https://weedmaps.com/dispensaries/rainforest-cannabis,,,,,,,,,
,https://weedmaps.com/dispensaries/in/united-states/alaska/anchorage,Anchorage,,,,,,,https://weedmaps.com/dispensaries/in/united-states/alaska,Alaska,,,,United States,https://weedmaps.com/dispensaries/weed-dudes,,,,,,,,,
,https://weedmaps.com/dispensaries/in/united-states/alaska/anchorage,Anchorage,,,,,,,https://weedmaps.com/dispensaries/in/united-states/alaska,Alaska,,,,United States,https://weedmaps.com/dispensaries/juneau-green-market,,,,,,,,,
,https://weedmaps.com/dispensaries/in/united-states/alaska/anchorage,Anchorage,,,,,,,https://weedmaps.com/dispensaries/in/united-states/alaska,Alaska,,,,United States,https://weedmaps.com/dispensaries/raspberry-roots,,,,,,,,,
,https://weedmaps.com/dispensaries/in/united-states/alaska/anchorage,Anchorage,,,,,,,https://weedmaps.com/dispensaries/in/united-states/alaska,Alaska,,,,United States,https://weedmaps.com/dispensaries/bad-gramm3r,,,,,,,,,
,https://weedmaps.com/dispensaries/in/united-states/alaska/anchorage,Anchorage,,,,,,,https://weedmaps.com/dispensaries/in/united-states/alaska,Alaska,,,,United States,https://weedmaps.com/dispensaries/pipe-and-leaf,,,,,,,,,
,https://weedmaps.com/dispensaries/in/united-states/hawaii/island-of-hawai-i,Island of Hawai'i,,,,,,,https://weedmaps.com/dispensaries/in/united-states/hawaii,Hawaii,,,,United States,https://weedmaps.com/dispensaries/maui-grown-therapies,,,,,,,,,
,https://weedmaps.com/dispensaries/in/united-states/hawaii/island-of-hawai-i,Island of Hawai'i,,,,,,,https://weedmaps.com/dispensaries/in/united-states/hawaii,Hawaii,,,,United States,https://weedmaps.com/dispensaries/pono-life-maui,,,,,,,,,
,https://weedmaps.com/dispensaries/in/united-states/alaska/anchorage,Anchorage,,,,,,,https://weedmaps.com/dispensaries/in/united-states/alaska,Alaska,,,,United States,https://weedmaps.com/dispensaries/northern-lights-indoor-gardens,,,,,,,,,
,https://weedmaps.com/dispensaries/in/united-states/alaska/anchorage,Anchorage,,,,,,,https://weedmaps.com/dispensaries/in/united-states/alaska,Alaska,,,,United States,https://weedmaps.com/dispensaries/green-elephant,,,,,,,,,
,https://weedmaps.com/dispensaries/in/united-states/alaska/anchorage,Anchorage,,,,,,,https://weedmaps.com/dispensaries/in/united-states/alaska,Alaska,,,,United States,https://weedmaps.com/dispensaries/cannabis-corner-ketchikan,,,,,,,,,
,https://weedmaps.com/dispensaries/in/united-states/alaska/anchorage,Anchorage,,,,,,,https://weedmaps.com/dispensaries/in/united-states/alaska,Alaska,,,,United States,https://weedmaps.com/dispensaries/the-fireweed-factory-juneau,,,,,,,,,
,https://weedmaps.com/dispensaries/in/united-states/alaska/anchorage,Anchorage,,,,,,,https://weedmaps.com/dispensaries/in/united-states/alaska,Alaska,,,,United States,https://weedmaps.com/dispensaries/houston-grass-station,,,,,,,,,
,https://weedmaps.com/dispensaries/in/united-states/alaska/anchorage,Anchorage,,,,,,,https://weedmaps.com/dispensaries/in/united-states/alaska,Alaska,,,,United States,https://weedmaps.com/dispensaries/grass-station-49,,,,,,,,,
,https://weedmaps.com/dispensaries/in/united-states/alaska/anchorage,Anchorage,,,,,,,https://weedmaps.com/dispensaries/in/united-states/alaska,Alaska,,,,United States,https://weedmaps.com/dispensaries/great-northern-cannabis,,,,,,,,,
,https://weedmaps.com/dispensaries/in/united-states/alaska/anchorage,Anchorage,,,,,,,https://weedmaps.com/dispensaries/in/united-states/alaska,Alaska,,,,United States,https://weedmaps.com/dispensaries/green-leaf-alaska,,,,,,,,,
,https://weedmaps.com/dispensaries/in/united-states/alaska/anchorage,Anchorage,,,,,,,https://weedmaps.com/dispensaries/in/united-states/alaska,Alaska,,,,United States,https://weedmaps.com/dispensaries/green-degree,,,,,,,,,
,https://weedmaps.com/dispensaries/in/united-states/alaska/anchorage,Anchorage,,,,,,,https://weedmaps.com/dispensaries/in/united-states/alaska,Alaska,,,,United States,https://weedmaps.com/dispensaries/good,,,,,,,,,
,https://weedmaps.com/dispensaries/in/united-states/alaska/anchorage,Anchorage,,,,,,,https://weedmaps.com/dispensaries/in/united-states/alaska,Alaska,,,,United States,https://weedmaps.com/dispensaries/alaskabuds,,,,,,,,,
,https://weedmaps.com/dispensaries/in/united-states/alaska/anchorage,Anchorage,,,,,,,https://weedmaps.com/dispensaries/in/united-states/alaska,Alaska,,,,United States,https://weedmaps.com/dispensaries/the-420-petersburg,,,,,,,,,
,https://weedmaps.com/dispensaries/in/united-states/alaska/anchorage,Anchorage,,,,,,,https://weedmaps.com/dispensaries/in/united-states/alaska,Alaska,,,,United States,https://weedmaps.com/dispensaries/true-dank,,,,,,,,,
,https://weedmaps.com/dispensaries/in/united-states/alaska/anchorage,Anchorage,,,,,,,https://weedmaps.com/dispensaries/in/united-states/alaska,Alaska,,,,United States,https://weedmaps.com/dispensaries/happy-cannabis-wrangell,,,,,,,,,
,https://weedmaps.com/dispensaries/in/united-states/alaska/anchorage,Anchorage,,,,,,,https://weedmaps.com/dispensaries/in/united-states/alaska,Alaska,,,,United States,https://weedmaps.com/dispensaries/winter-greens,,,,,,,,,
,https://weedmaps.com/dispensaries/in/united-states/alaska/anchorage,Anchorage,,,,,,,https://weedmaps.com/dispensaries/in/united-states/alaska,Alaska,,,,United States,https://weedmaps.com/dispensaries/the-outpost-at-kushtopia-alaska,,,,,,,,,
,https://weedmaps.com/dispensaries/in/united-states/alaska/anchorage,Anchorage,,,,,,,https://weedmaps.com/dispensaries/in/united-states/alaska,Alaska,,,,United States,https://weedmaps.com/dispensaries/house-of-green-anchorage,,,,,,,,,
,https://weedmaps.com/dispensaries/in/united-states/alaska/anchorage,Anchorage,,,,,,,https://weedmaps.com/dispensaries/in/united-states/alaska,Alaska,,,,United States,https://weedmaps.com/dispensaries/green-life-supply,,,,,,,,,
,https://weedmaps.com/dispensaries/in/united-states/alaska/anchorage,Anchorage,,,,,,,https://weedmaps.com/dispensaries/in/united-states/alaska,Alaska,,,,United States,https://weedmaps.com/dispensaries/alaska-weeds,,,,,,,,,
,https://weedmaps.com/dispensaries/in/united-states/alaska/anchorage,Anchorage,,,,,,,https://weedmaps.com/dispensaries/in/united-states/alaska,Alaska,,,,United States,https://weedmaps.com/dispensaries/hilltop-premium-green,,,,,,,,,
,https://weedmaps.com/dispensaries/in/united-states/alaska/anchorage,Anchorage,,,,,,,https://weedmaps.com/dispensaries/in/united-states/alaska,Alaska,,,,United States,https://weedmaps.com/dispensaries/alaskan-leaf,,,,,,,,,
,https://weedmaps.com/dispensaries/in/united-states/alaska/anchorage,Anchorage,,,,,,,https://weedmaps.com/dispensaries/in/united-states/alaska,Alaska,,,,United States,https://weedmaps.com/dispensaries/denali-420-recreationals,,,,,,,,,
,https://weedmaps.com/dispensaries/in/united-states/alaska/anchorage,Anchorage,,,,,,,https://weedmaps.com/dispensaries/in/united-states/alaska,Alaska,,,,United States,https://weedmaps.com/dispensaries/alaska-fireweed,,,,,,,,,
,https://weedmaps.com/dispensaries/in/united-states/alaska/anchorage,Anchorage,,,,,,,https://weedmaps.com/dispensaries/in/united-states/alaska,Alaska,,,,United States,https://weedmaps.com/dispensaries/matanuska-cannabis-company,,,,,,,,,
,https://weedmaps.com/dispensaries/in/united-states/alaska/anchorage,Anchorage,,,,,,,https://weedmaps.com/dispensaries/in/united-states/alaska,Alaska,,,,United States,https://weedmaps.com/dispensaries/ak-slow-burn,,,,,,,,,
,https://weedmaps.com/dispensaries/in/united-states/alaska/anchorage,Anchorage,,,,,,,https://weedmaps.com/dispensaries/in/united-states/alaska,Alaska,,,,United States,https://weedmaps.com/dispensaries/red-run-cannabis-company,,,,,,,,,
,https://weedmaps.com/dispensaries/in/united-states/alaska/anchorage,Anchorage,,,,,,,https://weedmaps.com/dispensaries/in/united-states/alaska,Alaska,,,,United States,https://weedmaps.com/dispensaries/the-frost-farms,,,,,,,,,
,https://weedmaps.com/dispensaries/in/united-states/alaska/anchorage,Anchorage,,,,,,,https://weedmaps.com/dispensaries/in/united-states/alaska,Alaska,,,,United States,https://weedmaps.com/dispensaries/tundra-herb-company,,,,,,,,,
,https://weedmaps.com/dispensaries/in/united-states/alaska/anchorage,Anchorage,,,,,,,https://weedmaps.com/dispensaries/in/united-states/alaska,Alaska,,,,United States,https://weedmaps.com/dispensaries/ak-fuzzy-budz,,,,,,,,,
,https://weedmaps.com/dispensaries/in/united-states/alaska/anchorage,Anchorage,,,,,,,https://weedmaps.com/dispensaries/in/united-states/alaska,Alaska,,,,United States,https://weedmaps.com/dispensaries/arctic-herbery-anchorage,,,,,,,,,
,https://weedmaps.com/dispensaries/in/united-states/alaska/anchorage,Anchorage,,,,,,,https://weedmaps.com/dispensaries/in/united-states/alaska,Alaska,,,,United States,https://weedmaps.com/dispensaries/satori-anchorage,,,,,,,,,
,https://weedmaps.com/dispensaries/in/united-states/alaska/anchorage,Anchorage,,,,,,,https://weedmaps.com/dispensaries/in/united-states/alaska,Alaska,,,,United States,https://weedmaps.com/dispensaries/the-green-room-ak,,,,,,,,,
,https://weedmaps.com/dispensaries/in/united-states/alaska/anchorage,Anchorage,,,,,,,https://weedmaps.com/dispensaries/in/united-states/alaska,Alaska,,,,United States,https://weedmaps.com/dispensaries/pakalolo-supply-co,,,,,,,,,
,https://weedmaps.com/dispensaries/in/united-states/alaska/anchorage,Anchorage,,,,,,,https://weedmaps.com/dispensaries/in/united-states/alaska,Alaska,,,,United States,https://weedmaps.com/dispensaries/enlighten-alaska,,,,,,,,,
,https://weedmaps.com/dispensaries/in/united-states/alaska/anchorage,Anchorage,,,,,,,https://weedmaps.com/dispensaries/in/united-states/alaska,Alaska,,,,United States,https://weedmaps.com/dispensaries/natures-releaf,,,,,,,,,
,https://weedmaps.com/dispensaries/in/united-states/alaska/anchorage,Anchorage,,,,,,,https://weedmaps.com/dispensaries/in/united-states/alaska,Alaska,,,,United States,https://weedmaps.com/dispensaries/rebel-roots,,,,,,,,,
,https://weedmaps.com/dispensaries/in/united-states/alaska/anchorage,Anchorage,,,,,,,https://weedmaps.com/dispensaries/in/united-states/alaska,Alaska,,,,United States,https://weedmaps.com/dispensaries/pakalolo-supply-co-anchorage,,,,,,,,,
,https://weedmaps.com/dispensaries/in/united-states/alaska/anchorage,Anchorage,,,,,,,https://weedmaps.com/dispensaries/in/united-states/alaska,Alaska,,,,United States,https://weedmaps.com/dispensaries/fairdanks-cannabis-2,,,,,,,,,
,https://weedmaps.com/dispensaries/in/united-states/alaska/anchorage,Anchorage,,,,,,,https://weedmaps.com/dispensaries/in/united-states/alaska,Alaska,,,,United States,https://weedmaps.com/dispensaries/great-northern-cannabis-south-anchorage,,,,,,,,,
,https://weedmaps.com/dispensaries/in/united-states/alaska/anchorage,Anchorage,,,,,,,https://weedmaps.com/dispensaries/in/united-states/alaska,Alaska,,,,United States,https://weedmaps.com/dispensaries/rosebuds-shatter-house,,,,,,,,,
,https://weedmaps.com/dispensaries/in/united-states/alaska/anchorage,Anchorage,,,,,,,https://weedmaps.com/dispensaries/in/united-states/alaska,Alaska,,,,United States,https://weedmaps.com/dispensaries/hillside-natural-wellness,,,,,,,,,
,https://weedmaps.com/dispensaries/in/united-states/alaska/anchorage,Anchorage,,,,,,,https://weedmaps.com/dispensaries/in/united-states/alaska,Alaska,,,,United States,https://weedmaps.com/dispensaries/the-stoney-moose-ketchikan,,,,,,,,,
,https://weedmaps.com/dispensaries/in/united-states/alaska/anchorage,Anchorage,,,,,,,https://weedmaps.com/dispensaries/in/united-states/alaska,Alaska,,,,United States,https://weedmaps.com/dispensaries/majestic-gardens,,,,,,,,,
,https://weedmaps.com/dispensaries/in/united-states/alaska/anchorage,Anchorage,,,,,,,https://weedmaps.com/dispensaries/in/united-states/alaska,Alaska,,,,United States,https://weedmaps.com/dispensaries/great-alaskan-bud-company,,,,,,,,,
,https://weedmaps.com/dispensaries/in/united-states/alaska/anchorage,Anchorage,,,,,,,https://weedmaps.com/dispensaries/in/united-states/alaska,Alaska,,,,United States,https://weedmaps.com/dispensaries/catalyst-cannabis-company,,,,,,,,,
,https://weedmaps.com/dispensaries/in/united-states/alaska/anchorage,Anchorage,,,,,,,https://weedmaps.com/dispensaries/in/united-states/alaska,Alaska,,,,United States,https://weedmaps.com/dispensaries/mary-janes-cannabis-emporium,,,,,,,,,
,https://weedmaps.com/dispensaries/in/united-states/alaska/anchorage,Anchorage,,,,,,,https://weedmaps.com/dispensaries/in/united-states/alaska,Alaska,,,,United States,https://weedmaps.com/dispensaries/alaskas-green-light-district,,,,,,,,,
,https://weedmaps.com/dispensaries/in/united-states/alaska/anchorage,Anchorage,,,,,,,https://weedmaps.com/dispensaries/in/united-states/alaska,Alaska,,,,United States,https://weedmaps.com/dispensaries/permafrost-distributors,,,,,,,,,
,https://weedmaps.com/dispensaries/in/united-states/alaska/anchorage,Anchorage,,,,,,,https://weedmaps.com/dispensaries/in/united-states/alaska,Alaska,,,,United States,https://weedmaps.com/dispensaries/uncle-herbs,,,,,,,,,
,https://weedmaps.com/dispensaries/in/united-states/alaska/anchorage,Anchorage,,,,,,,https://weedmaps.com/dispensaries/in/united-states/alaska,Alaska,,,,United States,https://weedmaps.com/dispensaries/k-beach-reef-2,,,,,,,,,
,https://weedmaps.com/dispensaries/in/united-states/alaska/anchorage,Anchorage,,,,,,,https://weedmaps.com/dispensaries/in/united-states/alaska,Alaska,,,,United States,https://weedmaps.com/dispensaries/good-buds,,,,,,,,,
,https://weedmaps.com/dispensaries/in/united-states/alaska/anchorage,Anchorage,,,,,,,https://weedmaps.com/dispensaries/in/united-states/alaska,Alaska,,,,United States,https://weedmaps.com/dispensaries/alaskan-blooms,,,,,,,,,
,https://weedmaps.com/dispensaries/in/united-states/alaska/anchorage,Anchorage,,,,,,,https://weedmaps.com/dispensaries/in/united-states/alaska,Alaska,,,,United States,https://weedmaps.com/dispensaries/ak-frost,,,,,,,,,
,https://weedmaps.com/dispensaries/in/united-states/alaska/anchorage,Anchorage,,,,,,,https://weedmaps.com/dispensaries/in/united-states/alaska,Alaska,,,,United States,https://weedmaps.com/dispensaries/denali-dispensaries,,,,,,,,,
,https://weedmaps.com/dispensaries/in/united-states/alaska/anchorage,Anchorage,,,,,,,https://weedmaps.com/dispensaries/in/united-states/alaska,Alaska,,,,United States,https://weedmaps.com/dispensaries/hollyweed-907,,,,,,,,,
,https://weedmaps.com/dispensaries/in/united-states/alaska/anchorage,Anchorage,,,,,,,https://weedmaps.com/dispensaries/in/united-states/alaska,Alaska,,,,United States,https://weedmaps.com/dispensaries/denali-grass-co-2,,,,,,,,,
,https://weedmaps.com/dispensaries/in/united-states/alaska/anchorage,Anchorage,,,,,,,https://weedmaps.com/dispensaries/in/united-states/alaska,Alaska,,,,United States,https://weedmaps.com/dispensaries/the-tufted-puffin,,,,,,,,,
,https://weedmaps.com/dispensaries/in/united-states/alaska/anchorage,Anchorage,,,,,,,https://weedmaps.com/dispensaries/in/united-states/alaska,Alaska,,,,United States,https://weedmaps.com/dispensaries/the-high-expedition,,,,,,,,,
,https://weedmaps.com/dispensaries/in/united-states/alaska/anchorage,Anchorage,,,,,,,https://weedmaps.com/dispensaries/in/united-states/alaska,Alaska,,,,United States,https://weedmaps.com/dispensaries/denali-s-cannabis-cache,,,,,,,,,
,https://weedmaps.com/dispensaries/in/united-states/alaska/anchorage,Anchorage,,,,,,,https://weedmaps.com/dispensaries/in/united-states/alaska,Alaska,,,,United States,https://weedmaps.com/dispensaries/ak-joint,,,,,,,,,
,https://weedmaps.com/dispensaries/in/united-states/alaska/anchorage,Anchorage,,,,,,,https://weedmaps.com/dispensaries/in/united-states/alaska,Alaska,,,,United States,https://weedmaps.com/dispensaries/high-bush-buds-kenai,,,,,,,,,
,https://weedmaps.com/dispensaries/in/united-states/alaska/anchorage,Anchorage,,,,,,,https://weedmaps.com/dispensaries/in/united-states/alaska,Alaska,,,,United States,https://weedmaps.com/dispensaries/pine-street-cannabis-company,,,,,,,,,
,https://weedmaps.com/dispensaries/in/united-states/alaska/anchorage,Anchorage,,,,,,,https://weedmaps.com/dispensaries/in/united-states/alaska,Alaska,,,,United States,https://weedmaps.com/dispensaries/chena-cannabis,,,,,,,,,
,https://weedmaps.com/dispensaries/in/united-states/alaska/anchorage,Anchorage,,,,,,,https://weedmaps.com/dispensaries/in/united-states/alaska,Alaska,,,,United States,https://weedmaps.com/dispensaries/uncle-herb-s,,,,,,,,,
,https://weedmaps.com/dispensaries/in/united-states/alaska/anchorage,Anchorage,,,,,,,https://weedmaps.com/dispensaries/in/united-states/alaska,Alaska,,,,United States,https://weedmaps.com/dispensaries/grass-station-49-2,,,,,,,,,
,https://weedmaps.com/dispensaries/in/united-states/alaska/anchorage,Anchorage,,,,,,,https://weedmaps.com/dispensaries/in/united-states/alaska,Alaska,,,,United States,https://weedmaps.com/dispensaries/east-rip-kenai,,,,,,,,,
,https://weedmaps.com/dispensaries/in/united-states/alaska/anchorage,Anchorage,,,,,,,https://weedmaps.com/dispensaries/in/united-states/alaska,Alaska,,,,United States,https://weedmaps.com/dispensaries/glacier-valley-shoppe,,,,,,,,,
,https://weedmaps.com/dispensaries/in/united-states/alaska/anchorage,Anchorage,,,,,,,https://weedmaps.com/dispensaries/in/united-states/alaska,Alaska,,,,United States,https://weedmaps.com/dispensaries/fat-tops-soldotna,,,,,,,,,
,https://weedmaps.com/dispensaries/in/united-states/alaska/anchorage,Anchorage,,,,,,,https://weedmaps.com/dispensaries/in/united-states/alaska,Alaska,,,,United States,https://weedmaps.com/dispensaries/am-delight-ak,,,,,,,,,
,https://weedmaps.com/dispensaries/in/united-states/alaska/anchorage,Anchorage,,,,,,,https://weedmaps.com/dispensaries/in/united-states/alaska,Alaska,,,,United States,https://weedmaps.com/dispensaries/alaskan-kush-company,,,,,,,,,
,https://weedmaps.com/dispensaries/in/united-states/california/5-cities,5 Cities,,,,,,,https://weedmaps.com/dispensaries/in/united-states/california,California,,,,United States,https://weedmaps.com/dispensaries/arts-district-cannabis-center,,,,,,,,,
,https://weedmaps.com/dispensaries/in/united-states/alaska/anchorage,Anchorage,,,,,,,https://weedmaps.com/dispensaries/in/united-states/alaska,Alaska,,,,United States,https://weedmaps.com/dispensaries/dankorage,,,,,,,,,
,https://weedmaps.com/dispensaries/in/united-states/alaska/anchorage,Anchorage,,,,,,,https://weedmaps.com/dispensaries/in/united-states/alaska,Alaska,,,,United States,https://weedmaps.com/dispensaries/the-mason-jar,,,,,,,,,
,https://weedmaps.com/dispensaries/in/united-states/alaska/anchorage,Anchorage,,,,,,,https://weedmaps.com/dispensaries/in/united-states/alaska,Alaska,,,,United States,https://weedmaps.com/dispensaries/the-fairbanks-cut,,,,,,,,,
,https://weedmaps.com/dispensaries/in/united-states/alaska/anchorage,Anchorage,,,,,,,https://weedmaps.com/dispensaries/in/united-states/alaska,Alaska,,,,United States,https://weedmaps.com/dispensaries/anchorage-bowl-llc,,,,,,,,,
,https://weedmaps.com/dispensaries/in/united-states/alaska/anchorage,Anchorage,,,,,,,https://weedmaps.com/dispensaries/in/united-states/alaska,Alaska,,,,United States,https://weedmaps.com/dispensaries/the-green-spot-big-lake,,,,,,,,,
,https://weedmaps.com/dispensaries/in/united-states/alaska/anchorage,Anchorage,,,,,,,https://weedmaps.com/dispensaries/in/united-states/alaska,Alaska,,,,United States,https://weedmaps.com/dispensaries/one-hit-wonder,,,,,,,,,
,https://weedmaps.com/dispensaries/in/united-states/alaska/anchorage,Anchorage,,,,,,,https://weedmaps.com/dispensaries/in/united-states/alaska,Alaska,,,,United States,https://weedmaps.com/dispensaries/thunder-cloud-9,,,,,,,,,
,https://weedmaps.com/dispensaries/in/united-states/alaska/anchorage,Anchorage,,,,,,,https://weedmaps.com/dispensaries/in/united-states/alaska,Alaska,,,,United States,https://weedmaps.com/dispensaries/kenai-river-cannabis,,,,,,,,,
,https://weedmaps.com/dispensaries/in/united-states/alaska/anchorage,Anchorage,,,,,,,https://weedmaps.com/dispensaries/in/united-states/alaska,Alaska,,,,United States,https://weedmaps.com/dispensaries/the-great-alaskan-kush-company,,,,,,,,,
,https://weedmaps.com/dispensaries/in/united-states/alaska/anchorage,Anchorage,,,,,,,https://weedmaps.com/dispensaries/in/united-states/alaska,Alaska,,,,United States,https://weedmaps.com/dispensaries/higher-by-bad-gramm3r,,,,,,,,,
,https://weedmaps.com/dispensaries/in/united-states/alaska/anchorage,Anchorage,,,,,,,https://weedmaps.com/dispensaries/in/united-states/alaska,Alaska,,,,United States,https://weedmaps.com/dispensaries/cloudberry-cannabis,,,,,,,,,
,https://weedmaps.com/dispensaries/in/united-states/california/5-cities,5 Cities,,,,,,,https://weedmaps.com/dispensaries/in/united-states/california,California,,,,United States,https://weedmaps.com/dispensaries/mosaic,,,,,,,,,
,https://weedmaps.com/dispensaries/in/united-states/florida/boca-raton,Boca Raton,,,,,,,https://weedmaps.com/dispensaries/in/united-states/florida,Florida,,,,United States,https://weedmaps.com/dispensaries/trulieve-new-port-richey,,,,,,,,,
,https://weedmaps.com/dispensaries/in/united-states/florida/boca-raton,Boca Raton,,,,,,,https://weedmaps.com/dispensaries/in/united-states/florida,Florida,,,,United States,https://weedmaps.com/dispensaries/surterra-wellness-new-port-richey,,,,,,,,,
,https://weedmaps.com/dispensaries/in/united-states/california/5-cities,5 Cities,,,,,,,https://weedmaps.com/dispensaries/in/united-states/california,California,,,,United States,https://weedmaps.com/dispensaries/stiiizy,,,,,,,,,
,https://weedmaps.com/dispensaries/in/united-states/california/5-cities,5 Cities,,,,,,,https://weedmaps.com/dispensaries/in/united-states/california,California,,,,United States,https://weedmaps.com/dispensaries/project-cannabis,,,,,,,,,
,https://weedmaps.com/dispensaries/in/united-states/california/5-cities,5 Cities,,,,,,,https://weedmaps.com/dispensaries/in/united-states/california,California,,,,United States,https://weedmaps.com/dispensaries/buddha-company-2,,,,,,,,,
,https://weedmaps.com/dispensaries/in/united-states/california/5-cities,5 Cities,,,,,,,https://weedmaps.com/dispensaries/in/united-states/california,California,,,,United States,https://weedmaps.com/dispensaries/downtown-patients-group-dtpg,,,,,,,,,
,https://weedmaps.com/dispensaries/in/united-states/california/5-cities,5 Cities,,,,,,,https://weedmaps.com/dispensaries/in/united-states/california,California,,,,United States,https://weedmaps.com/dispensaries/lafinestcollectives,,,,,,,,,
,https://weedmaps.com/dispensaries/in/united-states/california/5-cities,5 Cities,,,,,,,https://weedmaps.com/dispensaries/in/united-states/california,California,,,,United States,https://weedmaps.com/dispensaries/ogb-2,,,,,,,,,
,https://weedmaps.com/dispensaries/in/united-states/california/5-cities,5 Cities,,,,,,,https://weedmaps.com/dispensaries/in/united-states/california,California,,,,United States,https://weedmaps.com/dispensaries/blis,,,,,,,,,
,https://weedmaps.com/dispensaries/in/united-states/california/5-cities,5 Cities,,,,,,,https://weedmaps.com/dispensaries/in/united-states/california,California,,,,United States,https://weedmaps.com/dispensaries/shivas-dtla,,,,,,,,,
,https://weedmaps.com/dispensaries/in/united-states/california/5-cities,5 Cities,,,,,,,https://weedmaps.com/dispensaries/in/united-states/california,California,,,,United States,https://weedmaps.com/dispensaries/hhc-plus,,,,,,,,,
,https://weedmaps.com/dispensaries/in/united-states/california/5-cities,5 Cities,,,,,,,https://weedmaps.com/dispensaries/in/united-states/california,California,,,,United States,https://weedmaps.com/dispensaries/la-wonderland-caregivers,,,,,,,,,
,https://weedmaps.com/dispensaries/in/united-states/california/5-cities,5 Cities,,,,,,,https://weedmaps.com/dispensaries/in/united-states/california,California,,,,United States,https://weedmaps.com/dispensaries/cannabal-city,,,,,,,,,
,https://weedmaps.com/dispensaries/in/united-states/california/5-cities,5 Cities,,,,,,,https://weedmaps.com/dispensaries/in/united-states/california,California,,,,United States,https://weedmaps.com/dispensaries/ogk,,,,,,,,,
,https://weedmaps.com/dispensaries/in/united-states/california/5-cities,5 Cities,,,,,,,https://weedmaps.com/dispensaries/in/united-states/california,California,,,,United States,https://weedmaps.com/dispensaries/lit-co,,,,,,,,,
,https://weedmaps.com/dispensaries/in/united-states/california/5-cities,5 Cities,,,,,,,https://weedmaps.com/dispensaries/in/united-states/california,California,,,,United States,https://weedmaps.com/dispensaries/los-angeles-farmers,,,,,,,,,
,https://weedmaps.com/dispensaries/in/united-states/california/5-cities,5 Cities,,,,,,,https://weedmaps.com/dispensaries/in/united-states/california,California,,,,United States,https://weedmaps.com/dispensaries/oz-n-bounce,,,,,,,,,
,https://weedmaps.com/dispensaries/in/united-states/california/5-cities,5 Cities,,,,,,,https://weedmaps.com/dispensaries/in/united-states/california,California,,,,United States,https://weedmaps.com/dispensaries/medmen-2,,,,,,,,,
,https://weedmaps.com/dispensaries/in/united-states/california/5-cities,5 Cities,,,,,,,https://weedmaps.com/dispensaries/in/united-states/california,California,,,,United States,https://weedmaps.com/dispensaries/downtown-fantastic-20-cap,,,,,,,,,
,https://weedmaps.com/dispensaries/in/united-states/california/5-cities,5 Cities,,,,,,,https://weedmaps.com/dispensaries/in/united-states/california,California,,,,United States,https://weedmaps.com/dispensaries/urthleaf,,,,,,,,,
,https://weedmaps.com/dispensaries/in/united-states/colorado/alamosa,Alamosa,,,,,,,https://weedmaps.com/dispensaries/in/united-states/colorado,Colorado,,,,United States,https://weedmaps.com/dispensaries/green-sativa,,,,,,,,,
,https://weedmaps.com/dispensaries/in/united-states/colorado/alamosa,Alamosa,,,,,,,https://weedmaps.com/dispensaries/in/united-states/colorado,Colorado,,,,United States,https://weedmaps.com/dispensaries/buds-ltd,,,,,,,,,
,https://weedmaps.com/dispensaries/in/united-states/colorado/alamosa,Alamosa,,,,,,,https://weedmaps.com/dispensaries/in/united-states/colorado,Colorado,,,,United States,https://weedmaps.com/dispensaries/the-green-stop,,,,,,,,,
,https://weedmaps.com/dispensaries/in/united-states/colorado/alamosa,Alamosa,,,,,,,https://weedmaps.com/dispensaries/in/united-states/colorado,Colorado,,,,United States,https://weedmaps.com/dispensaries/eclipse-cannabis-company,,,,,,,,,
,https://weedmaps.com/dispensaries/in/united-states/colorado/alamosa,Alamosa,,,,,,,https://weedmaps.com/dispensaries/in/united-states/colorado,Colorado,,,,United States,https://weedmaps.com/dispensaries/igadi-ltd-lafyette,,,,,,,,,
,https://weedmaps.com/dispensaries/in/united-states/colorado/alamosa,Alamosa,,,,,,,https://weedmaps.com/dispensaries/in/united-states/colorado,Colorado,,,,United States,https://weedmaps.com/dispensaries/trees-dispensary-englewood,,,,,,,,,
,https://weedmaps.com/dispensaries/in/united-states/colorado/alamosa,Alamosa,,,,,,,https://weedmaps.com/dispensaries/in/united-states/colorado,Colorado,,,,United States,https://weedmaps.com/dispensaries/grant-pharms-mmc,,,,,,,,,
,https://weedmaps.com/dispensaries/in/united-states/colorado/alamosa,Alamosa,,,,,,,https://weedmaps.com/dispensaries/in/united-states/colorado,Colorado,,,,United States,https://weedmaps.com/dispensaries/trenchtown-marijuana-center-recreational-mmj-denver,,,,,,,,,
,https://weedmaps.com/dispensaries/in/united-states/colorado/alamosa,Alamosa,,,,,,,https://weedmaps.com/dispensaries/in/united-states/colorado,Colorado,,,,United States,https://weedmaps.com/dispensaries/trinidads-higher-calling-u,,,,,,,,,
,https://weedmaps.com/dispensaries/in/united-states/colorado/alamosa,Alamosa,,,,,,,https://weedmaps.com/dispensaries/in/united-states/colorado,Colorado,,,,United States,https://weedmaps.com/dispensaries/ascend-cannabis-co-5,,,,,,,,,
,https://weedmaps.com/dispensaries/in/united-states/colorado/alamosa,Alamosa,,,,,,,https://weedmaps.com/dispensaries/in/united-states/colorado,Colorado,,,,United States,https://weedmaps.com/dispensaries/animas-herbal-wellness-center,,,,,,,,,
,https://weedmaps.com/dispensaries/in/united-states/colorado/alamosa,Alamosa,,,,,,,https://weedmaps.com/dispensaries/in/united-states/colorado,Colorado,,,,United States,https://weedmaps.com/dispensaries/organix-adult-use,,,,,,,,,
,https://weedmaps.com/dispensaries/in/united-states/colorado/alamosa,Alamosa,,,,,,,https://weedmaps.com/dispensaries/in/united-states/colorado,Colorado,,,,United States,https://weedmaps.com/dispensaries/healing-house-lakewood,,,,,,,,,
,https://weedmaps.com/dispensaries/in/united-states/colorado/alamosa,Alamosa,,,,,,,https://weedmaps.com/dispensaries/in/united-states/colorado,Colorado,,,,United States,https://weedmaps.com/dispensaries/rocky-mountain-cannabis-2,,,,,,,,,
,https://weedmaps.com/dispensaries/in/united-states/colorado/alamosa,Alamosa,,,,,,,https://weedmaps.com/dispensaries/in/united-states/colorado,Colorado,,,,United States,https://weedmaps.com/dispensaries/mountain-medicinals-wellness-center-recreational,,,,,,,,,
,https://weedmaps.com/dispensaries/in/united-states/colorado/alamosa,Alamosa,,,,,,,https://weedmaps.com/dispensaries/in/united-states/colorado,Colorado,,,,United States,https://weedmaps.com/dispensaries/the-clinic-colorado-adult-use,,,,,,,,,
,https://weedmaps.com/dispensaries/in/united-states/colorado/alamosa,Alamosa,,,,,,,https://weedmaps.com/dispensaries/in/united-states/colorado,Colorado,,,,United States,https://weedmaps.com/dispensaries/chronic-therapy-cortez,,,,,,,,,
,https://weedmaps.com/dispensaries/in/united-states/colorado/alamosa,Alamosa,,,,,,,https://weedmaps.com/dispensaries/in/united-states/colorado,Colorado,,,,United States,https://weedmaps.com/dispensaries/mesa-organics-1,,,,,,,,,
,https://weedmaps.com/dispensaries/in/united-states/colorado/alamosa,Alamosa,,,,,,,https://weedmaps.com/dispensaries/in/united-states/colorado,Colorado,,,,United States,https://weedmaps.com/dispensaries/rocky-mountain-cannabis-naturita,,,,,,,,,
,https://weedmaps.com/dispensaries/in/united-states/colorado/alamosa,Alamosa,,,,,,,https://weedmaps.com/dispensaries/in/united-states/colorado,Colorado,,,,United States,https://weedmaps.com/dispensaries/buddy-boy-2-6,,,,,,,,,
,https://weedmaps.com/dispensaries/in/united-states/colorado/alamosa,Alamosa,,,,,,,https://weedmaps.com/dispensaries/in/united-states/colorado,Colorado,,,,United States,https://weedmaps.com/dispensaries/mmj-america-downtown-recreational-1,,,,,,,,,
,https://weedmaps.com/dispensaries/in/united-states/colorado/alamosa,Alamosa,,,,,,,https://weedmaps.com/dispensaries/in/united-states/colorado,Colorado,,,,United States,https://weedmaps.com/dispensaries/euflora-buckley,,,,,,,,,
,https://weedmaps.com/dispensaries/in/united-states/colorado/alamosa,Alamosa,,,,,,,https://weedmaps.com/dispensaries/in/united-states/colorado,Colorado,,,,United States,https://weedmaps.com/dispensaries/tumbleweed-frisco,,,,,,,,,
,https://weedmaps.com/dispensaries/in/united-states/colorado/alamosa,Alamosa,,,,,,,https://weedmaps.com/dispensaries/in/united-states/colorado,Colorado,,,,United States,https://weedmaps.com/dispensaries/pueblo-west-organics-2,,,,,,,,,
,https://weedmaps.com/dispensaries/in/united-states/colorado/alamosa,Alamosa,,,,,,,https://weedmaps.com/dispensaries/in/united-states/colorado,Colorado,,,,United States,https://weedmaps.com/dispensaries/faragosi-farms,,,,,,,,,
,https://weedmaps.com/dispensaries/in/united-states/colorado/alamosa,Alamosa,,,,,,,https://weedmaps.com/dispensaries/in/united-states/colorado,Colorado,,,,United States,https://weedmaps.com/dispensaries/natures-medicine-salida,,,,,,,,,
,https://weedmaps.com/dispensaries/in/united-states/colorado/alamosa,Alamosa,,,,,,,https://weedmaps.com/dispensaries/in/united-states/colorado,Colorado,,,,United States,https://weedmaps.com/dispensaries/fox-cannabis-co-adult-use,,,,,,,,,
,https://weedmaps.com/dispensaries/in/united-states/colorado/alamosa,Alamosa,,,,,,,https://weedmaps.com/dispensaries/in/united-states/colorado,Colorado,,,,United States,https://weedmaps.com/dispensaries/fiddlers-green,,,,,,,,,
,https://weedmaps.com/dispensaries/in/united-states/colorado/alamosa,Alamosa,,,,,,,https://weedmaps.com/dispensaries/in/united-states/colorado,Colorado,,,,United States,https://weedmaps.com/dispensaries/physician-preferred-products-recreational,,,,,,,,,
,https://weedmaps.com/dispensaries/in/united-states/colorado/alamosa,Alamosa,,,,,,,https://weedmaps.com/dispensaries/in/united-states/colorado,Colorado,,,,United States,https://weedmaps.com/dispensaries/the-kind-castle,,,,,,,,,
,https://weedmaps.com/dispensaries/in/united-states/colorado/alamosa,Alamosa,,,,,,,https://weedmaps.com/dispensaries/in/united-states/colorado,Colorado,,,,United States,https://weedmaps.com/dispensaries/champion-cannabis,,,,,,,,,
,https://weedmaps.com/dispensaries/in/united-states/colorado/alamosa,Alamosa,,,,,,,https://weedmaps.com/dispensaries/in/united-states/colorado,Colorado,,,,United States,https://weedmaps.com/dispensaries/golden-meds-3,,,,,,,,,
,https://weedmaps.com/dispensaries/in/united-states/colorado/alamosa,Alamosa,,,,,,,https://weedmaps.com/dispensaries/in/united-states/colorado,Colorado,,,,United States,https://weedmaps.com/dispensaries/sante-alternative-wellness,,,,,,,,,
,https://weedmaps.com/dispensaries/in/united-states/colorado/alamosa,Alamosa,,,,,,,https://weedmaps.com/dispensaries/in/united-states/colorado,Colorado,,,,United States,https://weedmaps.com/dispensaries/golden-meds-leetsdale,,,,,,,,,
,https://weedmaps.com/dispensaries/in/united-states/colorado/alamosa,Alamosa,,,,,,,https://weedmaps.com/dispensaries/in/united-states/colorado,Colorado,,,,United States,https://weedmaps.com/dispensaries/breckenridge-organic-therapy,,,,,,,,,
,https://weedmaps.com/dispensaries/in/united-states/colorado/alamosa,Alamosa,,,,,,,https://weedmaps.com/dispensaries/in/united-states/colorado,Colorado,,,,United States,https://weedmaps.com/dispensaries/bud-med-health-centers-patients-choice-partner,,,,,,,,,
,https://weedmaps.com/dispensaries/in/united-states/colorado/alamosa,Alamosa,,,,,,,https://weedmaps.com/dispensaries/in/united-states/colorado,Colorado,,,,United States,https://weedmaps.com/dispensaries/rocky-mountain-cannabis-2-6,,,,,,,,,
,https://weedmaps.com/dispensaries/in/united-states/colorado/alamosa,Alamosa,,,,,,,https://weedmaps.com/dispensaries/in/united-states/colorado,Colorado,,,,United States,https://weedmaps.com/dispensaries/roots-rx-aspen,,,,,,,,,
,https://weedmaps.com/dispensaries/in/united-states/colorado/alamosa,Alamosa,,,,,,,https://weedmaps.com/dispensaries/in/united-states/colorado,Colorado,,,,United States,https://weedmaps.com/dispensaries/kaya-cannabis-on-jewell,,,,,,,,,
,https://weedmaps.com/dispensaries/in/united-states/colorado/alamosa,Alamosa,,,,,,,https://weedmaps.com/dispensaries/in/united-states/colorado,Colorado,,,,United States,https://weedmaps.com/dispensaries/sedgwick-alternative-relief-colorado,,,,,,,,,
,https://weedmaps.com/dispensaries/in/united-states/colorado/alamosa,Alamosa,,,,,,,https://weedmaps.com/dispensaries/in/united-states/colorado,Colorado,,,,United States,https://weedmaps.com/dispensaries/buddy-boy-brands-walnut-recreational,,,,,,,,,
,https://weedmaps.com/dispensaries/in/united-states/colorado/alamosa,Alamosa,,,,,,,https://weedmaps.com/dispensaries/in/united-states/colorado,Colorado,,,,United States,https://weedmaps.com/dispensaries/euflora-longmont,,,,,,,,,
,https://weedmaps.com/dispensaries/in/united-states/colorado/alamosa,Alamosa,,,,,,,https://weedmaps.com/dispensaries/in/united-states/colorado,Colorado,,,,United States,https://weedmaps.com/dispensaries/wild-wild-weed-las-animas,,,,,,,,,
,https://weedmaps.com/dispensaries/in/united-states/colorado/alamosa,Alamosa,,,,,,,https://weedmaps.com/dispensaries/in/united-states/colorado,Colorado,,,,United States,https://weedmaps.com/dispensaries/euflora-southlands-2,,,,,,,,,
,https://weedmaps.com/dispensaries/in/united-states/colorado/alamosa,Alamosa,,,,,,,https://weedmaps.com/dispensaries/in/united-states/colorado,Colorado,,,,United States,https://weedmaps.com/dispensaries/rocky-mountain-cannabis-georgetown,,,,,,,,,
,https://weedmaps.com/dispensaries/in/united-states/colorado/alamosa,Alamosa,,,,,,,https://weedmaps.com/dispensaries/in/united-states/colorado,Colorado,,,,United States,https://weedmaps.com/dispensaries/tumbleweed-carbondale,,,,,,,,,
,https://weedmaps.com/dispensaries/in/united-states/colorado/alamosa,Alamosa,,,,,,,https://weedmaps.com/dispensaries/in/united-states/colorado,Colorado,,,,United States,https://weedmaps.com/dispensaries/the-lodge-recreational,,,,,,,,,
,https://weedmaps.com/dispensaries/in/united-states/colorado/alamosa,Alamosa,,,,,,,https://weedmaps.com/dispensaries/in/united-states/colorado,Colorado,,,,United States,https://weedmaps.com/dispensaries/medicine-man-aurora,,,,,,,,,
,https://weedmaps.com/dispensaries/in/united-states/colorado/alamosa,Alamosa,,,,,,,https://weedmaps.com/dispensaries/in/united-states/colorado,Colorado,,,,United States,https://weedmaps.com/dispensaries/3d-cannabis-center-salida,,,,,,,,,
,https://weedmaps.com/dispensaries/in/united-states/colorado/alamosa,Alamosa,,,,,,,https://weedmaps.com/dispensaries/in/united-states/colorado,Colorado,,,,United States,https://weedmaps.com/dispensaries/wicked-weed,,,,,,,,,
,https://weedmaps.com/dispensaries/in/united-states/colorado/alamosa,Alamosa,,,,,,,https://weedmaps.com/dispensaries/in/united-states/colorado,Colorado,,,,United States,https://weedmaps.com/dispensaries/solace-meds-2,,,,,,,,,
,https://weedmaps.com/dispensaries/in/united-states/colorado/alamosa,Alamosa,,,,,,,https://weedmaps.com/dispensaries/in/united-states/colorado,Colorado,,,,United States,https://weedmaps.com/dispensaries/the-highway-adult-use,,,,,,,,,
,https://weedmaps.com/dispensaries/in/united-states/colorado/alamosa,Alamosa,,,,,,,https://weedmaps.com/dispensaries/in/united-states/colorado,Colorado,,,,United States,https://weedmaps.com/dispensaries/wolf-pac,,,,,,,,,
,https://weedmaps.com/dispensaries/in/united-states/iowa/council-bluffs,Council Bluffs,,,,,,,https://weedmaps.com/dispensaries/in/united-states/iowa,Iowa,,,,United States,https://weedmaps.com/dispensaries/medpharm-iowa-windsor-heights,,,,,,,,,
,https://weedmaps.com/dispensaries/in/united-states/colorado/alamosa,Alamosa,,,,,,,https://weedmaps.com/dispensaries/in/united-states/colorado,Colorado,,,,United States,https://weedmaps.com/dispensaries/ascend-cannabis-co,,,,,,,,,
,https://weedmaps.com/dispensaries/in/united-states/colorado/alamosa,Alamosa,,,,,,,https://weedmaps.com/dispensaries/in/united-states/colorado,Colorado,,,,United States,https://weedmaps.com/dispensaries/a-wellness-centers,,,,,,,,,
,https://weedmaps.com/dispensaries/in/united-states/colorado/alamosa,Alamosa,,,,,,,https://weedmaps.com/dispensaries/in/united-states/colorado,Colorado,,,,United States,https://weedmaps.com/dispensaries/cannaco-2,,,,,,,,,
,https://weedmaps.com/dispensaries/in/united-states/colorado/alamosa,Alamosa,,,,,,,https://weedmaps.com/dispensaries/in/united-states/colorado,Colorado,,,,United States,https://weedmaps.com/dispensaries/best-day-ever,,,,,,,,,
,https://weedmaps.com/dispensaries/in/united-states/colorado/alamosa,Alamosa,,,,,,,https://weedmaps.com/dispensaries/in/united-states/colorado,Colorado,,,,United States,https://weedmaps.com/dispensaries/green-tree-berthoud,,,,,,,,,
,https://weedmaps.com/dispensaries/in/united-states/colorado/alamosa,Alamosa,,,,,,,https://weedmaps.com/dispensaries/in/united-states/colorado,Colorado,,,,United States,https://weedmaps.com/dispensaries/loud-dispensary-coming-soon,,,,,,,,,
,https://weedmaps.com/dispensaries/in/united-states/colorado/alamosa,Alamosa,,,,,,,https://weedmaps.com/dispensaries/in/united-states/colorado,Colorado,,,,United States,https://weedmaps.com/dispensaries/green-tree-northglenn-2,,,,,,,,,
,https://weedmaps.com/dispensaries/in/united-states/colorado/alamosa,Alamosa,,,,,,,https://weedmaps.com/dispensaries/in/united-states/colorado,Colorado,,,,United States,https://weedmaps.com/dispensaries/dinotreats-llc,,,,,,,,,
,https://weedmaps.com/dispensaries/in/united-states/colorado/alamosa,Alamosa,,,,,,,https://weedmaps.com/dispensaries/in/united-states/colorado,Colorado,,,,United States,https://weedmaps.com/dispensaries/green-tree-medicinals-boulder,,,,,,,,,
,https://weedmaps.com/dispensaries/in/united-states/colorado/alamosa,Alamosa,,,,,,,https://weedmaps.com/dispensaries/in/united-states/colorado,Colorado,,,,United States,https://weedmaps.com/dispensaries/high-plainz-strains-dispensary,,,,,,,,,
,https://weedmaps.com/dispensaries/in/united-states/colorado/alamosa,Alamosa,,,,,,,https://weedmaps.com/dispensaries/in/united-states/colorado,Colorado,,,,United States,https://weedmaps.com/dispensaries/floyds-of-leadville-2,,,,,,,,,
,https://weedmaps.com/dispensaries/in/united-states/colorado/alamosa,Alamosa,,,,,,,https://weedmaps.com/dispensaries/in/united-states/colorado,Colorado,,,,United States,https://weedmaps.com/dispensaries/the-homestead,,,,,,,,,
,https://weedmaps.com/dispensaries/in/united-states/colorado/alamosa,Alamosa,,,,,,,https://weedmaps.com/dispensaries/in/united-states/colorado,Colorado,,,,United States,https://weedmaps.com/dispensaries/green-tree-medicinals-formerly-nature-s-medicine-of-longmont,,,,,,,,,
,https://weedmaps.com/dispensaries/in/united-states/colorado/alamosa,Alamosa,,,,,,,https://weedmaps.com/dispensaries/in/united-states/colorado,Colorado,,,,United States,https://weedmaps.com/dispensaries/buddy-boy-brands-38th,,,,,,,,,
,https://weedmaps.com/dispensaries/in/united-states/colorado/alamosa,Alamosa,,,,,,,https://weedmaps.com/dispensaries/in/united-states/colorado,Colorado,,,,United States,https://weedmaps.com/dispensaries/buds-llc-2,,,,,,,,,
,https://weedmaps.com/dispensaries/in/united-states/colorado/alamosa,Alamosa,,,,,,,https://weedmaps.com/dispensaries/in/united-states/colorado,Colorado,,,,United States,https://weedmaps.com/dispensaries/magnolia-road-cannabis-co-recreational,,,,,,,,,
,https://weedmaps.com/dispensaries/in/united-states/colorado/alamosa,Alamosa,,,,,,,https://weedmaps.com/dispensaries/in/united-states/colorado,Colorado,,,,United States,https://weedmaps.com/dispensaries/golden-meds-adult-use,,,,,,,,,
,https://weedmaps.com/dispensaries/in/united-states/colorado/alamosa,Alamosa,,,,,,,https://weedmaps.com/dispensaries/in/united-states/colorado,Colorado,,,,United States,https://weedmaps.com/dispensaries/highland-health,,,,,,,,,
,https://weedmaps.com/dispensaries/in/united-states/colorado/alamosa,Alamosa,,,,,,,https://weedmaps.com/dispensaries/in/united-states/colorado,Colorado,,,,United States,https://weedmaps.com/dispensaries/sacred-seed-recreational,,,,,,,,,
,https://weedmaps.com/dispensaries/in/united-states/colorado/alamosa,Alamosa,,,,,,,https://weedmaps.com/dispensaries/in/united-states/colorado,Colorado,,,,United States,https://weedmaps.com/dispensaries/natural-selections-recreational,,,,,,,,,
,https://weedmaps.com/dispensaries/in/united-states/colorado/alamosa,Alamosa,,,,,,,https://weedmaps.com/dispensaries/in/united-states/colorado,Colorado,,,,United States,https://weedmaps.com/dispensaries/colorado-cannabis-cabin,,,,,,,,,
,https://weedmaps.com/dispensaries/in/united-states/colorado/alamosa,Alamosa,,,,,,,https://weedmaps.com/dispensaries/in/united-states/colorado,Colorado,,,,United States,https://weedmaps.com/dispensaries/riverrock-south-recreational,,,,,,,,,
,https://weedmaps.com/dispensaries/in/united-states/colorado/alamosa,Alamosa,,,,,,,https://weedmaps.com/dispensaries/in/united-states/colorado,Colorado,,,,United States,https://weedmaps.com/dispensaries/dabbington-dispensary,,,,,,,,,
,https://weedmaps.com/dispensaries/in/united-states/colorado/alamosa,Alamosa,,,,,,,https://weedmaps.com/dispensaries/in/united-states/colorado,Colorado,,,,United States,https://weedmaps.com/dispensaries/solace-meds-of-wheat-ridge-recreational,,,,,,,,,
,https://weedmaps.com/dispensaries/in/united-states/colorado/alamosa,Alamosa,,,,,,,https://weedmaps.com/dispensaries/in/united-states/colorado,Colorado,,,,United States,https://weedmaps.com/dispensaries/high-country-healing-2-recreational-alma,,,,,,,,,
,https://weedmaps.com/dispensaries/in/united-states/colorado/alamosa,Alamosa,,,,,,,https://weedmaps.com/dispensaries/in/united-states/colorado,Colorado,,,,United States,https://weedmaps.com/dispensaries/rocky-farms,,,,,,,,,
,https://weedmaps.com/dispensaries/in/united-states/colorado/alamosa,Alamosa,,,,,,,https://weedmaps.com/dispensaries/in/united-states/colorado,Colorado,,,,United States,https://weedmaps.com/dispensaries/euflora-aspen,,,,,,,,,
,https://weedmaps.com/dispensaries/in/united-states/colorado/alamosa,Alamosa,,,,,,,https://weedmaps.com/dispensaries/in/united-states/colorado,Colorado,,,,United States,https://weedmaps.com/dispensaries/headquarters-cannabis-company-medical-mmc-longmont,,,,,,,,,
,https://weedmaps.com/dispensaries/in/united-states/colorado/alamosa,Alamosa,,,,,,,https://weedmaps.com/dispensaries/in/united-states/colorado,Colorado,,,,United States,https://weedmaps.com/dispensaries/karmaceuticals-1,,,,,,,,,
,https://weedmaps.com/dispensaries/in/united-states/colorado/alamosa,Alamosa,,,,,,,https://weedmaps.com/dispensaries/in/united-states/colorado,Colorado,,,,United States,https://weedmaps.com/dispensaries/the-tumbleweed-dispensary-drive-through,,,,,,,,,
,https://weedmaps.com/dispensaries/in/united-states/colorado/alamosa,Alamosa,,,,,,,https://weedmaps.com/dispensaries/in/united-states/colorado,Colorado,,,,United States,https://weedmaps.com/dispensaries/kind-care-of-colorado-2,,,,,,,,,
,https://weedmaps.com/dispensaries/in/united-states/colorado/alamosa,Alamosa,,,,,,,https://weedmaps.com/dispensaries/in/united-states/colorado,Colorado,,,,United States,https://weedmaps.com/dispensaries/freedom-road,,,,,,,,,
,https://weedmaps.com/dispensaries/in/united-states/colorado/alamosa,Alamosa,,,,,,,https://weedmaps.com/dispensaries/in/united-states/colorado,Colorado,,,,United States,https://weedmaps.com/dispensaries/rocky-mountain-high,,,,,,,,,
,https://weedmaps.com/dispensaries/in/united-states/colorado/alamosa,Alamosa,,,,,,,https://weedmaps.com/dispensaries/in/united-states/colorado,Colorado,,,,United States,https://weedmaps.com/dispensaries/pure-medical-dispensary,,,,,,,,,
,https://weedmaps.com/dispensaries/in/united-states/colorado/alamosa,Alamosa,,,,,,,https://weedmaps.com/dispensaries/in/united-states/colorado,Colorado,,,,United States,https://weedmaps.com/dispensaries/three-rivers-organics-rec,,,,,,,,,
,https://weedmaps.com/dispensaries/in/united-states/colorado/alamosa,Alamosa,,,,,,,https://weedmaps.com/dispensaries/in/united-states/colorado,Colorado,,,,United States,https://weedmaps.com/dispensaries/euflora-3d,,,,,,,,,
,https://weedmaps.com/dispensaries/in/united-states/colorado/alamosa,Alamosa,,,,,,,https://weedmaps.com/dispensaries/in/united-states/colorado,Colorado,,,,United States,https://weedmaps.com/dispensaries/nuvue-colorado-springs,,,,,,,,,
,https://weedmaps.com/dispensaries/in/united-states/colorado/alamosa,Alamosa,,,,,,,https://weedmaps.com/dispensaries/in/united-states/colorado,Colorado,,,,United States,https://weedmaps.com/dispensaries/northern-lights-natural-rx,,,,,,,,,
,https://weedmaps.com/dispensaries/in/united-states/colorado/alamosa,Alamosa,,,,,,,https://weedmaps.com/dispensaries/in/united-states/colorado,Colorado,,,,United States,https://weedmaps.com/dispensaries/ascend-cannabis-co-2,,,,,,,,,
,https://weedmaps.com/dispensaries/in/united-states/colorado/alamosa,Alamosa,,,,,,,https://weedmaps.com/dispensaries/in/united-states/colorado,Colorado,,,,United States,https://weedmaps.com/dispensaries/primo,,,,,,,,,
,https://weedmaps.com/dispensaries/in/united-states/colorado/alamosa,Alamosa,,,,,,,https://weedmaps.com/dispensaries/in/united-states/colorado,Colorado,,,,United States,https://weedmaps.com/dispensaries/lightshade-federal-heights-medical,,,,,,,,,
,https://weedmaps.com/dispensaries/in/united-states/colorado/alamosa,Alamosa,,,,,,,https://weedmaps.com/dispensaries/in/united-states/colorado,Colorado,,,,United States,https://weedmaps.com/dispensaries/tumbleweed-dispensary-debeque,,,,,,,,,
,https://weedmaps.com/dispensaries/in/united-states/colorado/alamosa,Alamosa,,,,,,,https://weedmaps.com/dispensaries/in/united-states/colorado,Colorado,,,,United States,https://weedmaps.com/dispensaries/kaya-cannabis-recreational,,,,,,,,,
,https://weedmaps.com/dispensaries/in/united-states/colorado/alamosa,Alamosa,,,,,,,https://weedmaps.com/dispensaries/in/united-states/colorado,Colorado,,,,United States,https://weedmaps.com/dispensaries/levitywellness,,,,,,,,,
,https://weedmaps.com/dispensaries/in/united-states/colorado/alamosa,Alamosa,,,,,,,https://weedmaps.com/dispensaries/in/united-states/colorado,Colorado,,,,United States,https://weedmaps.com/dispensaries/the-spot-420-2,,,,,,,,,
,https://weedmaps.com/dispensaries/in/united-states/illinois/aurora-il,"Aurora, IL",,,,,,,https://weedmaps.com/dispensaries/in/united-states/illinois,Illinois,,,,United States,https://weedmaps.com/dispensaries/the-green-solution-illinois-normal,,,,,,,,,
,https://weedmaps.com/dispensaries/in/united-states/colorado/alamosa,Alamosa,,,,,,,https://weedmaps.com/dispensaries/in/united-states/colorado,Colorado,,,,United States,https://weedmaps.com/dispensaries/high-west-cannabis,,,,,,,,,
,https://weedmaps.com/dispensaries/in/united-states/colorado/alamosa,Alamosa,,,,,,,https://weedmaps.com/dispensaries/in/united-states/colorado,Colorado,,,,United States,https://weedmaps.com/dispensaries/mile-high-green-cross-recreational,,,,,,,,,
,https://weedmaps.com/dispensaries/in/united-states/massachusetts/ayer,Ayer,,,,,,,https://weedmaps.com/dispensaries/in/united-states/massachusetts,Massachusetts,,,,United States,https://weedmaps.com/dispensaries/mission-worcester,,,,,,,,,
,https://weedmaps.com/dispensaries/in/united-states/massachusetts/ayer,Ayer,,,,,,,https://weedmaps.com/dispensaries/in/united-states/massachusetts,Massachusetts,,,,United States,https://weedmaps.com/dispensaries/curaleaf-oxford,,,,,,,,,
,https://weedmaps.com/dispensaries/in/united-states/massachusetts/ayer,Ayer,,,,,,,https://weedmaps.com/dispensaries/in/united-states/massachusetts,Massachusetts,,,,United States,https://weedmaps.com/dispensaries/nature-s-remedy-millbury,,,,,,,,,
,https://weedmaps.com/dispensaries/in/united-states/massachusetts/ayer,Ayer,,,,,,,https://weedmaps.com/dispensaries/in/united-states/massachusetts,Massachusetts,,,,United States,https://weedmaps.com/dispensaries/good-chemistry-worcester,,,,,,,,,
,https://weedmaps.com/dispensaries/in/united-states/massachusetts/ayer,Ayer,,,,,,,https://weedmaps.com/dispensaries/in/united-states/massachusetts,Massachusetts,,,,United States,https://weedmaps.com/dispensaries/cultivate-leicester,,,,,,,,,
,https://weedmaps.com/dispensaries/in/united-states/massachusetts/ayer,Ayer,,,,,,,https://weedmaps.com/dispensaries/in/united-states/massachusetts,Massachusetts,,,,United States,https://weedmaps.com/dispensaries/caroline-s-cannabis,,,,,,,,,
,https://weedmaps.com/dispensaries/in/united-states/massachusetts/ayer,Ayer,,,,,,,https://weedmaps.com/dispensaries/in/united-states/massachusetts,Massachusetts,,,,United States,https://weedmaps.com/dispensaries/good-chemistry-worcester-recreational,,,,,,,,,
,https://weedmaps.com/dispensaries/in/united-states/massachusetts/ayer,Ayer,,,,,,,https://weedmaps.com/dispensaries/in/united-states/massachusetts,Massachusetts,,,,United States,https://weedmaps.com/dispensaries/the-botanist-worcester,,,,,,,,,
,https://weedmaps.com/dispensaries/in/united-states/massachusetts/ayer,Ayer,,,,,,,https://weedmaps.com/dispensaries/in/united-states/massachusetts,Massachusetts,,,,United States,https://weedmaps.com/dispensaries/green-gold-group-charlton,,,,,,,,,
,https://weedmaps.com/dispensaries/in/united-states/massachusetts/ayer,Ayer,,,,,,,https://weedmaps.com/dispensaries/in/united-states/massachusetts,Massachusetts,,,,United States,https://weedmaps.com/dispensaries/resinate-worcester,,,,,,,,,
,https://weedmaps.com/dispensaries/in/united-states/massachusetts/ayer,Ayer,,,,,,,https://weedmaps.com/dispensaries/in/united-states/massachusetts,Massachusetts,,,,United States,https://weedmaps.com/dispensaries/evergreen-strategies-worcester,,,,,,,,,
,https://weedmaps.com/dispensaries/in/united-states/massachusetts/ayer,Ayer,,,,,,,https://weedmaps.com/dispensaries/in/united-states/massachusetts,Massachusetts,,,,United States,https://weedmaps.com/dispensaries/prime-wellness-shrewsbury,,,,,,,,,
,https://weedmaps.com/dispensaries/in/united-states/massachusetts/ayer,Ayer,,,,,,,https://weedmaps.com/dispensaries/in/united-states/massachusetts,Massachusetts,,,,United States,https://weedmaps.com/dispensaries/the-botanist-shrewsbury,,,,,,,,,
,https://weedmaps.com/dispensaries/in/united-states/massachusetts/ayer,Ayer,,,,,,,https://weedmaps.com/dispensaries/in/united-states/massachusetts,Massachusetts,,,,United States,https://weedmaps.com/dispensaries/natures-medicines-uxbridge,,,,,,,,,
,https://weedmaps.com/dispensaries/in/united-states/maryland/annapolis,Annapolis,,,,,,,https://weedmaps.com/dispensaries/in/united-states/maryland,Maryland,,,,United States,https://weedmaps.com/dispensaries/remedy-columbia,,,,,,,,,
,https://weedmaps.com/dispensaries/in/united-states/maryland/annapolis,Annapolis,,,,,,,https://weedmaps.com/dispensaries/in/united-states/maryland,Maryland,,,,United States,https://weedmaps.com/dispensaries/natures-medicines-ellicott-city,,,,,,,,,
,https://weedmaps.com/dispensaries/in/united-states/maryland/annapolis,Annapolis,,,,,,,https://weedmaps.com/dispensaries/in/united-states/maryland,Maryland,,,,United States,https://weedmaps.com/dispensaries/true-wellness-laurel,,,,,,,,,
,https://weedmaps.com/dispensaries/in/united-states/maryland/annapolis,Annapolis,,,,,,,https://weedmaps.com/dispensaries/in/united-states/maryland,Maryland,,,,United States,https://weedmaps.com/dispensaries/herbiculture,,,,,,,,,
,https://weedmaps.com/dispensaries/in/united-states/maryland/annapolis,Annapolis,,,,,,,https://weedmaps.com/dispensaries/in/united-states/maryland,Maryland,,,,United States,https://weedmaps.com/dispensaries/greenhouse-wellness-columbia,,,,,,,,,
,https://weedmaps.com/dispensaries/in/united-states/maryland/annapolis,Annapolis,,,,,,,https://weedmaps.com/dispensaries/in/united-states/maryland,Maryland,,,,United States,https://weedmaps.com/dispensaries/zen-leaf-maryland,,,,,,,,,
,https://weedmaps.com/dispensaries/in/united-states/maryland/annapolis,Annapolis,,,,,,,https://weedmaps.com/dispensaries/in/united-states/maryland,Maryland,,,,United States,https://weedmaps.com/dispensaries/revolution-releaf,,,,,,,,,
,https://weedmaps.com/dispensaries/in/united-states/maryland/annapolis,Annapolis,,,,,,,https://weedmaps.com/dispensaries/in/united-states/maryland,Maryland,,,,United States,https://weedmaps.com/dispensaries/trilogy-wellness,,,,,,,,,
,https://weedmaps.com/dispensaries/in/united-states/missouri/columbia-mo,"Columbia, MO",,,,,,,https://weedmaps.com/dispensaries/in/united-states/missouri,Missouri,,,,United States,https://weedmaps.com/dispensaries/missouri-medical-marijuana-dispensary,,,,,,,,,
,https://weedmaps.com/dispensaries/in/united-states/louisiana/alexandria,Alexandria,,,,,,,https://weedmaps.com/dispensaries/in/united-states/louisiana,Louisiana,,,,United States,https://weedmaps.com/dispensaries/louisiana-medical-marijuana-dispensaries,,,,,,,,,
,https://weedmaps.com/dispensaries/in/united-states/louisiana/alexandria,Alexandria,,,,,,,https://weedmaps.com/dispensaries/in/united-states/louisiana,Louisiana,,,,United States,https://weedmaps.com/dispensaries/capitol-wellness-solutions,,,,,,,,,
,nan,nan,,,,,,,https://weedmaps.com/dispensaries/in/united-states/mississippi,Mississippi,,,,United States,https://weedmaps.com/dispensaries/mississippi-medical-marijuana-dispensaries,,,,,,,,,
,https://weedmaps.com/dispensaries/in/united-states/minnesota/bloomington-mn,"Bloomington, MN",,,,,,,https://weedmaps.com/dispensaries/in/united-states/minnesota,Minnesota,,,,United States,https://weedmaps.com/dispensaries/leafline-labs-st-cloud,,,,,,,,,
,https://weedmaps.com/dispensaries/in/united-states/maine/aroostook-county,Aroostook County,,,,,,,https://weedmaps.com/dispensaries/in/united-states/maine,Maine,,,,United States,https://weedmaps.com/dispensaries/new-england-reserve,,,,,,,,,
,https://weedmaps.com/dispensaries/in/united-states/maine/aroostook-county,Aroostook County,,,,,,,https://weedmaps.com/dispensaries/in/united-states/maine,Maine,,,,United States,https://weedmaps.com/dispensaries/rock-steady-remedies-2,,,,,,,,,
,https://weedmaps.com/dispensaries/in/united-states/maine/aroostook-county,Aroostook County,,,,,,,https://weedmaps.com/dispensaries/in/united-states/maine,Maine,,,,United States,https://weedmaps.com/dispensaries/wildwood-cannabis,,,,,,,,,
,https://weedmaps.com/dispensaries/in/united-states/maine/aroostook-county,Aroostook County,,,,,,,https://weedmaps.com/dispensaries/in/united-states/maine,Maine,,,,United States,https://weedmaps.com/dispensaries/wellness-connection-of-main-brewer,,,,,,,,,
,https://weedmaps.com/dispensaries/in/united-states/maine/aroostook-county,Aroostook County,,,,,,,https://weedmaps.com/dispensaries/in/united-states/maine,Maine,,,,United States,https://weedmaps.com/dispensaries/east-coast-cure-2,,,,,,,,,
,https://weedmaps.com/dispensaries/in/united-states/maine/aroostook-county,Aroostook County,,,,,,,https://weedmaps.com/dispensaries/in/united-states/maine,Maine,,,,United States,https://weedmaps.com/dispensaries/east-coast-gold,,,,,,,,,
,https://weedmaps.com/dispensaries/in/united-states/michigan/adrian-monroe,Adrian / Monroe,,,,,,,https://weedmaps.com/dispensaries/in/united-states/michigan,Michigan,,,,United States,https://weedmaps.com/dispensaries/gage-usa-ferndale,,,,,,,,,
,https://weedmaps.com/dispensaries/in/united-states/michigan/adrian-monroe,Adrian / Monroe,,,,,,,https://weedmaps.com/dispensaries/in/united-states/michigan,Michigan,,,,United States,https://weedmaps.com/dispensaries/plan-b-wellness-center-detroit,,,,,,,,,
,https://weedmaps.com/dispensaries/in/united-states/michigan/adrian-monroe,Adrian / Monroe,,,,,,,https://weedmaps.com/dispensaries/in/united-states/michigan,Michigan,,,,United States,https://weedmaps.com/dispensaries/liv-ferndale,,,,,,,,,
,https://weedmaps.com/dispensaries/in/united-states/michigan/adrian-monroe,Adrian / Monroe,,,,,,,https://weedmaps.com/dispensaries/in/united-states/michigan,Michigan,,,,United States,https://weedmaps.com/dispensaries/shakeandbake,,,,,,,,,
,https://weedmaps.com/dispensaries/in/united-states/michigan/adrian-monroe,Adrian / Monroe,,,,,,,https://weedmaps.com/dispensaries/in/united-states/michigan,Michigan,,,,United States,https://weedmaps.com/dispensaries/motor-city-kush,,,,,,,,,
,https://weedmaps.com/dispensaries/in/united-states/michigan/adrian-monroe,Adrian / Monroe,,,,,,,https://weedmaps.com/dispensaries/in/united-states/michigan,Michigan,,,,United States,https://weedmaps.com/dispensaries/far-west,,,,,,,,,
,https://weedmaps.com/dispensaries/in/united-states/michigan/adrian-monroe,Adrian / Monroe,,,,,,,https://weedmaps.com/dispensaries/in/united-states/michigan,Michigan,,,,United States,https://weedmaps.com/dispensaries/botaniq-3,,,,,,,,,
,https://weedmaps.com/dispensaries/in/united-states/michigan/adrian-monroe,Adrian / Monroe,,,,,,,https://weedmaps.com/dispensaries/in/united-states/michigan,Michigan,,,,United States,https://weedmaps.com/dispensaries/green-door-alternative,,,,,,,,,
,https://weedmaps.com/dispensaries/in/united-states/michigan/adrian-monroe,Adrian / Monroe,,,,,,,https://weedmaps.com/dispensaries/in/united-states/michigan,Michigan,,,,United States,https://weedmaps.com/dispensaries/detroit-herbal-center,,,,,,,,,
,https://weedmaps.com/dispensaries/in/united-states/michigan/adrian-monroe,Adrian / Monroe,,,,,,,https://weedmaps.com/dispensaries/in/united-states/michigan,Michigan,,,,United States,https://weedmaps.com/dispensaries/amplified-alternative-relief,,,,,,,,,
,https://weedmaps.com/dispensaries/in/united-states/montana/anaconda,Anaconda,,,,,,,https://weedmaps.com/dispensaries/in/united-states/montana,Montana,,,,United States,https://weedmaps.com/dispensaries/elevated-billings,,,,,,,,,
,https://weedmaps.com/dispensaries/in/united-states/michigan/adrian-monroe,Adrian / Monroe,,,,,,,https://weedmaps.com/dispensaries/in/united-states/michigan,Michigan,,,,United States,https://weedmaps.com/dispensaries/420-factory,,,,,,,,,
,https://weedmaps.com/dispensaries/in/united-states/michigan/adrian-monroe,Adrian / Monroe,,,,,,,https://weedmaps.com/dispensaries/in/united-states/michigan,Michigan,,,,United States,https://weedmaps.com/dispensaries/motown-meds,,,,,,,,,
,https://weedmaps.com/dispensaries/in/united-states/michigan/adrian-monroe,Adrian / Monroe,,,,,,,https://weedmaps.com/dispensaries/in/united-states/michigan,Michigan,,,,United States,https://weedmaps.com/dispensaries/420-west-2,,,,,,,,,
,https://weedmaps.com/dispensaries/in/united-states/michigan/adrian-monroe,Adrian / Monroe,,,,,,,https://weedmaps.com/dispensaries/in/united-states/michigan,Michigan,,,,United States,https://weedmaps.com/dispensaries/viola,,,,,,,,,
,https://weedmaps.com/dispensaries/in/united-states/michigan/adrian-monroe,Adrian / Monroe,,,,,,,https://weedmaps.com/dispensaries/in/united-states/michigan,Michigan,,,,United States,https://weedmaps.com/dispensaries/the-house-of-mary-jane-2,,,,,,,,,
,https://weedmaps.com/dispensaries/in/united-states/michigan/adrian-monroe,Adrian / Monroe,,,,,,,https://weedmaps.com/dispensaries/in/united-states/michigan,Michigan,,,,United States,https://weedmaps.com/dispensaries/green-genie-2,,,,,,,,,
,https://weedmaps.com/dispensaries/in/united-states/michigan/adrian-monroe,Adrian / Monroe,,,,,,,https://weedmaps.com/dispensaries/in/united-states/michigan,Michigan,,,,United States,https://weedmaps.com/dispensaries/advanced-wellness-downtown,,,,,,,,,
,https://weedmaps.com/dispensaries/in/united-states/michigan/adrian-monroe,Adrian / Monroe,,,,,,,https://weedmaps.com/dispensaries/in/united-states/michigan,Michigan,,,,United States,https://weedmaps.com/dispensaries/corktown-collective,,,,,,,,,
,https://weedmaps.com/dispensaries/in/united-states/michigan/adrian-monroe,Adrian / Monroe,,,,,,,https://weedmaps.com/dispensaries/in/united-states/michigan,Michigan,,,,United States,https://weedmaps.com/dispensaries/96westdetroit,,,,,,,,,
,https://weedmaps.com/dispensaries/in/united-states/michigan/adrian-monroe,Adrian / Monroe,,,,,,,https://weedmaps.com/dispensaries/in/united-states/michigan,Michigan,,,,United States,https://weedmaps.com/dispensaries/green-cross-3-5,,,,,,,,,
,https://weedmaps.com/dispensaries/in/united-states/michigan/adrian-monroe,Adrian / Monroe,,,,,,,https://weedmaps.com/dispensaries/in/united-states/michigan,Michigan,,,,United States,https://weedmaps.com/dispensaries/nature-s-medicines-district-7,,,,,,,,,
,https://weedmaps.com/dispensaries/in/united-states/montana/anaconda,Anaconda,,,,,,,https://weedmaps.com/dispensaries/in/united-states/montana,Montana,,,,United States,https://weedmaps.com/dispensaries/uncle-bucks-billings,,,,,,,,,
,https://weedmaps.com/dispensaries/in/united-states/montana/anaconda,Anaconda,,,,,,,https://weedmaps.com/dispensaries/in/united-states/montana,Montana,,,,United States,https://weedmaps.com/dispensaries/stink-blossom,,,,,,,,,
,https://weedmaps.com/dispensaries/in/united-states/montana/anaconda,Anaconda,,,,,,,https://weedmaps.com/dispensaries/in/united-states/montana,Montana,,,,United States,https://weedmaps.com/dispensaries/chronic-caregivers,,,,,,,,,
,https://weedmaps.com/dispensaries/in/united-states/montana/anaconda,Anaconda,,,,,,,https://weedmaps.com/dispensaries/in/united-states/montana,Montana,,,,United States,https://weedmaps.com/dispensaries/lighthouse-organics-billings-dispensary,,,,,,,,,
,https://weedmaps.com/dispensaries/in/united-states/montana/anaconda,Anaconda,,,,,,,https://weedmaps.com/dispensaries/in/united-states/montana,Montana,,,,United States,https://weedmaps.com/dispensaries/seed-of-life-labs,,,,,,,,,
,https://weedmaps.com/dispensaries/in/united-states/montana/anaconda,Anaconda,,,,,,,https://weedmaps.com/dispensaries/in/united-states/montana,Montana,,,,United States,https://weedmaps.com/dispensaries/sensicare,,,,,,,,,
,https://weedmaps.com/dispensaries/in/united-states/montana/anaconda,Anaconda,,,,,,,https://weedmaps.com/dispensaries/in/united-states/montana,Montana,,,,United States,https://weedmaps.com/dispensaries/comfort-care-cannabliss-co,,,,,,,,,
,https://weedmaps.com/dispensaries/in/united-states/montana/anaconda,Anaconda,,,,,,,https://weedmaps.com/dispensaries/in/united-states/montana,Montana,,,,United States,https://weedmaps.com/dispensaries/rosebud-remedies-2,,,,,,,,,
,https://weedmaps.com/dispensaries/in/united-states/montana/anaconda,Anaconda,,,,,,,https://weedmaps.com/dispensaries/in/united-states/montana,Montana,,,,United States,https://weedmaps.com/dispensaries/magic-city-releaf,,,,,,,,,
,https://weedmaps.com/dispensaries/in/united-states/montana/anaconda,Anaconda,,,,,,,https://weedmaps.com/dispensaries/in/united-states/montana,Montana,,,,United States,https://weedmaps.com/dispensaries/yellowstone-cannabis-billings,,,,,,,,,
,https://weedmaps.com/dispensaries/in/united-states/montana/anaconda,Anaconda,,,,,,,https://weedmaps.com/dispensaries/in/united-states/montana,Montana,,,,United States,https://weedmaps.com/dispensaries/rosebud-remedies,,,,,,,,,
,https://weedmaps.com/dispensaries/in/united-states/montana/anaconda,Anaconda,,,,,,,https://weedmaps.com/dispensaries/in/united-states/montana,Montana,,,,United States,https://weedmaps.com/dispensaries/hometree-hesper-rd,,,,,,,,,
,https://weedmaps.com/dispensaries/in/united-states/new-hampshire/concord,Concord,,,,,,,https://weedmaps.com/dispensaries/in/united-states/new-hampshire,New Hampshire,,,,United States,https://weedmaps.com/dispensaries/sanctuary-atc,,,,,,,,,
,https://weedmaps.com/dispensaries/in/united-states/new-hampshire/concord,Concord,,,,,,,https://weedmaps.com/dispensaries/in/united-states/new-hampshire,New Hampshire,,,,United States,https://weedmaps.com/dispensaries/sanctuary-atc-1,,,,,,,,,
,nan,nan,,,,,,,https://weedmaps.com/dispensaries/in/united-states/connecticut/new-britain,New Britain,,,,Connecticut,https://weedmaps.com/dispensaries/willow-brook-wellness,,,,,,,,,
,nan,nan,,,,,,,https://weedmaps.com/dispensaries/in/united-states/connecticut/new-britain,New Britain,,,,Connecticut,https://weedmaps.com/dispensaries/the-healing-corner,,,,,,,,,
,https://weedmaps.com/dispensaries/in/united-states/new-jersey/atlantic-city,Atlantic City,,,,,,,https://weedmaps.com/dispensaries/in/united-states/new-jersey,New Jersey,,,,United States,https://weedmaps.com/dispensaries/breakwater-treatment-wellness,,,,,,,,,
,nan,nan,,,,,,,https://weedmaps.com/dispensaries/in/united-states/connecticut/bridgeport,Bridgeport,,,,Connecticut,https://weedmaps.com/dispensaries/arrow-alternative-care-milford,,,,,,,,,
,nan,nan,,,,,,,https://weedmaps.com/dispensaries/in/united-states/connecticut/bridgeport,Bridgeport,,,,Connecticut,https://weedmaps.com/dispensaries/southern-ct-wellness-and-healing,,,,,,,,,
,nan,nan,,,,,,,https://weedmaps.com/dispensaries/in/united-states/connecticut/new-london,New London,,,,Connecticut,https://weedmaps.com/dispensaries/thames-valley-alternative-relief-llc,,,,,,,,,
,nan,nan,,,,,,,https://weedmaps.com/dispensaries/in/united-states/connecticut/new-london,New London,,,,Connecticut,https://weedmaps.com/dispensaries/herbology-groton,,,,,,,,,
,nan,nan,,,,,,,https://weedmaps.com/dispensaries/in/united-states/connecticut/new-london,New London,,,,Connecticut,https://weedmaps.com/dispensaries/gr-vending,,,,,,,,,
,https://weedmaps.com/dispensaries/in/united-states/new-york/albany-ny,"Albany, NY",,,,,,,https://weedmaps.com/dispensaries/in/united-states/new-york,New York,,,,United States,https://weedmaps.com/dispensaries/remedy-new-york-mohawk-valley,,,,,,,,,
,nan,nan,,,,,,,https://weedmaps.com/dispensaries/in/united-states/connecticut/hartford,Hartford,,,,Connecticut,https://weedmaps.com/dispensaries/nature-s-medicine-mansfield,,,,,,,,,
,nan,nan,,,,,,,https://weedmaps.com/dispensaries/in/united-states/connecticut/hartford,Hartford,,,,Connecticut,https://weedmaps.com/dispensaries/fine-fettle-dispensary,,,,,,,,,
,nan,nan,,,,,,,https://weedmaps.com/dispensaries/in/united-states/connecticut/hartford,Hartford,,,,Connecticut,https://weedmaps.com/dispensaries/bhadra-seva,,,,,,,,,
,nan,nan,,,,,,,https://weedmaps.com/dispensaries/in/united-states/connecticut/hartford,Hartford,,,,Connecticut,https://weedmaps.com/dispensaries/arrow-alternative-care,,,,,,,,,
,nan,nan,,,,,,,https://weedmaps.com/dispensaries/in/united-states/connecticut/hartford,Hartford,,,,Connecticut,https://weedmaps.com/dispensaries/prime-wellness-of-connecticut-2,,,,,,,,,
,nan,nan,,,,,,,https://weedmaps.com/dispensaries/in/united-states/connecticut/stamford,Stamford,,,,Connecticut,https://weedmaps.com/dispensaries/arrow-alternative-care-stamford,,,,,,,,,
,nan,nan,,,,,,,https://weedmaps.com/dispensaries/in/united-states/connecticut/danbury,Danbury,,,,Connecticut,https://weedmaps.com/dispensaries/compassionate-care-center-of-connecticut,,,,,,,,,
,https://weedmaps.com/dispensaries/in/united-states/north-dakota/bismarck,Bismarck,,,,,,,https://weedmaps.com/dispensaries/in/united-states/north-dakota,North Dakota,,,,United States,https://weedmaps.com/dispensaries/harvest-hoc-bismarck,,,,,,,,,
,nan,nan,,,,,,,https://weedmaps.com/dispensaries/in/united-states/connecticut/waterbury,Waterbury,,,,Connecticut,https://weedmaps.com/dispensaries/caring-nature-llc,,,,,,,,,
,nan,nan,,,,,,,https://weedmaps.com/dispensaries/in/united-states/connecticut/waterbury,Waterbury,,,,Connecticut,https://weedmaps.com/dispensaries/c3-ventures,,,,,,,,,
,nan,nan,,,,,,,https://weedmaps.com/dispensaries/in/united-states/arkansas/el-dorado,El Dorado,,,,Arkansas,https://weedmaps.com/dispensaries/noah-s-ark,,,,,,,,,
,nan,nan,,,,,,,https://weedmaps.com/dispensaries/in/united-states/arkansas/hot-springs-ar,"Hot Springs, AR",,,,Arkansas,https://weedmaps.com/dispensaries/suite-443,,,,,,,,,
,nan,nan,,,,,,,https://weedmaps.com/dispensaries/in/united-states/arkansas/hot-springs-ar,"Hot Springs, AR",,,,Arkansas,https://weedmaps.com/dispensaries/green-springs-medical,,,,,,,,,
,nan,nan,,,,,,,https://weedmaps.com/dispensaries/in/united-states/arkansas/hot-springs-ar,"Hot Springs, AR",,,,Arkansas,https://weedmaps.com/dispensaries/arkadelphia-dispensary,,,,,,,,,
,nan,nan,,,,,,,https://weedmaps.com/dispensaries/in/united-states/connecticut/new-haven,New Haven,,,,Connecticut,https://weedmaps.com/dispensaries/affinity-health-wellness-new-haven,,,,,,,,,
,nan,nan,,,,,,,https://weedmaps.com/dispensaries/in/united-states/connecticut/new-haven,New Haven,,,,Connecticut,https://weedmaps.com/dispensaries/bluepoint-wellness-of-connecticut,,,,,,,,,
,nan,nan,,,,,,,https://weedmaps.com/dispensaries/in/united-states/connecticut/new-haven,New Haven,,,,Connecticut,https://weedmaps.com/dispensaries/bluepoint-wellness-westport,,,,,,,,,
,https://weedmaps.com/dispensaries/in/united-states/new-mexico/albuquerque,Albuquerque,,,,,,,https://weedmaps.com/dispensaries/in/united-states/new-mexico,New Mexico,,,,United States,https://weedmaps.com/dispensaries/cg-corrigan-gulton-2,,,,,,,,,
,https://weedmaps.com/dispensaries/in/united-states/new-mexico/albuquerque,Albuquerque,,,,,,,https://weedmaps.com/dispensaries/in/united-states/new-mexico,New Mexico,,,,United States,https://weedmaps.com/dispensaries/purlife-dispensary,,,,,,,,,
,https://weedmaps.com/dispensaries/in/united-states/new-mexico/albuquerque,Albuquerque,,,,,,,https://weedmaps.com/dispensaries/in/united-states/new-mexico,New Mexico,,,,United States,https://weedmaps.com/dispensaries/purlife-dispensary-montgomery,,,,,,,,,
,https://weedmaps.com/dispensaries/in/united-states/new-mexico/albuquerque,Albuquerque,,,,,,,https://weedmaps.com/dispensaries/in/united-states/new-mexico,New Mexico,,,,United States,https://weedmaps.com/dispensaries/cg-corrigan-2,,,,,,,,,
,https://weedmaps.com/dispensaries/in/united-states/new-mexico/albuquerque,Albuquerque,,,,,,,https://weedmaps.com/dispensaries/in/united-states/new-mexico,New Mexico,,,,United States,https://weedmaps.com/dispensaries/organtica,,,,,,,,,
,https://weedmaps.com/dispensaries/in/united-states/new-mexico/albuquerque,Albuquerque,,,,,,,https://weedmaps.com/dispensaries/in/united-states/new-mexico,New Mexico,,,,United States,https://weedmaps.com/dispensaries/the-verdes-foundation-westside-rio-rancho,,,,,,,,,
,https://weedmaps.com/dispensaries/in/united-states/new-mexico/albuquerque,Albuquerque,,,,,,,https://weedmaps.com/dispensaries/in/united-states/new-mexico,New Mexico,,,,United States,https://weedmaps.com/dispensaries/high-desert-relief-3,,,,,,,,,
,https://weedmaps.com/dispensaries/in/united-states/new-mexico/albuquerque,Albuquerque,,,,,,,https://weedmaps.com/dispensaries/in/united-states/new-mexico,New Mexico,,,,United States,https://weedmaps.com/dispensaries/harvest-foundation,,,,,,,,,
,https://weedmaps.com/dispensaries/in/united-states/new-mexico/albuquerque,Albuquerque,,,,,,,https://weedmaps.com/dispensaries/in/united-states/new-mexico,New Mexico,,,,United States,https://weedmaps.com/dispensaries/sacred-garden-albuquerque,,,,,,,,,
,https://weedmaps.com/dispensaries/in/united-states/new-mexico/albuquerque,Albuquerque,,,,,,,https://weedmaps.com/dispensaries/in/united-states/new-mexico,New Mexico,,,,United States,https://weedmaps.com/dispensaries/everest-apothecary-north-east-heights,,,,,,,,,
,https://weedmaps.com/dispensaries/in/united-states/new-mexico/albuquerque,Albuquerque,,,,,,,https://weedmaps.com/dispensaries/in/united-states/new-mexico,New Mexico,,,,United States,https://weedmaps.com/dispensaries/sandia-botanicals,,,,,,,,,
,https://weedmaps.com/dispensaries/in/united-states/new-mexico/albuquerque,Albuquerque,,,,,,,https://weedmaps.com/dispensaries/in/united-states/new-mexico,New Mexico,,,,United States,https://weedmaps.com/dispensaries/the-verdes-foundation,,,,,,,,,
,https://weedmaps.com/dispensaries/in/united-states/new-mexico/albuquerque,Albuquerque,,,,,,,https://weedmaps.com/dispensaries/in/united-states/new-mexico,New Mexico,,,,United States,https://weedmaps.com/dispensaries/southwest-wellness-group,,,,,,,,,
,https://weedmaps.com/dispensaries/in/united-states/new-mexico/albuquerque,Albuquerque,,,,,,,https://weedmaps.com/dispensaries/in/united-states/new-mexico,New Mexico,,,,United States,https://weedmaps.com/dispensaries/mj-expresso-abq,,,,,,,,,
,https://weedmaps.com/dispensaries/in/united-states/new-mexico/albuquerque,Albuquerque,,,,,,,https://weedmaps.com/dispensaries/in/united-states/new-mexico,New Mexico,,,,United States,https://weedmaps.com/dispensaries/everest-apothecary,,,,,,,,,
,https://weedmaps.com/dispensaries/in/united-states/new-mexico/albuquerque,Albuquerque,,,,,,,https://weedmaps.com/dispensaries/in/united-states/new-mexico,New Mexico,,,,United States,https://weedmaps.com/dispensaries/urban-wellness-paradise,,,,,,,,,
,https://weedmaps.com/dispensaries/in/united-states/new-mexico/albuquerque,Albuquerque,,,,,,,https://weedmaps.com/dispensaries/in/united-states/new-mexico,New Mexico,,,,United States,https://weedmaps.com/dispensaries/seven-clover,,,,,,,,,
,https://weedmaps.com/dispensaries/in/united-states/new-mexico/albuquerque,Albuquerque,,,,,,,https://weedmaps.com/dispensaries/in/united-states/new-mexico,New Mexico,,,,United States,https://weedmaps.com/dispensaries/urban-wellness-2,,,,,,,,,
,https://weedmaps.com/dispensaries/in/united-states/new-mexico/albuquerque,Albuquerque,,,,,,,https://weedmaps.com/dispensaries/in/united-states/new-mexico,New Mexico,,,,United States,https://weedmaps.com/dispensaries/southwest-wellness-98th,,,,,,,,,
,https://weedmaps.com/dispensaries/in/united-states/new-mexico/albuquerque,Albuquerque,,,,,,,https://weedmaps.com/dispensaries/in/united-states/new-mexico,New Mexico,,,,United States,https://weedmaps.com/dispensaries/southwest-organic-producers-2,,,,,,,,,
,https://weedmaps.com/dispensaries/in/united-states/new-mexico/albuquerque,Albuquerque,,,,,,,https://weedmaps.com/dispensaries/in/united-states/new-mexico,New Mexico,,,,United States,https://weedmaps.com/dispensaries/urban-wellness-3,,,,,,,,,
,https://weedmaps.com/dispensaries/in/united-states/new-mexico/albuquerque,Albuquerque,,,,,,,https://weedmaps.com/dispensaries/in/united-states/new-mexico,New Mexico,,,,United States,https://weedmaps.com/dispensaries/everest-apothecary-2,,,,,,,,,
,https://weedmaps.com/dispensaries/in/united-states/new-mexico/albuquerque,Albuquerque,,,,,,,https://weedmaps.com/dispensaries/in/united-states/new-mexico,New Mexico,,,,United States,https://weedmaps.com/dispensaries/r-greenleaf-midtown,,,,,,,,,
,https://weedmaps.com/dispensaries/in/united-states/new-mexico/albuquerque,Albuquerque,,,,,,,https://weedmaps.com/dispensaries/in/united-states/new-mexico,New Mexico,,,,United States,https://weedmaps.com/dispensaries/minerva-canna-group-albuquerque,,,,,,,,,
,https://weedmaps.com/dispensaries/in/united-states/new-mexico/albuquerque,Albuquerque,,,,,,,https://weedmaps.com/dispensaries/in/united-states/new-mexico,New Mexico,,,,United States,https://weedmaps.com/dispensaries/r-greenleaf-ne-heights,,,,,,,,,
,https://weedmaps.com/dispensaries/in/united-states/new-mexico/albuquerque,Albuquerque,,,,,,,https://weedmaps.com/dispensaries/in/united-states/new-mexico,New Mexico,,,,United States,https://weedmaps.com/dispensaries/ultra-health-bernalillo,,,,,,,,,
,https://weedmaps.com/dispensaries/in/united-states/new-mexico/albuquerque,Albuquerque,,,,,,,https://weedmaps.com/dispensaries/in/united-states/new-mexico,New Mexico,,,,United States,https://weedmaps.com/dispensaries/r-greenleaf-nob-hill,,,,,,,,,
,https://weedmaps.com/dispensaries/in/united-states/new-mexico/albuquerque,Albuquerque,,,,,,,https://weedmaps.com/dispensaries/in/united-states/new-mexico,New Mexico,,,,United States,https://weedmaps.com/dispensaries/r-greenleaf-westside,,,,,,,,,
,https://weedmaps.com/dispensaries/in/united-states/new-mexico/albuquerque,Albuquerque,,,,,,,https://weedmaps.com/dispensaries/in/united-states/new-mexico,New Mexico,,,,United States,https://weedmaps.com/dispensaries/shift-new-mexico-2,,,,,,,,,
,https://weedmaps.com/dispensaries/in/united-states/new-mexico/albuquerque,Albuquerque,,,,,,,https://weedmaps.com/dispensaries/in/united-states/new-mexico,New Mexico,,,,United States,https://weedmaps.com/dispensaries/sacred-garden-san-mateo-blvd,,,,,,,,,
,https://weedmaps.com/dispensaries/in/united-states/new-mexico/albuquerque,Albuquerque,,,,,,,https://weedmaps.com/dispensaries/in/united-states/new-mexico,New Mexico,,,,United States,https://weedmaps.com/dispensaries/shift-new-mexico-jefferson,,,,,,,,,
,https://weedmaps.com/dispensaries/in/united-states/new-mexico/albuquerque,Albuquerque,,,,,,,https://weedmaps.com/dispensaries/in/united-states/new-mexico,New Mexico,,,,United States,https://weedmaps.com/dispensaries/r-greenleaf-north-coors,,,,,,,,,
,https://weedmaps.com/dispensaries/in/united-states/new-mexico/albuquerque,Albuquerque,,,,,,,https://weedmaps.com/dispensaries/in/united-states/new-mexico,New Mexico,,,,United States,https://weedmaps.com/dispensaries/medzen-services-inc-2,,,,,,,,,
,https://weedmaps.com/dispensaries/in/united-states/new-mexico/albuquerque,Albuquerque,,,,,,,https://weedmaps.com/dispensaries/in/united-states/new-mexico,New Mexico,,,,United States,https://weedmaps.com/dispensaries/albuquerque-nob-hill-birdland,,,,,,,,,
,https://weedmaps.com/dispensaries/in/united-states/new-mexico/albuquerque,Albuquerque,,,,,,,https://weedmaps.com/dispensaries/in/united-states/new-mexico,New Mexico,,,,United States,https://weedmaps.com/dispensaries/ultra-health-albuquerque-n-e,,,,,,,,,
,https://weedmaps.com/dispensaries/in/united-states/new-mexico/albuquerque,Albuquerque,,,,,,,https://weedmaps.com/dispensaries/in/united-states/new-mexico,New Mexico,,,,United States,https://weedmaps.com/dispensaries/cannaceutics-inc-albuquerque,,,,,,,,,
,https://weedmaps.com/dispensaries/in/united-states/new-mexico/albuquerque,Albuquerque,,,,,,,https://weedmaps.com/dispensaries/in/united-states/new-mexico,New Mexico,,,,United States,https://weedmaps.com/dispensaries/everest-apothecary-1,,,,,,,,,
,https://weedmaps.com/dispensaries/in/united-states/new-mexico/albuquerque,Albuquerque,,,,,,,https://weedmaps.com/dispensaries/in/united-states/new-mexico,New Mexico,,,,United States,https://weedmaps.com/dispensaries/minerva-canna-group,,,,,,,,,
,https://weedmaps.com/dispensaries/in/united-states/new-mexico/albuquerque,Albuquerque,,,,,,,https://weedmaps.com/dispensaries/in/united-states/new-mexico,New Mexico,,,,United States,https://weedmaps.com/dispensaries/ultra-health-albuquerque-north-valley,,,,,,,,,
,https://weedmaps.com/dispensaries/in/united-states/ohio/akron,Akron,,,,,,,https://weedmaps.com/dispensaries/in/united-states/ohio,Ohio,,,,United States,https://weedmaps.com/dispensaries/ohio-provision-bcco,,,,,,,,,
,https://weedmaps.com/dispensaries/in/united-states/new-mexico/albuquerque,Albuquerque,,,,,,,https://weedmaps.com/dispensaries/in/united-states/new-mexico,New Mexico,,,,United States,https://weedmaps.com/dispensaries/ultra-health-westside,,,,,,,,,
,https://weedmaps.com/dispensaries/in/united-states/new-mexico/albuquerque,Albuquerque,,,,,,,https://weedmaps.com/dispensaries/in/united-states/new-mexico,New Mexico,,,,United States,https://weedmaps.com/dispensaries/ultra-health-los-lunas,,,,,,,,,
,https://weedmaps.com/dispensaries/in/united-states/ohio/akron,Akron,,,,,,,https://weedmaps.com/dispensaries/in/united-states/ohio,Ohio,,,,United States,https://weedmaps.com/dispensaries/terrasana-dispensaries-columbus,,,,,,,,,
,https://weedmaps.com/dispensaries/in/united-states/ohio/akron,Akron,,,,,,,https://weedmaps.com/dispensaries/in/united-states/ohio,Ohio,,,,United States,https://weedmaps.com/dispensaries/bloom-medicinals-cannabis-dispensary-columbus,,,,,,,,,
,https://weedmaps.com/dispensaries/in/united-states/ohio/akron,Akron,,,,,,,https://weedmaps.com/dispensaries/in/united-states/ohio,Ohio,,,,United States,https://weedmaps.com/dispensaries/debbie-s-dispensary-hillsboro,,,,,,,,,
,https://weedmaps.com/dispensaries/in/united-states/ohio/akron,Akron,,,,,,,https://weedmaps.com/dispensaries/in/united-states/ohio,Ohio,,,,United States,https://weedmaps.com/dispensaries/ohio-grown-therapies-llc,,,,,,,,,
,https://weedmaps.com/dispensaries/in/united-states/ohio/akron,Akron,,,,,,,https://weedmaps.com/dispensaries/in/united-states/ohio,Ohio,,,,United States,https://weedmaps.com/dispensaries/verdant-creations-newark,,,,,,,,,
,https://weedmaps.com/dispensaries/in/united-states/ohio/akron,Akron,,,,,,,https://weedmaps.com/dispensaries/in/united-states/ohio,Ohio,,,,United States,https://weedmaps.com/dispensaries/verdant-creations-marion,,,,,,,,,
,https://weedmaps.com/dispensaries/in/united-states/ohio/akron,Akron,,,,,,,https://weedmaps.com/dispensaries/in/united-states/ohio,Ohio,,,,United States,https://weedmaps.com/dispensaries/verdant-creations-chillicothe,,,,,,,,,
,https://weedmaps.com/dispensaries/in/united-states/ohio/akron,Akron,,,,,,,https://weedmaps.com/dispensaries/in/united-states/ohio,Ohio,,,,United States,https://weedmaps.com/dispensaries/greenleaf-apothecary-columbus,,,,,,,,,
,https://weedmaps.com/dispensaries/in/united-states/ohio/akron,Akron,,,,,,,https://weedmaps.com/dispensaries/in/united-states/ohio,Ohio,,,,United States,https://weedmaps.com/dispensaries/herbology-newark,,,,,,,,,
,https://weedmaps.com/dispensaries/in/united-states/ohio/akron,Akron,,,,,,,https://weedmaps.com/dispensaries/in/united-states/ohio,Ohio,,,,United States,https://weedmaps.com/dispensaries/verdant-creations-columbus,,,,,,,,,
,https://weedmaps.com/dispensaries/in/united-states/new-mexico/albuquerque,Albuquerque,,,,,,,https://weedmaps.com/dispensaries/in/united-states/new-mexico,New Mexico,,,,United States,https://weedmaps.com/dispensaries/healthy-education-society,,,,,,,,,
,https://weedmaps.com/dispensaries/in/united-states/new-mexico/albuquerque,Albuquerque,,,,,,,https://weedmaps.com/dispensaries/in/united-states/new-mexico,New Mexico,,,,United States,https://weedmaps.com/dispensaries/grassroots-rx-bosque-plaza-lane,,,,,,,,,
,https://weedmaps.com/dispensaries/in/united-states/new-mexico/albuquerque,Albuquerque,,,,,,,https://weedmaps.com/dispensaries/in/united-states/new-mexico,New Mexico,,,,United States,https://weedmaps.com/dispensaries/minerva-canna-group-bernalillo,,,,,,,,,
,https://weedmaps.com/dispensaries/in/united-states/new-mexico/albuquerque,Albuquerque,,,,,,,https://weedmaps.com/dispensaries/in/united-states/new-mexico,New Mexico,,,,United States,https://weedmaps.com/dispensaries/seven-clover-juan-tabo-blvd,,,,,,,,,
,https://weedmaps.com/dispensaries/in/united-states/new-mexico/albuquerque,Albuquerque,,,,,,,https://weedmaps.com/dispensaries/in/united-states/new-mexico,New Mexico,,,,United States,https://weedmaps.com/dispensaries/natural-rx-3,,,,,,,,,
,https://weedmaps.com/dispensaries/in/united-states/new-mexico/albuquerque,Albuquerque,,,,,,,https://weedmaps.com/dispensaries/in/united-states/new-mexico,New Mexico,,,,United States,https://weedmaps.com/dispensaries/natural-rx-rio-rancho,,,,,,,,,
,https://weedmaps.com/dispensaries/in/united-states/new-mexico/albuquerque,Albuquerque,,,,,,,https://weedmaps.com/dispensaries/in/united-states/new-mexico,New Mexico,,,,United States,https://weedmaps.com/dispensaries/southwest-wellness-san-pedro,,,,,,,,,
,https://weedmaps.com/dispensaries/in/united-states/new-mexico/albuquerque,Albuquerque,,,,,,,https://weedmaps.com/dispensaries/in/united-states/new-mexico,New Mexico,,,,United States,https://weedmaps.com/dispensaries/grassroots-rx-san-mateo-blvd,,,,,,,,,
,https://weedmaps.com/dispensaries/in/united-states/new-mexico/albuquerque,Albuquerque,,,,,,,https://weedmaps.com/dispensaries/in/united-states/new-mexico,New Mexico,,,,United States,https://weedmaps.com/dispensaries/natural-rx-2,,,,,,,,,
,https://weedmaps.com/dispensaries/in/united-states/new-mexico/albuquerque,Albuquerque,,,,,,,https://weedmaps.com/dispensaries/in/united-states/new-mexico,New Mexico,,,,United States,https://weedmaps.com/dispensaries/the-cbd-boutique-albuquerque,,,,,,,,,
,nan,nan,,,,,,,https://weedmaps.com/dispensaries/in/united-states/arkansas/fayetteville,Fayetteville,,,,Arkansas,https://weedmaps.com/dispensaries/the-releaf-center-bentonville,,,,,,,,,
,nan,nan,,,,,,,https://weedmaps.com/dispensaries/in/united-states/arkansas/fayetteville,Fayetteville,,,,Arkansas,https://weedmaps.com/dispensaries/the-source-bentonville,,,,,,,,,
,nan,nan,,,,,,,https://weedmaps.com/dispensaries/in/united-states/arkansas/fayetteville,Fayetteville,,,,Arkansas,https://weedmaps.com/dispensaries/acanza-health-group,,,,,,,,,
,nan,nan,,,,,,,https://weedmaps.com/dispensaries/in/united-states/arkansas/fayetteville,Fayetteville,,,,Arkansas,https://weedmaps.com/dispensaries/purspirit-cannabis-co,,,,,,,,,
,https://weedmaps.com/dispensaries/in/united-states/ohio/akron,Akron,,,,,,,https://weedmaps.com/dispensaries/in/united-states/ohio,Ohio,,,,United States,https://weedmaps.com/dispensaries/harvest-of-ohio-columbus,,,,,,,,,
,https://weedmaps.com/dispensaries/in/united-states/ohio/akron,Akron,,,,,,,https://weedmaps.com/dispensaries/in/united-states/ohio,Ohio,,,,United States,https://weedmaps.com/dispensaries/purlife-dispensary-columbus,,,,,,,,,
,nan,nan,,,,,,,https://weedmaps.com/dispensaries/in/united-states/arkansas/conway,Conway,,,,Arkansas,https://weedmaps.com/dispensaries/harvest-cannabis-dispensary-1,,,,,,,,,
,nan,nan,,,,,,,https://weedmaps.com/dispensaries/in/united-states/arkansas/conway,Conway,,,,Arkansas,https://weedmaps.com/dispensaries/fiddler-s-green,,,,,,,,,
,nan,nan,,,,,,,https://weedmaps.com/dispensaries/in/united-states/arkansas/conway,Conway,,,,Arkansas,https://weedmaps.com/dispensaries/arkansas-natural-products,,,,,,,,,
,nan,nan,,,,,,,https://weedmaps.com/dispensaries/in/united-states/arkansas/conway,Conway,,,,Arkansas,https://weedmaps.com/dispensaries/420-rx,,,,,,,,,
,nan,nan,,,,,,,https://weedmaps.com/dispensaries/in/united-states/arkansas/conway,Conway,,,,Arkansas,https://weedmaps.com/dispensaries/big-fish-of-central-arkansas,,,,,,,,,
,nan,nan,,,,,,,https://weedmaps.com/dispensaries/in/united-states/arkansas/conway,Conway,,,,Arkansas,https://weedmaps.com/dispensaries/plant-family-therapeutics,,,,,,,,,
,nan,nan,,,,,,,https://weedmaps.com/dispensaries/in/united-states/arkansas/little-rock,Little Rock,,,,Arkansas,https://weedmaps.com/dispensaries/native-green-wellness-2,,,,,,,,,
,nan,nan,,,,,,,https://weedmaps.com/dispensaries/in/united-states/arkansas/little-rock,Little Rock,,,,Arkansas,https://weedmaps.com/dispensaries/herbology-little-rock,,,,,,,,,
,nan,nan,,,,,,,https://weedmaps.com/dispensaries/in/united-states/arkansas/little-rock,Little Rock,,,,Arkansas,https://weedmaps.com/dispensaries/natural-state-wellness-dispensary,,,,,,,,,
,https://weedmaps.com/dispensaries/in/united-states/oregon/albany-corvallis,Albany / Corvallis,,,,,,,https://weedmaps.com/dispensaries/in/united-states/oregon,Oregon,,,,United States,https://weedmaps.com/dispensaries/central-organics,,,,,,,,,
,https://weedmaps.com/dispensaries/in/united-states/oregon/albany-corvallis,Albany / Corvallis,,,,,,,https://weedmaps.com/dispensaries/in/united-states/oregon,Oregon,,,,United States,https://weedmaps.com/dispensaries/plantae-health-center-2,,,,,,,,,
,https://weedmaps.com/dispensaries/in/united-states/oregon/albany-corvallis,Albany / Corvallis,,,,,,,https://weedmaps.com/dispensaries/in/united-states/oregon,Oregon,,,,United States,https://weedmaps.com/dispensaries/diamondtree-westside-2,,,,,,,,,
,https://weedmaps.com/dispensaries/in/united-states/oregon/albany-corvallis,Albany / Corvallis,,,,,,,https://weedmaps.com/dispensaries/in/united-states/oregon,Oregon,,,,United States,https://weedmaps.com/dispensaries/plantae-health-center,,,,,,,,,
,https://weedmaps.com/dispensaries/in/united-states/oregon/albany-corvallis,Albany / Corvallis,,,,,,,https://weedmaps.com/dispensaries/in/united-states/oregon,Oregon,,,,United States,https://weedmaps.com/dispensaries/pioneer-cannabis-co,,,,,,,,,
,https://weedmaps.com/dispensaries/in/united-states/oregon/albany-corvallis,Albany / Corvallis,,,,,,,https://weedmaps.com/dispensaries/in/united-states/oregon,Oregon,,,,United States,https://weedmaps.com/dispensaries/madras-resource-center,,,,,,,,,
,https://weedmaps.com/dispensaries/in/united-states/oregon/albany-corvallis,Albany / Corvallis,,,,,,,https://weedmaps.com/dispensaries/in/united-states/oregon,Oregon,,,,United States,https://weedmaps.com/dispensaries/green-knottz-madras,,,,,,,,,
,nan,nan,,,,,,,https://weedmaps.com/dispensaries/in/united-states/arkansas/fort-smith,Fort Smith,,,,Arkansas,https://weedmaps.com/dispensaries/fort-cannabis-co,,,,,,,,,
,nan,nan,,,,,,,https://weedmaps.com/dispensaries/in/united-states/arkansas/fort-smith,Fort Smith,,,,Arkansas,https://weedmaps.com/dispensaries/river-valley-dispensary,,,,,,,,,
,https://weedmaps.com/dispensaries/in/united-states/oklahoma/ardmore,Ardmore,,,,,,,https://weedmaps.com/dispensaries/in/united-states/oklahoma,Oklahoma,,,,United States,https://weedmaps.com/dispensaries/cali-roots-3,,,,,,,,,
,https://weedmaps.com/dispensaries/in/united-states/oklahoma/ardmore,Ardmore,,,,,,,https://weedmaps.com/dispensaries/in/united-states/oklahoma,Oklahoma,,,,United States,https://weedmaps.com/dispensaries/high-society-4,,,,,,,,,
,https://weedmaps.com/dispensaries/in/united-states/oklahoma/ardmore,Ardmore,,,,,,,https://weedmaps.com/dispensaries/in/united-states/oklahoma,Oklahoma,,,,United States,https://weedmaps.com/dispensaries/the-joint-cannabis-club,,,,,,,,,
,https://weedmaps.com/dispensaries/in/united-states/oklahoma/ardmore,Ardmore,,,,,,,https://weedmaps.com/dispensaries/in/united-states/oklahoma,Oklahoma,,,,United States,https://weedmaps.com/dispensaries/electraleaf,,,,,,,,,
,https://weedmaps.com/dispensaries/in/united-states/oklahoma/ardmore,Ardmore,,,,,,,https://weedmaps.com/dispensaries/in/united-states/oklahoma,Oklahoma,,,,United States,https://weedmaps.com/dispensaries/sage-wellness,,,,,,,,,
,https://weedmaps.com/dispensaries/in/united-states/oklahoma/ardmore,Ardmore,,,,,,,https://weedmaps.com/dispensaries/in/united-states/oklahoma,Oklahoma,,,,United States,https://weedmaps.com/dispensaries/living-leaf-dispensary,,,,,,,,,
,nan,nan,,,,,,,https://weedmaps.com/dispensaries/in/united-states/arizona/casa-grande-maricopa,Casa Grande / Maricopa,,,,Arizona,https://weedmaps.com/dispensaries/leaf-life,,,,,,,,,
,nan,nan,,,,,,,https://weedmaps.com/dispensaries/in/united-states/arizona/casa-grande-maricopa,Casa Grande / Maricopa,,,,Arizona,https://weedmaps.com/dispensaries/leaf-life-3,,,,,,,,,
,https://weedmaps.com/dispensaries/in/united-states/oklahoma/ardmore,Ardmore,,,,,,,https://weedmaps.com/dispensaries/in/united-states/oklahoma,Oklahoma,,,,United States,https://weedmaps.com/dispensaries/stella-herb,,,,,,,,,
,https://weedmaps.com/dispensaries/in/united-states/oklahoma/ardmore,Ardmore,,,,,,,https://weedmaps.com/dispensaries/in/united-states/oklahoma,Oklahoma,,,,United States,https://weedmaps.com/dispensaries/kissing-clouds-holistic-healing,,,,,,,,,
,https://weedmaps.com/dispensaries/in/united-states/oklahoma/ardmore,Ardmore,,,,,,,https://weedmaps.com/dispensaries/in/united-states/oklahoma,Oklahoma,,,,United States,https://weedmaps.com/dispensaries/cali-roots-nichols-hills,,,,,,,,,
,https://weedmaps.com/dispensaries/in/united-states/oklahoma/ardmore,Ardmore,,,,,,,https://weedmaps.com/dispensaries/in/united-states/oklahoma,Oklahoma,,,,United States,https://weedmaps.com/dispensaries/project-releaf,,,,,,,,,
,https://weedmaps.com/dispensaries/in/united-states/oklahoma/ardmore,Ardmore,,,,,,,https://weedmaps.com/dispensaries/in/united-states/oklahoma,Oklahoma,,,,United States,https://weedmaps.com/dispensaries/steady-eddi-supply-co-portland,,,,,,,,,
,https://weedmaps.com/dispensaries/in/united-states/oklahoma/ardmore,Ardmore,,,,,,,https://weedmaps.com/dispensaries/in/united-states/oklahoma,Oklahoma,,,,United States,https://weedmaps.com/dispensaries/hot-box-lab,,,,,,,,,
,https://weedmaps.com/dispensaries/in/united-states/oklahoma/ardmore,Ardmore,,,,,,,https://weedmaps.com/dispensaries/in/united-states/oklahoma,Oklahoma,,,,United States,https://weedmaps.com/dispensaries/eden-rose-dispensary-2,,,,,,,,,
,https://weedmaps.com/dispensaries/in/united-states/oklahoma/ardmore,Ardmore,,,,,,,https://weedmaps.com/dispensaries/in/united-states/oklahoma,Oklahoma,,,,United States,https://weedmaps.com/dispensaries/stem-on-may,,,,,,,,,
,https://weedmaps.com/dispensaries/in/united-states/oklahoma/ardmore,Ardmore,,,,,,,https://weedmaps.com/dispensaries/in/united-states/oklahoma,Oklahoma,,,,United States,https://weedmaps.com/dispensaries/rabbit-hole-cannabis-dispensary,,,,,,,,,
,https://weedmaps.com/dispensaries/in/united-states/oklahoma/ardmore,Ardmore,,,,,,,https://weedmaps.com/dispensaries/in/united-states/oklahoma,Oklahoma,,,,United States,https://weedmaps.com/dispensaries/steady-eddi-supply-co,,,,,,,,,
,https://weedmaps.com/dispensaries/in/united-states/oklahoma/ardmore,Ardmore,,,,,,,https://weedmaps.com/dispensaries/in/united-states/oklahoma,Oklahoma,,,,United States,https://weedmaps.com/dispensaries/vertica-okc,,,,,,,,,
,https://weedmaps.com/dispensaries/in/united-states/oklahoma/ardmore,Ardmore,,,,,,,https://weedmaps.com/dispensaries/in/united-states/oklahoma,Oklahoma,,,,United States,https://weedmaps.com/dispensaries/woke-wellness-1,,,,,,,,,
,https://weedmaps.com/dispensaries/in/united-states/oklahoma/ardmore,Ardmore,,,,,,,https://weedmaps.com/dispensaries/in/united-states/oklahoma,Oklahoma,,,,United States,https://weedmaps.com/dispensaries/cvltivation-clvb,,,,,,,,,
,https://weedmaps.com/dispensaries/in/united-states/oklahoma/ardmore,Ardmore,,,,,,,https://weedmaps.com/dispensaries/in/united-states/oklahoma,Oklahoma,,,,United States,https://weedmaps.com/dispensaries/green-peace-inc,,,,,,,,,
,https://weedmaps.com/dispensaries/in/united-states/oklahoma/ardmore,Ardmore,,,,,,,https://weedmaps.com/dispensaries/in/united-states/oklahoma,Oklahoma,,,,United States,https://weedmaps.com/dispensaries/46-releaf-1,,,,,,,,,
,https://weedmaps.com/dispensaries/in/united-states/oklahoma/ardmore,Ardmore,,,,,,,https://weedmaps.com/dispensaries/in/united-states/oklahoma,Oklahoma,,,,United States,https://weedmaps.com/dispensaries/green-roots-wellness,,,,,,,,,
,https://weedmaps.com/dispensaries/in/united-states/oklahoma/ardmore,Ardmore,,,,,,,https://weedmaps.com/dispensaries/in/united-states/oklahoma,Oklahoma,,,,United States,https://weedmaps.com/dispensaries/the-peak-craft-okc-dispensary,,,,,,,,,
,https://weedmaps.com/dispensaries/in/united-states/oklahoma/ardmore,Ardmore,,,,,,,https://weedmaps.com/dispensaries/in/united-states/oklahoma,Oklahoma,,,,United States,https://weedmaps.com/dispensaries/the-peak-quail-springs-okc-dispensary,,,,,,,,,
,https://weedmaps.com/dispensaries/in/united-states/oklahoma/ardmore,Ardmore,,,,,,,https://weedmaps.com/dispensaries/in/united-states/oklahoma,Oklahoma,,,,United States,https://weedmaps.com/dispensaries/great-barrier-reefer-medical-dispensary,,,,,,,,,
,https://weedmaps.com/dispensaries/in/united-states/oklahoma/ardmore,Ardmore,,,,,,,https://weedmaps.com/dispensaries/in/united-states/oklahoma,Oklahoma,,,,United States,https://weedmaps.com/dispensaries/hazy-leaf,,,,,,,,,
,https://weedmaps.com/dispensaries/in/united-states/oklahoma/ardmore,Ardmore,,,,,,,https://weedmaps.com/dispensaries/in/united-states/oklahoma,Oklahoma,,,,United States,https://weedmaps.com/dispensaries/starbuds-lake-hefner,,,,,,,,,
,https://weedmaps.com/dispensaries/in/united-states/oklahoma/ardmore,Ardmore,,,,,,,https://weedmaps.com/dispensaries/in/united-states/oklahoma,Oklahoma,,,,United States,https://weedmaps.com/dispensaries/urban-flora-apothecary,,,,,,,,,
,https://weedmaps.com/dispensaries/in/united-states/oklahoma/ardmore,Ardmore,,,,,,,https://weedmaps.com/dispensaries/in/united-states/oklahoma,Oklahoma,,,,United States,https://weedmaps.com/dispensaries/green-mile-dispensary,,,,,,,,,
,https://weedmaps.com/dispensaries/in/united-states/oklahoma/ardmore,Ardmore,,,,,,,https://weedmaps.com/dispensaries/in/united-states/oklahoma,Oklahoma,,,,United States,https://weedmaps.com/dispensaries/cloud-city,,,,,,,,,
,https://weedmaps.com/dispensaries/in/united-states/oklahoma/ardmore,Ardmore,,,,,,,https://weedmaps.com/dispensaries/in/united-states/oklahoma,Oklahoma,,,,United States,https://weedmaps.com/dispensaries/native-brothers-cbd-dispensary,,,,,,,,,
,https://weedmaps.com/dispensaries/in/united-states/oklahoma/ardmore,Ardmore,,,,,,,https://weedmaps.com/dispensaries/in/united-states/oklahoma,Oklahoma,,,,United States,https://weedmaps.com/dispensaries/ganjzilla-okc,,,,,,,,,
,https://weedmaps.com/dispensaries/in/united-states/oklahoma/ardmore,Ardmore,,,,,,,https://weedmaps.com/dispensaries/in/united-states/oklahoma,Oklahoma,,,,United States,https://weedmaps.com/dispensaries/revitalize-wellness,,,,,,,,,
,https://weedmaps.com/dispensaries/in/united-states/oklahoma/ardmore,Ardmore,,,,,,,https://weedmaps.com/dispensaries/in/united-states/oklahoma,Oklahoma,,,,United States,https://weedmaps.com/dispensaries/green-light-district-cannabis-supply,,,,,,,,,
,https://weedmaps.com/dispensaries/in/united-states/oklahoma/ardmore,Ardmore,,,,,,,https://weedmaps.com/dispensaries/in/united-states/oklahoma,Oklahoma,,,,United States,https://weedmaps.com/dispensaries/medicann-ok-2,,,,,,,,,
,https://weedmaps.com/dispensaries/in/united-states/oklahoma/ardmore,Ardmore,,,,,,,https://weedmaps.com/dispensaries/in/united-states/oklahoma,Oklahoma,,,,United States,https://weedmaps.com/dispensaries/secret-garden-dispensary,,,,,,,,,
,https://weedmaps.com/dispensaries/in/united-states/oklahoma/ardmore,Ardmore,,,,,,,https://weedmaps.com/dispensaries/in/united-states/oklahoma,Oklahoma,,,,United States,https://weedmaps.com/dispensaries/dana-s-green-depot-1,,,,,,,,,
,https://weedmaps.com/dispensaries/in/united-states/oklahoma/ardmore,Ardmore,,,,,,,https://weedmaps.com/dispensaries/in/united-states/oklahoma,Oklahoma,,,,United States,https://weedmaps.com/dispensaries/strainwise-okc-airport,,,,,,,,,
,https://weedmaps.com/dispensaries/in/united-states/oklahoma/ardmore,Ardmore,,,,,,,https://weedmaps.com/dispensaries/in/united-states/oklahoma,Oklahoma,,,,United States,https://weedmaps.com/dispensaries/big-daddy-s-marijuana-dispensary,,,,,,,,,
,https://weedmaps.com/dispensaries/in/united-states/oklahoma/ardmore,Ardmore,,,,,,,https://weedmaps.com/dispensaries/in/united-states/oklahoma,Oklahoma,,,,United States,https://weedmaps.com/dispensaries/friendly-market,,,,,,,,,
,https://weedmaps.com/dispensaries/in/united-states/oklahoma/ardmore,Ardmore,,,,,,,https://weedmaps.com/dispensaries/in/united-states/oklahoma,Oklahoma,,,,United States,https://weedmaps.com/dispensaries/planet-hollyweed-2,,,,,,,,,
,https://weedmaps.com/dispensaries/in/united-states/oklahoma/ardmore,Ardmore,,,,,,,https://weedmaps.com/dispensaries/in/united-states/oklahoma,Oklahoma,,,,United States,https://weedmaps.com/dispensaries/along-came-mary-1,,,,,,,,,
,nan,nan,,,,,,,https://weedmaps.com/dispensaries/in/united-states/arkansas/north-little-rock,North Little Rock,,,,Arkansas,https://weedmaps.com/dispensaries/grassroots-opco,,,,,,,,,
,https://weedmaps.com/dispensaries/in/united-states/oklahoma/ardmore,Ardmore,,,,,,,https://weedmaps.com/dispensaries/in/united-states/oklahoma,Oklahoma,,,,United States,https://weedmaps.com/dispensaries/urban-wellness-dispensary-2,,,,,,,,,
,https://weedmaps.com/dispensaries/in/united-states/oklahoma/ardmore,Ardmore,,,,,,,https://weedmaps.com/dispensaries/in/united-states/oklahoma,Oklahoma,,,,United States,https://weedmaps.com/dispensaries/420-apothecary,,,,,,,,,
,https://weedmaps.com/dispensaries/in/united-states/oklahoma/ardmore,Ardmore,,,,,,,https://weedmaps.com/dispensaries/in/united-states/oklahoma,Oklahoma,,,,United States,https://weedmaps.com/dispensaries/peak-green-wellness,,,,,,,,,
,https://weedmaps.com/dispensaries/in/united-states/oklahoma/ardmore,Ardmore,,,,,,,https://weedmaps.com/dispensaries/in/united-states/oklahoma,Oklahoma,,,,United States,https://weedmaps.com/dispensaries/greenhouse-dispensary,,,,,,,,,
,https://weedmaps.com/dispensaries/in/united-states/oklahoma/ardmore,Ardmore,,,,,,,https://weedmaps.com/dispensaries/in/united-states/oklahoma,Oklahoma,,,,United States,https://weedmaps.com/dispensaries/happy-root-420-llc,,,,,,,,,
,https://weedmaps.com/dispensaries/in/united-states/oklahoma/ardmore,Ardmore,,,,,,,https://weedmaps.com/dispensaries/in/united-states/oklahoma,Oklahoma,,,,United States,https://weedmaps.com/dispensaries/the-greens-of-central-oklahoma,,,,,,,,,
,https://weedmaps.com/dispensaries/in/united-states/oklahoma/ardmore,Ardmore,,,,,,,https://weedmaps.com/dispensaries/in/united-states/oklahoma,Oklahoma,,,,United States,https://weedmaps.com/dispensaries/the-peak-dispensary,,,,,,,,,
,https://weedmaps.com/dispensaries/in/united-states/oklahoma/ardmore,Ardmore,,,,,,,https://weedmaps.com/dispensaries/in/united-states/oklahoma,Oklahoma,,,,United States,https://weedmaps.com/dispensaries/710-factory,,,,,,,,,
,https://weedmaps.com/dispensaries/in/united-states/oklahoma/ardmore,Ardmore,,,,,,,https://weedmaps.com/dispensaries/in/united-states/oklahoma,Oklahoma,,,,United States,https://weedmaps.com/dispensaries/fire-leaf-dispensary,,,,,,,,,
,https://weedmaps.com/dispensaries/in/united-states/oklahoma/ardmore,Ardmore,,,,,,,https://weedmaps.com/dispensaries/in/united-states/oklahoma,Oklahoma,,,,United States,https://weedmaps.com/dispensaries/waves-cannabis-co,,,,,,,,,
,https://weedmaps.com/dispensaries/in/united-states/oklahoma/ardmore,Ardmore,,,,,,,https://weedmaps.com/dispensaries/in/united-states/oklahoma,Oklahoma,,,,United States,https://weedmaps.com/dispensaries/fire-leaf-dispensary-stockyard,,,,,,,,,
,https://weedmaps.com/dispensaries/in/united-states/oklahoma/ardmore,Ardmore,,,,,,,https://weedmaps.com/dispensaries/in/united-states/oklahoma,Oklahoma,,,,United States,https://weedmaps.com/dispensaries/natures-remedy-dispensary,,,,,,,,,
,https://weedmaps.com/dispensaries/in/united-states/oklahoma/ardmore,Ardmore,,,,,,,https://weedmaps.com/dispensaries/in/united-states/oklahoma,Oklahoma,,,,United States,https://weedmaps.com/dispensaries/cannabless-nw-expressway,,,,,,,,,
,https://weedmaps.com/dispensaries/in/united-states/oklahoma/ardmore,Ardmore,,,,,,,https://weedmaps.com/dispensaries/in/united-states/oklahoma,Oklahoma,,,,United States,https://weedmaps.com/dispensaries/neverland-s-gypsi,,,,,,,,,
,https://weedmaps.com/dispensaries/in/united-states/oklahoma/ardmore,Ardmore,,,,,,,https://weedmaps.com/dispensaries/in/united-states/oklahoma,Oklahoma,,,,United States,https://weedmaps.com/dispensaries/tumbleweed-cannabis-company,,,,,,,,,
,https://weedmaps.com/dispensaries/in/united-states/oklahoma/ardmore,Ardmore,,,,,,,https://weedmaps.com/dispensaries/in/united-states/oklahoma,Oklahoma,,,,United States,https://weedmaps.com/dispensaries/highgarden-dispensary-2,,,,,,,,,
,https://weedmaps.com/dispensaries/in/united-states/oklahoma/ardmore,Ardmore,,,,,,,https://weedmaps.com/dispensaries/in/united-states/oklahoma,Oklahoma,,,,United States,https://weedmaps.com/dispensaries/holistique-medical-wellness,,,,,,,,,
,https://weedmaps.com/dispensaries/in/united-states/oklahoma/ardmore,Ardmore,,,,,,,https://weedmaps.com/dispensaries/in/united-states/oklahoma,Oklahoma,,,,United States,https://weedmaps.com/dispensaries/nature-s-cure-dispensary-ii-llc,,,,,,,,,
,https://weedmaps.com/dispensaries/in/united-states/oklahoma/ardmore,Ardmore,,,,,,,https://weedmaps.com/dispensaries/in/united-states/oklahoma,Oklahoma,,,,United States,https://weedmaps.com/dispensaries/cannabless-n-rockwell-ave,,,,,,,,,
,https://weedmaps.com/dispensaries/in/united-states/oklahoma/ardmore,Ardmore,,,,,,,https://weedmaps.com/dispensaries/in/united-states/oklahoma,Oklahoma,,,,United States,https://weedmaps.com/dispensaries/fire-leaf-west-okc,,,,,,,,,
,https://weedmaps.com/dispensaries/in/united-states/oklahoma/ardmore,Ardmore,,,,,,,https://weedmaps.com/dispensaries/in/united-states/oklahoma,Oklahoma,,,,United States,https://weedmaps.com/dispensaries/diesel-cannabis,,,,,,,,,
,https://weedmaps.com/dispensaries/in/united-states/oklahoma/ardmore,Ardmore,,,,,,,https://weedmaps.com/dispensaries/in/united-states/oklahoma,Oklahoma,,,,United States,https://weedmaps.com/dispensaries/23rd-street-dispensary,,,,,,,,,
,https://weedmaps.com/dispensaries/in/united-states/oklahoma/ardmore,Ardmore,,,,,,,https://weedmaps.com/dispensaries/in/united-states/oklahoma,Oklahoma,,,,United States,https://weedmaps.com/dispensaries/starbuds-bricktown-1,,,,,,,,,
,https://weedmaps.com/dispensaries/in/united-states/oklahoma/ardmore,Ardmore,,,,,,,https://weedmaps.com/dispensaries/in/united-states/oklahoma,Oklahoma,,,,United States,https://weedmaps.com/dispensaries/high-voltage-cannabis-co-2,,,,,,,,,
,https://weedmaps.com/dispensaries/in/united-states/oklahoma/ardmore,Ardmore,,,,,,,https://weedmaps.com/dispensaries/in/united-states/oklahoma,Oklahoma,,,,United States,https://weedmaps.com/dispensaries/alchemy-gold-healing-dispensary,,,,,,,,,
,nan,nan,,,,,,,https://weedmaps.com/dispensaries/in/united-states/arizona/cave-creek,Cave Creek,,,,Arizona,https://weedmaps.com/dispensaries/arizona-natural-concepts,,,,,,,,,
,nan,nan,,,,,,,https://weedmaps.com/dispensaries/in/united-states/arizona/cave-creek,Cave Creek,,,,Arizona,https://weedmaps.com/dispensaries/zen-dispensary,,,,,,,,,
,nan,nan,,,,,,,https://weedmaps.com/dispensaries/in/united-states/arizona/cave-creek,Cave Creek,,,,Arizona,https://weedmaps.com/dispensaries/bc-wellness-center,,,,,,,,,
,https://weedmaps.com/dispensaries/in/united-states/oklahoma/ardmore,Ardmore,,,,,,,https://weedmaps.com/dispensaries/in/united-states/oklahoma,Oklahoma,,,,United States,https://weedmaps.com/dispensaries/kush-house-1,,,,,,,,,
,https://weedmaps.com/dispensaries/in/united-states/oklahoma/ardmore,Ardmore,,,,,,,https://weedmaps.com/dispensaries/in/united-states/oklahoma,Oklahoma,,,,United States,https://weedmaps.com/dispensaries/physicians-choice-cannabis-dispensary,,,,,,,,,
,https://weedmaps.com/dispensaries/in/united-states/oklahoma/ardmore,Ardmore,,,,,,,https://weedmaps.com/dispensaries/in/united-states/oklahoma,Oklahoma,,,,United States,https://weedmaps.com/dispensaries/apco-med,,,,,,,,,
,https://weedmaps.com/dispensaries/in/united-states/oklahoma/ardmore,Ardmore,,,,,,,https://weedmaps.com/dispensaries/in/united-states/oklahoma,Oklahoma,,,,United States,https://weedmaps.com/dispensaries/mr-green-the-village,,,,,,,,,
,https://weedmaps.com/dispensaries/in/united-states/oklahoma/ardmore,Ardmore,,,,,,,https://weedmaps.com/dispensaries/in/united-states/oklahoma,Oklahoma,,,,United States,https://weedmaps.com/dispensaries/grateful-med,,,,,,,,,
,https://weedmaps.com/dispensaries/in/united-states/oklahoma/ardmore,Ardmore,,,,,,,https://weedmaps.com/dispensaries/in/united-states/oklahoma,Oklahoma,,,,United States,https://weedmaps.com/dispensaries/cbd-plus-usa-oklahoma-city-n-classen-blvd,,,,,,,,,
,https://weedmaps.com/dispensaries/in/united-states/oklahoma/ardmore,Ardmore,,,,,,,https://weedmaps.com/dispensaries/in/united-states/oklahoma,Oklahoma,,,,United States,https://weedmaps.com/dispensaries/cbd-plus-usa-oklahoma-city-warwick-dr,,,,,,,,,
,https://weedmaps.com/dispensaries/in/united-states/oklahoma/ardmore,Ardmore,,,,,,,https://weedmaps.com/dispensaries/in/united-states/oklahoma,Oklahoma,,,,United States,https://weedmaps.com/dispensaries/cbd-plus-usa-oklahoma-city-memorial,,,,,,,,,
,https://weedmaps.com/dispensaries/in/united-states/oklahoma/ardmore,Ardmore,,,,,,,https://weedmaps.com/dispensaries/in/united-states/oklahoma,Oklahoma,,,,United States,https://weedmaps.com/dispensaries/cbd-plus-usa-oklahoma-city-n-pennsylvania-ave,,,,,,,,,
,https://weedmaps.com/dispensaries/in/united-states/oklahoma/ardmore,Ardmore,,,,,,,https://weedmaps.com/dispensaries/in/united-states/oklahoma,Oklahoma,,,,United States,https://weedmaps.com/dispensaries/the-pot-house-dispensary,,,,,,,,,
,https://weedmaps.com/dispensaries/in/united-states/oklahoma/ardmore,Ardmore,,,,,,,https://weedmaps.com/dispensaries/in/united-states/oklahoma,Oklahoma,,,,United States,https://weedmaps.com/dispensaries/kure-collective,,,,,,,,,
,https://weedmaps.com/dispensaries/in/united-states/oklahoma/ardmore,Ardmore,,,,,,,https://weedmaps.com/dispensaries/in/united-states/oklahoma,Oklahoma,,,,United States,https://weedmaps.com/dispensaries/cbd-plus-usa-warr-acres,,,,,,,,,
,https://weedmaps.com/dispensaries/in/united-states/oklahoma/ardmore,Ardmore,,,,,,,https://weedmaps.com/dispensaries/in/united-states/oklahoma,Oklahoma,,,,United States,https://weedmaps.com/dispensaries/cbd-plus-usa-oklahoma-city-50th-st,,,,,,,,,
,https://weedmaps.com/dispensaries/in/united-states/rhode-island/rhode-island-cannbis-clubs,Providence,,,,,,,https://weedmaps.com/dispensaries/in/united-states/rhode-island,Rhode Island,,,,United States,https://weedmaps.com/dispensaries/summit-medical-compassion-center,,,,,,,,,
,https://weedmaps.com/dispensaries/in/united-states/rhode-island/rhode-island-cannbis-clubs,Providence,,,,,,,https://weedmaps.com/dispensaries/in/united-states/rhode-island,Rhode Island,,,,United States,https://weedmaps.com/dispensaries/greenleaf-compassionate-care-center,,,,,,,,,
,https://weedmaps.com/dispensaries/in/united-states/oklahoma/ardmore,Ardmore,,,,,,,https://weedmaps.com/dispensaries/in/united-states/oklahoma,Oklahoma,,,,United States,https://weedmaps.com/dispensaries/good-times-dispensary,,,,,,,,,
,https://weedmaps.com/dispensaries/in/united-states/oklahoma/ardmore,Ardmore,,,,,,,https://weedmaps.com/dispensaries/in/united-states/oklahoma,Oklahoma,,,,United States,https://weedmaps.com/dispensaries/cbd-plus-usa-oklahoma-city-n-may-ave,,,,,,,,,
,https://weedmaps.com/dispensaries/in/united-states/oklahoma/ardmore,Ardmore,,,,,,,https://weedmaps.com/dispensaries/in/united-states/oklahoma,Oklahoma,,,,United States,https://weedmaps.com/dispensaries/top-shelf-okc,,,,,,,,,
,https://weedmaps.com/dispensaries/in/united-states/oklahoma/ardmore,Ardmore,,,,,,,https://weedmaps.com/dispensaries/in/united-states/oklahoma,Oklahoma,,,,United States,https://weedmaps.com/dispensaries/highland-healing-llc,,,,,,,,,
,https://weedmaps.com/dispensaries/in/united-states/oklahoma/ardmore,Ardmore,,,,,,,https://weedmaps.com/dispensaries/in/united-states/oklahoma,Oklahoma,,,,United States,https://weedmaps.com/dispensaries/love-budz-llc,,,,,,,,,
,https://weedmaps.com/dispensaries/in/united-states/oklahoma/ardmore,Ardmore,,,,,,,https://weedmaps.com/dispensaries/in/united-states/oklahoma,Oklahoma,,,,United States,https://weedmaps.com/dispensaries/kc-s-cannabis-company,,,,,,,,,
,https://weedmaps.com/dispensaries/in/united-states/oklahoma/ardmore,Ardmore,,,,,,,https://weedmaps.com/dispensaries/in/united-states/oklahoma,Oklahoma,,,,United States,https://weedmaps.com/dispensaries/nurses-station,,,,,,,,,
,https://weedmaps.com/dispensaries/in/united-states/oklahoma/ardmore,Ardmore,,,,,,,https://weedmaps.com/dispensaries/in/united-states/oklahoma,Oklahoma,,,,United States,https://weedmaps.com/dispensaries/tree-kings-dispensary-nw-okc,,,,,,,,,
,https://weedmaps.com/dispensaries/in/united-states/oklahoma/ardmore,Ardmore,,,,,,,https://weedmaps.com/dispensaries/in/united-states/oklahoma,Oklahoma,,,,United States,https://weedmaps.com/dispensaries/chill-dispensary,,,,,,,,,
,https://weedmaps.com/dispensaries/in/united-states/oklahoma/ardmore,Ardmore,,,,,,,https://weedmaps.com/dispensaries/in/united-states/oklahoma,Oklahoma,,,,United States,https://weedmaps.com/dispensaries/steve-s-greens,,,,,,,,,
,https://weedmaps.com/dispensaries/in/united-states/oklahoma/ardmore,Ardmore,,,,,,,https://weedmaps.com/dispensaries/in/united-states/oklahoma,Oklahoma,,,,United States,https://weedmaps.com/dispensaries/cannagrow,,,,,,,,,
,https://weedmaps.com/dispensaries/in/united-states/oklahoma/ardmore,Ardmore,,,,,,,https://weedmaps.com/dispensaries/in/united-states/oklahoma,Oklahoma,,,,United States,https://weedmaps.com/dispensaries/z-pharmacy,,,,,,,,,
,https://weedmaps.com/dispensaries/in/united-states/oklahoma/ardmore,Ardmore,,,,,,,https://weedmaps.com/dispensaries/in/united-states/oklahoma,Oklahoma,,,,United States,https://weedmaps.com/dispensaries/the-med-shop,,,,,,,,,
,https://weedmaps.com/dispensaries/in/united-states/oklahoma/ardmore,Ardmore,,,,,,,https://weedmaps.com/dispensaries/in/united-states/oklahoma,Oklahoma,,,,United States,https://weedmaps.com/dispensaries/green-leaf-supply-co,,,,,,,,,
,https://weedmaps.com/dispensaries/in/united-states/oklahoma/ardmore,Ardmore,,,,,,,https://weedmaps.com/dispensaries/in/united-states/oklahoma,Oklahoma,,,,United States,https://weedmaps.com/dispensaries/trichomes-2,,,,,,,,,
,https://weedmaps.com/dispensaries/in/united-states/oklahoma/ardmore,Ardmore,,,,,,,https://weedmaps.com/dispensaries/in/united-states/oklahoma,Oklahoma,,,,United States,https://weedmaps.com/dispensaries/gaia-s-favor,,,,,,,,,
,https://weedmaps.com/dispensaries/in/united-states/oklahoma/ardmore,Ardmore,,,,,,,https://weedmaps.com/dispensaries/in/united-states/oklahoma,Oklahoma,,,,United States,https://weedmaps.com/dispensaries/66-buds-dispensary-llc,,,,,,,,,
,https://weedmaps.com/dispensaries/in/united-states/oklahoma/ardmore,Ardmore,,,,,,,https://weedmaps.com/dispensaries/in/united-states/oklahoma,Oklahoma,,,,United States,https://weedmaps.com/dispensaries/woke-wellness-nw-okc,,,,,,,,,
,https://weedmaps.com/dispensaries/in/united-states/oklahoma/ardmore,Ardmore,,,,,,,https://weedmaps.com/dispensaries/in/united-states/oklahoma,Oklahoma,,,,United States,https://weedmaps.com/dispensaries/okc-budworx-dispensary,,,,,,,,,
,https://weedmaps.com/dispensaries/in/united-states/oklahoma/ardmore,Ardmore,,,,,,,https://weedmaps.com/dispensaries/in/united-states/oklahoma,Oklahoma,,,,United States,https://weedmaps.com/dispensaries/high-expectations,,,,,,,,,
,nan,nan,,,,,,,https://weedmaps.com/dispensaries/in/united-states/arkansas/pine-bluff,Pine Bluff,,,,Arkansas,https://weedmaps.com/dispensaries/arkansas-patient-services-co,,,,,,,,,
,nan,nan,,,,,,,https://weedmaps.com/dispensaries/in/united-states/arkansas/jonesboro,Jonesboro,,,,Arkansas,https://weedmaps.com/dispensaries/nea-full-spectrum,,,,,,,,,
,https://weedmaps.com/dispensaries/in/united-states/pennsylvania/allentown,Allentown,,,,,,,https://weedmaps.com/dispensaries/in/united-states/pennsylvania,Pennsylvania,,,,United States,https://weedmaps.com/dispensaries/nature-s-medicines-state-college,,,,,,,,,
,https://weedmaps.com/dispensaries/in/united-states/pennsylvania/allentown,Allentown,,,,,,,https://weedmaps.com/dispensaries/in/united-states/pennsylvania,Pennsylvania,,,,United States,https://weedmaps.com/dispensaries/herbology-altoona,,,,,,,,,
,https://weedmaps.com/dispensaries/in/united-states/pennsylvania/allentown,Allentown,,,,,,,https://weedmaps.com/dispensaries/in/united-states/pennsylvania,Pennsylvania,,,,United States,https://weedmaps.com/dispensaries/keystone-center-of-integrative-wellness,,,,,,,,,
