Address,ChildListingUrl,ChildListings,Description,DispensaryName,Email,Facebook,Friday,Instagram,ListingUrl,Listings,Monday,Phone,Saturday,State,StoreUrl,Sunday,Thursday,Tuesday,Twitter,Type,Website,Wednesday,latitude,longitude
,https://weedmaps.com/dispensaries/in/united-states/delaware/dover-de,"Dover, DE",,,,,,,https://weedmaps.com/dispensaries/in/united-states/delaware,Delaware,,,,United States,,,,,,,,,,
,https://weedmaps.com/dispensaries/in/united-states/delaware/lewes,Lewes,,,,,,,https://weedmaps.com/dispensaries/in/united-states/delaware,Delaware,,,,United States,,,,,,,,,,
,https://weedmaps.com/dispensaries/in/united-states/delaware/middletown,Middletown,,,,,,,https://weedmaps.com/dispensaries/in/united-states/delaware,Delaware,,,,United States,,,,,,,,,,
,https://weedmaps.com/dispensaries/in/united-states/delaware/newark-de,"Newark, DE",,,,,,,https://weedmaps.com/dispensaries/in/united-states/delaware,Delaware,,,,United States,,,,,,,,,,
,https://weedmaps.com/dispensaries/in/united-states/delaware/wilmington-de,"Wilmington, DE",,,,,,,https://weedmaps.com/dispensaries/in/united-states/delaware,Delaware,,,,United States,,,,,,,,,,
,,,,,,,,,https://weedmaps.com/dispensaries/in/united-states/alabama,Alabama,,,,United States,,,,,,,,,,
,https://weedmaps.com/dispensaries/in/united-states/connecticut/bridgeport,Bridgeport,,,,,,,https://weedmaps.com/dispensaries/in/united-states/connecticut,Connecticut,,,,United States,,,,,,,,,,
,https://weedmaps.com/dispensaries/in/united-states/connecticut/danbury,Danbury,,,,,,,https://weedmaps.com/dispensaries/in/united-states/connecticut,Connecticut,,,,United States,,,,,,,,,,
,https://weedmaps.com/dispensaries/in/united-states/connecticut/hartford,Hartford,,,,,,,https://weedmaps.com/dispensaries/in/united-states/connecticut,Connecticut,,,,United States,,,,,,,,,,
,https://weedmaps.com/dispensaries/in/united-states/connecticut/new-britain,New Britain,,,,,,,https://weedmaps.com/dispensaries/in/united-states/connecticut,Connecticut,,,,United States,,,,,,,,,,
,https://weedmaps.com/dispensaries/in/united-states/connecticut/new-haven,New Haven,,,,,,,https://weedmaps.com/dispensaries/in/united-states/connecticut,Connecticut,,,,United States,,,,,,,,,,
,https://weedmaps.com/dispensaries/in/united-states/connecticut/new-london,New London,,,,,,,https://weedmaps.com/dispensaries/in/united-states/connecticut,Connecticut,,,,United States,,,,,,,,,,
,https://weedmaps.com/dispensaries/in/united-states/connecticut/norwalk,Norwalk,,,,,,,https://weedmaps.com/dispensaries/in/united-states/connecticut,Connecticut,,,,United States,,,,,,,,,,
,https://weedmaps.com/dispensaries/in/united-states/connecticut/stamford,Stamford,,,,,,,https://weedmaps.com/dispensaries/in/united-states/connecticut,Connecticut,,,,United States,,,,,,,,,,
,https://weedmaps.com/dispensaries/in/united-states/connecticut/waterbury,Waterbury,,,,,,,https://weedmaps.com/dispensaries/in/united-states/connecticut,Connecticut,,,,United States,,,,,,,,,,
,https://weedmaps.com/dispensaries/in/united-states/arkansas/conway,Conway,,,,,,,https://weedmaps.com/dispensaries/in/united-states/arkansas,Arkansas,,,,United States,,,,,,,,,,
,https://weedmaps.com/dispensaries/in/united-states/arkansas/el-dorado,El Dorado,,,,,,,https://weedmaps.com/dispensaries/in/united-states/arkansas,Arkansas,,,,United States,,,,,,,,,,
,https://weedmaps.com/dispensaries/in/united-states/arkansas/fayetteville,Fayetteville,,,,,,,https://weedmaps.com/dispensaries/in/united-states/arkansas,Arkansas,,,,United States,,,,,,,,,,
,https://weedmaps.com/dispensaries/in/united-states/arkansas/fort-smith,Fort Smith,,,,,,,https://weedmaps.com/dispensaries/in/united-states/arkansas,Arkansas,,,,United States,,,,,,,,,,
,https://weedmaps.com/dispensaries/in/united-states/arkansas/hot-springs-ar,"Hot Springs, AR",,,,,,,https://weedmaps.com/dispensaries/in/united-states/arkansas,Arkansas,,,,United States,,,,,,,,,,
,https://weedmaps.com/dispensaries/in/united-states/arkansas/jonesboro,Jonesboro,,,,,,,https://weedmaps.com/dispensaries/in/united-states/arkansas,Arkansas,,,,United States,,,,,,,,,,
,https://weedmaps.com/dispensaries/in/united-states/arkansas/little-rock,Little Rock,,,,,,,https://weedmaps.com/dispensaries/in/united-states/arkansas,Arkansas,,,,United States,,,,,,,,,,
,https://weedmaps.com/dispensaries/in/united-states/arkansas/north-little-rock,North Little Rock,,,,,,,https://weedmaps.com/dispensaries/in/united-states/arkansas,Arkansas,,,,United States,,,,,,,,,,
,https://weedmaps.com/dispensaries/in/united-states/arkansas/pine-bluff,Pine Bluff,,,,,,,https://weedmaps.com/dispensaries/in/united-states/arkansas,Arkansas,,,,United States,,,,,,,,,,
,https://weedmaps.com/dispensaries/in/united-states/arkansas/texarkana,Texarkana,,,,,,,https://weedmaps.com/dispensaries/in/united-states/arkansas,Arkansas,,,,United States,,,,,,,,,,
,https://weedmaps.com/dispensaries/in/united-states/arkansas/west-memphis,West Memphis,,,,,,,https://weedmaps.com/dispensaries/in/united-states/arkansas,Arkansas,,,,United States,,,,,,,,,,
,https://weedmaps.com/dispensaries/in/united-states/arizona/apache-county,Apache County,,,,,,,https://weedmaps.com/dispensaries/in/united-states/arizona,Arizona,,,,United States,,,,,,,,,,
,https://weedmaps.com/dispensaries/in/united-states/arizona/casa-grande-maricopa,Casa Grande / Maricopa,,,,,,,https://weedmaps.com/dispensaries/in/united-states/arizona,Arizona,,,,United States,,,,,,,,,,
,https://weedmaps.com/dispensaries/in/united-states/arizona/cave-creek,Cave Creek,,,,,,,https://weedmaps.com/dispensaries/in/united-states/arizona,Arizona,,,,United States,,,,,,,,,,
,https://weedmaps.com/dispensaries/in/united-states/arizona/cochise-county,Cochise County,,,,,,,https://weedmaps.com/dispensaries/in/united-states/arizona,Arizona,,,,United States,,,,,,,,,,
,https://weedmaps.com/dispensaries/in/united-states/arizona/flagstaff,Flagstaff,,,,,,,https://weedmaps.com/dispensaries/in/united-states/arizona,Arizona,,,,United States,,,,,,,,,,
,https://weedmaps.com/dispensaries/in/united-states/arizona/gilbert-chandler-mesa,Gilbert / Chandler / Mesa,,,,,,,https://weedmaps.com/dispensaries/in/united-states/arizona,Arizona,,,,United States,,,,,,,,,,
,https://weedmaps.com/dispensaries/in/united-states/arizona/glendale-peoria,Glendale / Peoria,,,,,,,https://weedmaps.com/dispensaries/in/united-states/arizona,Arizona,,,,United States,,,,,,,,,,
,https://weedmaps.com/dispensaries/in/united-states/arizona/globe,Globe,,,,,,,https://weedmaps.com/dispensaries/in/united-states/arizona,Arizona,,,,United States,,,,,,,,,,
,https://weedmaps.com/dispensaries/in/united-states/arizona/lake-havasu-kingman-bullhead-city,Kingman,,,,,,,https://weedmaps.com/dispensaries/in/united-states/arizona,Arizona,,,,United States,,,,,,,,,,
,https://weedmaps.com/dispensaries/in/united-states/arizona/lake-havasu-parker,Lake Havasu / Parker,,,,,,,https://weedmaps.com/dispensaries/in/united-states/arizona,Arizona,,,,United States,,,,,,,,,,
,https://weedmaps.com/dispensaries/in/united-states/arizona/laughlin-bullhead-city,Laughlin / Bullhead City,,,,,,,https://weedmaps.com/dispensaries/in/united-states/arizona,Arizona,,,,United States,,,,,,,,,,
,https://weedmaps.com/dispensaries/in/united-states/arizona/navajo-county,Navajo County,,,,,,,https://weedmaps.com/dispensaries/in/united-states/arizona,Arizona,,,,United States,,,,,,,,,,
,https://weedmaps.com/dispensaries/in/united-states/arizona/nogales-rio-rico,Nogales / Rio Rico,,,,,,,https://weedmaps.com/dispensaries/in/united-states/arizona,Arizona,,,,United States,,,,,,,,,,
,https://weedmaps.com/dispensaries/in/united-states/arizona/north-phoenix,North Phoenix,,,,,,,https://weedmaps.com/dispensaries/in/united-states/arizona,Arizona,,,,United States,,,,,,,,,,
,https://weedmaps.com/dispensaries/in/united-states/arizona/page,Page,,,,,,,https://weedmaps.com/dispensaries/in/united-states/arizona,Arizona,,,,United States,,,,,,,,,,
,https://weedmaps.com/dispensaries/in/united-states/arizona/payson,Payson,,,,,,,https://weedmaps.com/dispensaries/in/united-states/arizona,Arizona,,,,United States,,,,,,,,,,
,https://weedmaps.com/dispensaries/in/united-states/arizona/west-phoenix,Phoenix,,,,,,,https://weedmaps.com/dispensaries/in/united-states/arizona,Arizona,,,,United States,,,,,,,,,,
,https://weedmaps.com/dispensaries/in/united-states/arizona/prescott,Prescott,,,,,,,https://weedmaps.com/dispensaries/in/united-states/arizona,Arizona,,,,United States,,,,,,,,,,
,https://weedmaps.com/dispensaries/in/united-states/arizona/safford-clifton,Safford / Clifton,,,,,,,https://weedmaps.com/dispensaries/in/united-states/arizona,Arizona,,,,United States,,,,,,,,,,
,https://weedmaps.com/dispensaries/in/united-states/arizona/east-phoenix,Tempe / Scottsdale,,,,,,,https://weedmaps.com/dispensaries/in/united-states/arizona,Arizona,,,,United States,,,,,,,,,,
,https://weedmaps.com/dispensaries/in/united-states/arizona/tucson,Tucson,,,,,,,https://weedmaps.com/dispensaries/in/united-states/arizona,Arizona,,,,United States,,,,,,,,,,
,https://weedmaps.com/dispensaries/in/united-states/arizona/wickenburg,Wickenburg,,,,,,,https://weedmaps.com/dispensaries/in/united-states/arizona,Arizona,,,,United States,,,,,,,,,,
,https://weedmaps.com/dispensaries/in/united-states/arizona/yuma--2,Yuma,,,,,,,https://weedmaps.com/dispensaries/in/united-states/arizona,Arizona,,,,United States,,,,,,,,,,
,https://weedmaps.com/dispensaries/in/united-states/alaska/anchorage,Anchorage,,,,,,,https://weedmaps.com/dispensaries/in/united-states/alaska,Alaska,,,,United States,,,,,,,,,,
,https://weedmaps.com/dispensaries/in/united-states/alaska/denali,Denali,,,,,,,https://weedmaps.com/dispensaries/in/united-states/alaska,Alaska,,,,United States,,,,,,,,,,
,https://weedmaps.com/dispensaries/in/united-states/alaska/fairbanks,Fairbanks,,,,,,,https://weedmaps.com/dispensaries/in/united-states/alaska,Alaska,,,,United States,,,,,,,,,,
,https://weedmaps.com/dispensaries/in/united-states/alaska/girdwood,Girdwood,,,,,,,https://weedmaps.com/dispensaries/in/united-states/alaska,Alaska,,,,United States,,,,,,,,,,
,https://weedmaps.com/dispensaries/in/united-states/alaska/juneau,Juneau,,,,,,,https://weedmaps.com/dispensaries/in/united-states/alaska,Alaska,,,,United States,,,,,,,,,,
,https://weedmaps.com/dispensaries/in/united-states/alaska/kenai,Kenai,,,,,,,https://weedmaps.com/dispensaries/in/united-states/alaska,Alaska,,,,United States,,,,,,,,,,
,https://weedmaps.com/dispensaries/in/united-states/alaska/ketchikan,Ketchikan,,,,,,,https://weedmaps.com/dispensaries/in/united-states/alaska,Alaska,,,,United States,,,,,,,,,,
,https://weedmaps.com/dispensaries/in/united-states/alaska/mat-su-valley,Mat-Su Valley,,,,,,,https://weedmaps.com/dispensaries/in/united-states/alaska,Alaska,,,,United States,,,,,,,,,,
,https://weedmaps.com/dispensaries/in/united-states/alaska/gnome,Nome,,,,,,,https://weedmaps.com/dispensaries/in/united-states/alaska,Alaska,,,,United States,,,,,,,,,,
,https://weedmaps.com/dispensaries/in/united-states/alaska/petersburg,Petersburg,,,,,,,https://weedmaps.com/dispensaries/in/united-states/alaska,Alaska,,,,United States,,,,,,,,,,
,https://weedmaps.com/dispensaries/in/united-states/alaska/sitka,Sitka,,,,,,,https://weedmaps.com/dispensaries/in/united-states/alaska,Alaska,,,,United States,,,,,,,,,,
,https://weedmaps.com/dispensaries/in/united-states/georgia/athens,"Athens, GA",,,,,,,https://weedmaps.com/dispensaries/in/united-states/georgia,Georgia,,,,United States,,,,,,,,,,
,https://weedmaps.com/dispensaries/in/united-states/georgia/atlanta-georgia,"Atlanta, GA",,,,,,,https://weedmaps.com/dispensaries/in/united-states/georgia,Georgia,,,,United States,,,,,,,,,,
,https://weedmaps.com/dispensaries/in/united-states/alaska/skagway,Skagway,,,,,,,https://weedmaps.com/dispensaries/in/united-states/alaska,Alaska,,,,United States,,,,,,,,,,
,https://weedmaps.com/dispensaries/in/united-states/alaska/valdez,Valdez,,,,,,,https://weedmaps.com/dispensaries/in/united-states/alaska,Alaska,,,,United States,,,,,,,,,,
,https://weedmaps.com/dispensaries/in/united-states/california/5-cities,5 Cities,,,,,,,https://weedmaps.com/dispensaries/in/united-states/california,California,,,,United States,,,,,,,,,,
,https://weedmaps.com/dispensaries/in/united-states/california/san-gabriel-valley,Alhambra / Rosemead / El Monte,,,,,,,https://weedmaps.com/dispensaries/in/united-states/california,California,,,,United States,,,,,,,,,,
,https://weedmaps.com/dispensaries/in/united-states/california/aliso-viejolaguna-beach,Aliso Viejo / Laguna Niguel,,,,,,,https://weedmaps.com/dispensaries/in/united-states/california,California,,,,United States,,,,,,,,,,
,https://weedmaps.com/dispensaries/in/united-states/california/amador-county,Amador County,,,,,,,https://weedmaps.com/dispensaries/in/united-states/california,California,,,,United States,,,,,,,,,,
,https://weedmaps.com/dispensaries/in/united-states/california/anaheim,Anaheim,,,,,,,https://weedmaps.com/dispensaries/in/united-states/california,California,,,,United States,,,,,,,,,,
,https://weedmaps.com/dispensaries/in/united-states/california/anaheim-hills-orange,Anaheim Hills / Orange,,,,,,,https://weedmaps.com/dispensaries/in/united-states/california,California,,,,United States,,,,,,,,,,
,https://weedmaps.com/dispensaries/in/united-states/california/antelope-valley,Antelope Valley,,,,,,,https://weedmaps.com/dispensaries/in/united-states/california,California,,,,United States,,,,,,,,,,
,https://weedmaps.com/dispensaries/in/united-states/california/antioch,Antioch,,,,,,,https://weedmaps.com/dispensaries/in/united-states/california,California,,,,United States,,,,,,,,,,
,https://weedmaps.com/dispensaries/in/united-states/california/anza,Anza / Idyllwild / Aguanga,,,,,,,https://weedmaps.com/dispensaries/in/united-states/california,California,,,,United States,,,,,,,,,,
,https://weedmaps.com/dispensaries/in/united-states/california/apple-valley,Apple Valley,,,,,,,https://weedmaps.com/dispensaries/in/united-states/california,California,,,,United States,,,,,,,,,,
,https://weedmaps.com/dispensaries/in/united-states/california/arcadia-monrovia,Arcadia / Monrovia,,,,,,,https://weedmaps.com/dispensaries/in/united-states/california,California,,,,United States,,,,,,,,,,
,https://weedmaps.com/dispensaries/in/united-states/california/arden-arcade-carmichael,Arden-Arcade / Carmichael,,,,,,,https://weedmaps.com/dispensaries/in/united-states/california,California,,,,United States,,,,,,,,,,
,https://weedmaps.com/dispensaries/in/united-states/california/arnold,Arnold,,,,,,,https://weedmaps.com/dispensaries/in/united-states/california,California,,,,United States,,,,,,,,,,
,https://weedmaps.com/dispensaries/in/united-states/california/auburn-grass-valley,Auburn / Grass Valley,,,,,,,https://weedmaps.com/dispensaries/in/united-states/california,California,,,,United States,,,,,,,,,,
,https://weedmaps.com/dispensaries/in/united-states/california/azusa-glendora,Azusa / Glendora,,,,,,,https://weedmaps.com/dispensaries/in/united-states/california,California,,,,United States,,,,,,,,,,
,https://weedmaps.com/dispensaries/in/united-states/california/bakersfield,Bakersfield,,,,,,,https://weedmaps.com/dispensaries/in/united-states/california,California,,,,United States,,,,,,,,,,
,https://weedmaps.com/dispensaries/in/united-states/california/barstowneedles,Barstow,,,,,,,https://weedmaps.com/dispensaries/in/united-states/california,California,,,,United States,,,,,,,,,,
,https://weedmaps.com/dispensaries/in/united-states/california/beach-cities-brands,Beach Cities Brands,,,,,,,https://weedmaps.com/dispensaries/in/united-states/california,California,,,,United States,,,,,,,,,,
,https://weedmaps.com/dispensaries/in/united-states/california/beaumont-banning,Beaumont / Banning,,,,,,,https://weedmaps.com/dispensaries/in/united-states/california,California,,,,United States,,,,,,,,,,
,https://weedmaps.com/dispensaries/in/united-states/california/berkeley,Berkeley,,,,,,,https://weedmaps.com/dispensaries/in/united-states/california,California,,,,United States,,,,,,,,,,
,https://weedmaps.com/dispensaries/in/united-states/california/big-bear-mtn-resorts,Big Bear Lake,,,,,,,https://weedmaps.com/dispensaries/in/united-states/california,California,,,,United States,,,,,,,,,,
,https://weedmaps.com/dispensaries/in/united-states/california/bloomington-rialto-colton,Bloomington / Rialto / Colton,,,,,,,https://weedmaps.com/dispensaries/in/united-states/california,California,,,,United States,,,,,,,,,,
,https://weedmaps.com/dispensaries/in/united-states/california/la-habra,Brea / La Habra,,,,,,,https://weedmaps.com/dispensaries/in/united-states/california,California,,,,United States,,,,,,,,,,
,https://weedmaps.com/dispensaries/in/united-states/california/burbank,Burbank,,,,,,,https://weedmaps.com/dispensaries/in/united-states/california,California,,,,United States,,,,,,,,,,
,https://weedmaps.com/dispensaries/in/united-states/california/calaveras-county,Calaveras County,,,,,,,https://weedmaps.com/dispensaries/in/united-states/california,California,,,,United States,,,,,,,,,,
,https://weedmaps.com/dispensaries/in/united-states/california/san-jose-southcampbell,Campbell / Cupertino,,,,,,,https://weedmaps.com/dispensaries/in/united-states/california,California,,,,United States,,,,,,,,,,
,https://weedmaps.com/dispensaries/in/united-states/california/carlsbad,Carlsbad,,,,,,,https://weedmaps.com/dispensaries/in/united-states/california,California,,,,United States,,,,,,,,,,
,https://weedmaps.com/dispensaries/in/united-states/california/carpinteria,Carpinteria,,,,,,,https://weedmaps.com/dispensaries/in/united-states/california,California,,,,United States,,,,,,,,,,
,https://weedmaps.com/dispensaries/in/united-states/california/catalina-island,Catalina Island,,,,,,,https://weedmaps.com/dispensaries/in/united-states/california,California,,,,United States,,,,,,,,,,
,https://weedmaps.com/dispensaries/in/united-states/california/central-california-brands,Central California Brands,,,,,,,https://weedmaps.com/dispensaries/in/united-states/california,California,,,,United States,,,,,,,,,,
,https://weedmaps.com/dispensaries/in/united-states/california/central-la,Central LA,,,,,,,https://weedmaps.com/dispensaries/in/united-states/california,California,,,,United States,,,,,,,,,,
,https://weedmaps.com/dispensaries/in/united-states/california/cerritos,Cerritos,,,,,,,https://weedmaps.com/dispensaries/in/united-states/california,California,,,,United States,,,,,,,,,,
,https://weedmaps.com/dispensaries/in/united-states/california/chico,Chico,,,,,,,https://weedmaps.com/dispensaries/in/united-states/california,California,,,,United States,,,,,,,,,,
,https://weedmaps.com/dispensaries/in/united-states/california/chino,Chino,,,,,,,https://weedmaps.com/dispensaries/in/united-states/california,California,,,,United States,,,,,,,,,,
,https://weedmaps.com/dispensaries/in/united-states/california/south-bay-sd,Chula Vista / National City,,,,,,,https://weedmaps.com/dispensaries/in/united-states/california,California,,,,United States,,,,,,,,,,
,https://weedmaps.com/dispensaries/in/united-states/california/citrus-heights-orangevale,Citrus Heights / Orangevale,,,,,,,https://weedmaps.com/dispensaries/in/united-states/california,California,,,,United States,,,,,,,,,,
,https://weedmaps.com/dispensaries/in/united-states/california/mesa,Clairemont Kearny,,,,,,,https://weedmaps.com/dispensaries/in/united-states/california,California,,,,United States,,,,,,,,,,
,https://weedmaps.com/dispensaries/in/united-states/california/clearlake,Clearlake,,,,,,,https://weedmaps.com/dispensaries/in/united-states/california,California,,,,United States,,,,,,,,,,
,https://weedmaps.com/dispensaries/in/united-states/california/clovis,Clovis,,,,,,,https://weedmaps.com/dispensaries/in/united-states/california,California,,,,United States,,,,,,,,,,
,https://weedmaps.com/dispensaries/in/united-states/california/compton,Compton / Bellflower,,,,,,,https://weedmaps.com/dispensaries/in/united-states/california,California,,,,United States,,,,,,,,,,
,https://weedmaps.com/dispensaries/in/united-states/california/coronanorco,Corona / Norco,,,,,,,https://weedmaps.com/dispensaries/in/united-states/california,California,,,,United States,,,,,,,,,,
,https://weedmaps.com/dispensaries/in/united-states/california/beach-cities,Costa Mesa,,,,,,,https://weedmaps.com/dispensaries/in/united-states/california,California,,,,United States,,,,,,,,,,
,https://weedmaps.com/dispensaries/in/united-states/california/covina,Covina,,,,,,,https://weedmaps.com/dispensaries/in/united-states/california,California,,,,United States,,,,,,,,,,
,https://weedmaps.com/dispensaries/in/united-states/california/crescent-city,Crescent City,,,,,,,https://weedmaps.com/dispensaries/in/united-states/california,California,,,,United States,,,,,,,,,,
,https://weedmaps.com/dispensaries/in/united-states/california/culver-city,Culver City,,,,,,,https://weedmaps.com/dispensaries/in/united-states/california,California,,,,United States,,,,,,,,,,
,https://weedmaps.com/dispensaries/in/united-states/california/dana-point,Dana Point,,,,,,,https://weedmaps.com/dispensaries/in/united-states/california,California,,,,United States,,,,,,,,,,
,https://weedmaps.com/dispensaries/in/united-states/california/danville-san-ramon,Danville / San Ramon,,,,,,,https://weedmaps.com/dispensaries/in/united-states/california,California,,,,United States,,,,,,,,,,
,https://weedmaps.com/dispensaries/in/united-states/florida/boca-raton,Boca Raton,,,,,,,https://weedmaps.com/dispensaries/in/united-states/florida,Florida,,,,United States,,,,,,,,,,
,https://weedmaps.com/dispensaries/in/united-states/california/davis,Davis,,,,,,,https://weedmaps.com/dispensaries/in/united-states/california,California,,,,United States,,,,,,,,,,
,https://weedmaps.com/dispensaries/in/united-states/california/del-mar,Del Mar,,,,,,,https://weedmaps.com/dispensaries/in/united-states/california,California,,,,United States,,,,,,,,,,
,https://weedmaps.com/dispensaries/in/united-states/california/downtown-la,Downtown LA,,,,,,,https://weedmaps.com/dispensaries/in/united-states/california,California,,,,United States,,,,,,,,,,
,https://weedmaps.com/dispensaries/in/united-states/california/central-coast-brands/san-fernando-valley--2/san-fernando-valley-brands/los-angeles/downtown-la-brands,Downtown LA Brands,,,,,,,https://weedmaps.com/dispensaries/in/united-states/california,California,,,,United States,,,,,,,,,,
,https://weedmaps.com/dispensaries/in/united-states/california/downtown-long-beach,Downtown Long Beach,,,,,,,https://weedmaps.com/dispensaries/in/united-states/california,California,,,,United States,,,,,,,,,,
,https://weedmaps.com/dispensaries/in/united-states/california/dublin-pleasanton,Dublin / Pleasanton,,,,,,,https://weedmaps.com/dispensaries/in/united-states/california,California,,,,United States,,,,,,,,,,
,https://weedmaps.com/dispensaries/in/united-states/california/east-bay,East Bay,,,,,,,https://weedmaps.com/dispensaries/in/united-states/california,California,,,,United States,,,,,,,,,,
,https://weedmaps.com/dispensaries/in/united-states/california/east-la,East LA,,,,,,,https://weedmaps.com/dispensaries/in/united-states/california,California,,,,United States,,,,,,,,,,
,https://weedmaps.com/dispensaries/in/united-states/california/el-cajon,El Cajon,,,,,,,https://weedmaps.com/dispensaries/in/united-states/california,California,,,,United States,,,,,,,,,,
,https://weedmaps.com/dispensaries/in/united-states/california/imperial-county,El Centro,,,,,,,https://weedmaps.com/dispensaries/in/united-states/california,California,,,,United States,,,,,,,,,,
,https://weedmaps.com/dispensaries/in/united-states/california/elk-grove,Elk Grove,,,,,,,https://weedmaps.com/dispensaries/in/united-states/california,California,,,,United States,,,,,,,,,,
,https://weedmaps.com/dispensaries/in/united-states/florida/daytona-beach,Daytona Beach,,,,,,,https://weedmaps.com/dispensaries/in/united-states/florida,Florida,,,,United States,,,,,,,,,,
,https://weedmaps.com/dispensaries/in/united-states/florida/fort-lauderdale,Fort Lauderdale,,,,,,,https://weedmaps.com/dispensaries/in/united-states/florida,Florida,,,,United States,,,,,,,,,,
,https://weedmaps.com/dispensaries/in/united-states/florida/fort-myers,Fort Myers,,,,,,,https://weedmaps.com/dispensaries/in/united-states/florida,Florida,,,,United States,,,,,,,,,,
,https://weedmaps.com/dispensaries/in/united-states/florida/fort-walton-beach,Fort Walton Beach,,,,,,,https://weedmaps.com/dispensaries/in/united-states/florida,Florida,,,,United States,,,,,,,,,,
,https://weedmaps.com/dispensaries/in/united-states/florida/gainesville,Gainesville,,,,,,,https://weedmaps.com/dispensaries/in/united-states/florida,Florida,,,,United States,,,,,,,,,,
,https://weedmaps.com/dispensaries/in/united-states/florida/jacksonville,Jacksonville,,,,,,,https://weedmaps.com/dispensaries/in/united-states/florida,Florida,,,,United States,,,,,,,,,,
,https://weedmaps.com/dispensaries/in/united-states/florida/key-largo-florida,Key Largo,,,,,,,https://weedmaps.com/dispensaries/in/united-states/florida,Florida,,,,United States,,,,,,,,,,
,https://weedmaps.com/dispensaries/in/united-states/florida/key-west,Key West,,,,,,,https://weedmaps.com/dispensaries/in/united-states/florida,Florida,,,,United States,,,,,,,,,,
,https://weedmaps.com/dispensaries/in/united-states/florida/lakeland,Lakeland,,,,,,,https://weedmaps.com/dispensaries/in/united-states/florida,Florida,,,,United States,,,,,,,,,,
,https://weedmaps.com/dispensaries/in/united-states/florida/miami,Miami,,,,,,,https://weedmaps.com/dispensaries/in/united-states/florida,Florida,,,,United States,,,,,,,,,,
,https://weedmaps.com/dispensaries/in/united-states/florida/new-port-richey,New Port Richey,,,,,,,https://weedmaps.com/dispensaries/in/united-states/florida,Florida,,,,United States,,,,,,,,,,
,https://weedmaps.com/dispensaries/in/united-states/florida/ocala,Ocala,,,,,,,https://weedmaps.com/dispensaries/in/united-states/florida,Florida,,,,United States,,,,,,,,,,
,https://weedmaps.com/dispensaries/in/united-states/california/north-san-diego,Encinitas,,,,,,,https://weedmaps.com/dispensaries/in/united-states/california,California,,,,United States,,,,,,,,,,
,https://weedmaps.com/dispensaries/in/united-states/california/encino--2,Encino,,,,,,,https://weedmaps.com/dispensaries/in/united-states/california,California,,,,United States,,,,,,,,,,
,https://weedmaps.com/dispensaries/in/united-states/california/eureka,Eureka,,,,,,,https://weedmaps.com/dispensaries/in/united-states/california,California,,,,United States,,,,,,,,,,
,https://weedmaps.com/dispensaries/in/united-states/california/fairfield,Fairfield,,,,,,,https://weedmaps.com/dispensaries/in/united-states/california,California,,,,United States,,,,,,,,,,
,https://weedmaps.com/dispensaries/in/united-states/florida/orlando,Orlando,,,,,,,https://weedmaps.com/dispensaries/in/united-states/florida,Florida,,,,United States,,,,,,,,,,
,https://weedmaps.com/dispensaries/in/united-states/florida/palm-bay,Palm Bay,,,,,,,https://weedmaps.com/dispensaries/in/united-states/florida,Florida,,,,United States,,,,,,,,,,
,https://weedmaps.com/dispensaries/in/united-states/florida/panama-city,Panama City,,,,,,,https://weedmaps.com/dispensaries/in/united-states/florida,Florida,,,,United States,,,,,,,,,,
,https://weedmaps.com/dispensaries/in/united-states/florida/pensacola,Pensacola,,,,,,,https://weedmaps.com/dispensaries/in/united-states/florida,Florida,,,,United States,,,,,,,,,,
,https://weedmaps.com/dispensaries/in/united-states/florida/port-charlotte,Port Charlotte,,,,,,,https://weedmaps.com/dispensaries/in/united-states/florida,Florida,,,,United States,,,,,,,,,,
,https://weedmaps.com/dispensaries/in/united-states/florida/port-st-lucie,Port St. Lucie,,,,,,,https://weedmaps.com/dispensaries/in/united-states/florida,Florida,,,,United States,,,,,,,,,,
,https://weedmaps.com/dispensaries/in/united-states/florida/sarasota,Sarasota,,,,,,,https://weedmaps.com/dispensaries/in/united-states/florida,Florida,,,,United States,,,,,,,,,,
,https://weedmaps.com/dispensaries/in/united-states/florida/st-augustine,St. Augustine,,,,,,,https://weedmaps.com/dispensaries/in/united-states/florida,Florida,,,,United States,,,,,,,,,,
,https://weedmaps.com/dispensaries/in/united-states/california/fallbrook,Fallbrook,,,,,,,https://weedmaps.com/dispensaries/in/united-states/california,California,,,,United States,,,,,,,,,,
,https://weedmaps.com/dispensaries/in/united-states/california/fontana,Fontana,,,,,,,https://weedmaps.com/dispensaries/in/united-states/california,California,,,,United States,,,,,,,,,,
,https://weedmaps.com/dispensaries/in/united-states/california/fort-bragg,Fort Bragg,,,,,,,https://weedmaps.com/dispensaries/in/united-states/california,California,,,,United States,,,,,,,,,,
,https://weedmaps.com/dispensaries/in/united-states/california/frazier-park,Frazier Park,,,,,,,https://weedmaps.com/dispensaries/in/united-states/california,California,,,,United States,,,,,,,,,,
,https://weedmaps.com/dispensaries/in/united-states/california/fremont-milpitas-union-city,Fremont / Milpitas / Union City,,,,,,,https://weedmaps.com/dispensaries/in/united-states/california,California,,,,United States,,,,,,,,,,
,https://weedmaps.com/dispensaries/in/united-states/california/fresno,Fresno,,,,,,,https://weedmaps.com/dispensaries/in/united-states/california,California,,,,United States,,,,,,,,,,
,https://weedmaps.com/dispensaries/in/united-states/california/north-oc,Fullerton,,,,,,,https://weedmaps.com/dispensaries/in/united-states/california,California,,,,United States,,,,,,,,,,
,https://weedmaps.com/dispensaries/in/united-states/california/garden-grove,Garden Grove,,,,,,,https://weedmaps.com/dispensaries/in/united-states/california,California,,,,United States,,,,,,,,,,
,https://weedmaps.com/dispensaries/in/united-states/california/central-san-diego,Gaslamp District,,,,,,,https://weedmaps.com/dispensaries/in/united-states/california,California,,,,United States,,,,,,,,,,
,https://weedmaps.com/dispensaries/in/united-states/california/glendale--2,Glendale,,,,,,,https://weedmaps.com/dispensaries/in/united-states/california,California,,,,United States,,,,,,,,,,
,https://weedmaps.com/dispensaries/in/united-states/california/goleta-isla-vista,Goleta / Isla Vista,,,,,,,https://weedmaps.com/dispensaries/in/united-states/california,California,,,,United States,,,,,,,,,,
,https://weedmaps.com/dispensaries/in/united-states/florida/st-petersburg,St. Petersburg,,,,,,,https://weedmaps.com/dispensaries/in/united-states/florida,Florida,,,,United States,,,,,,,,,,
,https://weedmaps.com/dispensaries/in/united-states/florida/tallahassee,Tallahassee,,,,,,,https://weedmaps.com/dispensaries/in/united-states/florida,Florida,,,,United States,,,,,,,,,,
,https://weedmaps.com/dispensaries/in/united-states/florida/tampa,Tampa,,,,,,,https://weedmaps.com/dispensaries/in/united-states/florida,Florida,,,,United States,,,,,,,,,,
,https://weedmaps.com/dispensaries/in/united-states/florida/the-villages,The Villages,,,,,,,https://weedmaps.com/dispensaries/in/united-states/florida,Florida,,,,United States,,,,,,,,,,
,https://weedmaps.com/dispensaries/in/united-states/california/granite-bay-folsom,Granite Bay / Folsom,,,,,,,https://weedmaps.com/dispensaries/in/united-states/california,California,,,,United States,,,,,,,,,,
,https://weedmaps.com/dispensaries/in/united-states/california/harbor-city-wilmington,Harbor City / Wilmington,,,,,,,https://weedmaps.com/dispensaries/in/united-states/california,California,,,,United States,,,,,,,,,,
,https://weedmaps.com/dispensaries/in/united-states/california/alameda-county-haywardtri-valley,Hayward / Castro Valley,,,,,,,https://weedmaps.com/dispensaries/in/united-states/california,California,,,,United States,,,,,,,,,,
,https://weedmaps.com/dispensaries/in/united-states/california/helendale,Helendale,,,,,,,https://weedmaps.com/dispensaries/in/united-states/california,California,,,,United States,,,,,,,,,,
,https://weedmaps.com/dispensaries/in/united-states/california/hemet,Hemet,,,,,,,https://weedmaps.com/dispensaries/in/united-states/california,California,,,,United States,,,,,,,,,,
,https://weedmaps.com/dispensaries/in/united-states/california/high-desert,Hesperia,,,,,,,https://weedmaps.com/dispensaries/in/united-states/california,California,,,,United States,,,,,,,,,,
,https://weedmaps.com/dispensaries/in/united-states/california/hollywood,Hollywood,,,,,,,https://weedmaps.com/dispensaries/in/united-states/california,California,,,,United States,,,,,,,,,,
,https://weedmaps.com/dispensaries/in/united-states/california/central-coast-brands/san-fernando-valley--2/hollywood-brands,Hollywood Brands,,,,,,,https://weedmaps.com/dispensaries/in/united-states/california,California,,,,United States,,,,,,,,,,
,https://weedmaps.com/dispensaries/in/united-states/california/huntington-beach,Huntington Beach,,,,,,,https://weedmaps.com/dispensaries/in/united-states/california,California,,,,United States,,,,,,,,,,
,https://weedmaps.com/dispensaries/in/united-states/california/imperial-beach-otay-mesa,Imperial Beach / Otay Mesa,,,,,,,https://weedmaps.com/dispensaries/in/united-states/california,California,,,,United States,,,,,,,,,,
,https://weedmaps.com/dispensaries/in/united-states/california/inglewood-hawthorne-crenshaw-leimert-park,Inglewood / Hawthorne / Crenshaw / Leimert Park,,,,,,,https://weedmaps.com/dispensaries/in/united-states/california,California,,,,United States,,,,,,,,,,
,https://weedmaps.com/dispensaries/in/united-states/florida/west-palm-beach,West Palm Beach,,,,,,,https://weedmaps.com/dispensaries/in/united-states/florida,Florida,,,,United States,,,,,,,,,,
,https://weedmaps.com/dispensaries/in/united-states/colorado/alamosa,Alamosa,,,,,,,https://weedmaps.com/dispensaries/in/united-states/colorado,Colorado,,,,United States,,,,,,,,,,
,https://weedmaps.com/dispensaries/in/united-states/california/lake-forest,Irvine,,,,,,,https://weedmaps.com/dispensaries/in/united-states/california,California,,,,United States,,,,,,,,,,
,https://weedmaps.com/dispensaries/in/united-states/california/mira-loma,Jurupa Valley,,,,,,,https://weedmaps.com/dispensaries/in/united-states/california,California,,,,United States,,,,,,,,,,
,https://weedmaps.com/dispensaries/in/united-states/california/korea-town-echo-park,Korea Town / Echo Park,,,,,,,https://weedmaps.com/dispensaries/in/united-states/california,California,,,,United States,,,,,,,,,,
,https://weedmaps.com/dispensaries/in/united-states/california/laguna-beach,Laguna Beach,,,,,,,https://weedmaps.com/dispensaries/in/united-states/california,California,,,,United States,,,,,,,,,,
,https://weedmaps.com/dispensaries/in/united-states/california/la-jolla,La Jolla,,,,,,,https://weedmaps.com/dispensaries/in/united-states/california,California,,,,United States,,,,,,,,,,
,https://weedmaps.com/dispensaries/in/united-states/california/lake-arrowhead,Lake Arrowhead,,,,,,,https://weedmaps.com/dispensaries/in/united-states/california,California,,,,United States,,,,,,,,,,
,https://weedmaps.com/dispensaries/in/united-states/california/lake-elsinore,Lake Elsinore,,,,,,,https://weedmaps.com/dispensaries/in/united-states/california,California,,,,United States,,,,,,,,,,
,https://weedmaps.com/dispensaries/in/united-states/california/south-oc,Lake Forest,,,,,,,https://weedmaps.com/dispensaries/in/united-states/california,California,,,,United States,,,,,,,,,,
,https://weedmaps.com/dispensaries/in/united-states/arizona/lake-havasu-parker,Lake Havasu / Parker,,,,,,,https://weedmaps.com/dispensaries/in/united-states/california,California,,,,United States,,,,,,,,,,
,https://weedmaps.com/dispensaries/in/united-states/california/lake-isabella,Lake Isabella / Ridgecrest,,,,,,,https://weedmaps.com/dispensaries/in/united-states/california,California,,,,United States,,,,,,,,,,
,https://weedmaps.com/dispensaries/in/united-states/colorado/antonito,Antonito,,,,,,,https://weedmaps.com/dispensaries/in/united-states/colorado,Colorado,,,,United States,,,,,,,,,,
,https://weedmaps.com/dispensaries/in/united-states/colorado/aspen-colorado,Aspen,,,,,,,https://weedmaps.com/dispensaries/in/united-states/colorado,Colorado,,,,United States,,,,,,,,,,
,https://weedmaps.com/dispensaries/in/united-states/colorado/aurora,"Aurora, CO",,,,,,,https://weedmaps.com/dispensaries/in/united-states/colorado,Colorado,,,,United States,,,,,,,,,,
,https://weedmaps.com/dispensaries/in/united-states/colorado/boulder,Boulder,,,,,,,https://weedmaps.com/dispensaries/in/united-states/colorado,Colorado,,,,United States,,,,,,,,,,
,https://weedmaps.com/dispensaries/in/united-states/colorado/canon-city,Ca√±on City,,,,,,,https://weedmaps.com/dispensaries/in/united-states/colorado,Colorado,,,,United States,,,,,,,,,,
,https://weedmaps.com/dispensaries/in/united-states/colorado/central-rockies,Central Rockies,,,,,,,https://weedmaps.com/dispensaries/in/united-states/colorado,Colorado,,,,United States,,,,,,,,,,
,https://weedmaps.com/dispensaries/in/united-states/colorado/colorado-springs,Colorado Springs,,,,,,,https://weedmaps.com/dispensaries/in/united-states/colorado,Colorado,,,,United States,,,,,,,,,,
,https://weedmaps.com/dispensaries/in/united-states/colorado/cortez,Cortez,,,,,,,https://weedmaps.com/dispensaries/in/united-states/colorado,Colorado,,,,United States,,,,,,,,,,
,https://weedmaps.com/dispensaries/in/united-states/colorado/denver-downtown,Denver Downtown,,,,,,,https://weedmaps.com/dispensaries/in/united-states/colorado,Colorado,,,,United States,,,,,,,,,,
,https://weedmaps.com/dispensaries/in/united-states/colorado/glendalewa-park-west,Denver East,,,,,,,https://weedmaps.com/dispensaries/in/united-states/colorado,Colorado,,,,United States,,,,,,,,,,
,https://weedmaps.com/dispensaries/in/united-states/colorado/denver-highlands,Denver Highlands,,,,,,,https://weedmaps.com/dispensaries/in/united-states/colorado,Colorado,,,,United States,,,,,,,,,,
,https://weedmaps.com/dispensaries/in/united-states/california/lake-tahoe,Lake Tahoe,,,,,,,https://weedmaps.com/dispensaries/in/united-states/california,California,,,,United States,,,,,,,,,,
,https://weedmaps.com/dispensaries/in/united-states/colorado/denver-international-airport,Denver International Airport,,,,,,,https://weedmaps.com/dispensaries/in/united-states/colorado,Colorado,,,,United States,,,,,,,,,,
,https://weedmaps.com/dispensaries/in/united-states/colorado/denver-north,Denver North,,,,,,,https://weedmaps.com/dispensaries/in/united-states/colorado,Colorado,,,,United States,,,,,,,,,,
,https://weedmaps.com/dispensaries/in/united-states/colorado/south-denver-dtc,Denver South,,,,,,,https://weedmaps.com/dispensaries/in/united-states/colorado,Colorado,,,,United States,,,,,,,,,,
,https://weedmaps.com/dispensaries/in/united-states/colorado/durango,Durango,,,,,,,https://weedmaps.com/dispensaries/in/united-states/colorado,Colorado,,,,United States,,,,,,,,,,
,https://weedmaps.com/dispensaries/in/united-states/colorado/vail,Eagle County / Vail Valley,,,,,,,https://weedmaps.com/dispensaries/in/united-states/colorado,Colorado,,,,United States,,,,,,,,,,
,https://weedmaps.com/dispensaries/in/united-states/colorado/eastern-slope,Eastern Slope,,,,,,,https://weedmaps.com/dispensaries/in/united-states/colorado,Colorado,,,,United States,,,,,,,,,,
,https://weedmaps.com/dispensaries/in/united-states/colorado/ft-collins,Fort Collins,,,,,,,https://weedmaps.com/dispensaries/in/united-states/colorado,Colorado,,,,United States,,,,,,,,,,
,https://weedmaps.com/dispensaries/in/united-states/colorado/fort-morgan-ne-colorado,Fort Morgan / NE Colorado,,,,,,,https://weedmaps.com/dispensaries/in/united-states/colorado,Colorado,,,,United States,,,,,,,,,,
,https://weedmaps.com/dispensaries/in/united-states/colorado/glenwood-springs,Glenwood Springs,,,,,,,https://weedmaps.com/dispensaries/in/united-states/colorado,Colorado,,,,United States,,,,,,,,,,
,https://weedmaps.com/dispensaries/in/united-states/colorado/greeley-loveland,Greeley / Loveland,,,,,,,https://weedmaps.com/dispensaries/in/united-states/colorado,Colorado,,,,United States,,,,,,,,,,
,https://weedmaps.com/dispensaries/in/united-states/colorado/lafayette-louisville,Lafayette / Louisville,,,,,,,https://weedmaps.com/dispensaries/in/united-states/colorado,Colorado,,,,United States,,,,,,,,,,
,https://weedmaps.com/dispensaries/in/united-states/colorado/south-denver,"Lakewood, CO",,,,,,,https://weedmaps.com/dispensaries/in/united-states/colorado,Colorado,,,,United States,,,,,,,,,,
,https://weedmaps.com/dispensaries/in/united-states/california/lakewood-california,"Lakewood, CA",,,,,,,https://weedmaps.com/dispensaries/in/united-states/california,California,,,,United States,,,,,,,,,,
,https://weedmaps.com/dispensaries/in/united-states/california/east-san-diego,La Mesa,,,,,,,https://weedmaps.com/dispensaries/in/united-states/california,California,,,,United States,,,,,,,,,,
,https://weedmaps.com/dispensaries/in/united-states/california/city-of-industry,La Puente,,,,,,,https://weedmaps.com/dispensaries/in/united-states/california,California,,,,United States,,,,,,,,,,
,https://weedmaps.com/dispensaries/in/united-states/california/lassen-county,Lassen County,,,,,,,https://weedmaps.com/dispensaries/in/united-states/california,California,,,,United States,,,,,,,,,,
,https://weedmaps.com/dispensaries/in/united-states/california/lax,LAX / Playa Del Rey / El Segundo,,,,,,,https://weedmaps.com/dispensaries/in/united-states/california,California,,,,United States,,,,,,,,,,
,https://weedmaps.com/dispensaries/in/united-states/california/laytonville,Laytonville,,,,,,,https://weedmaps.com/dispensaries/in/united-states/california,California,,,,United States,,,,,,,,,,
,https://weedmaps.com/dispensaries/in/united-states/california/south-east-san-diego,Lemon Grove / Spring Valley,,,,,,,https://weedmaps.com/dispensaries/in/united-states/california,California,,,,United States,,,,,,,,,,
,https://weedmaps.com/dispensaries/in/united-states/california/south-contra-costa,Livermore,,,,,,,https://weedmaps.com/dispensaries/in/united-states/california,California,,,,United States,,,,,,,,,,
,https://weedmaps.com/dispensaries/in/united-states/california/lompoc-solvang,Lompoc / Solvang,,,,,,,https://weedmaps.com/dispensaries/in/united-states/california,California,,,,United States,,,,,,,,,,
,https://weedmaps.com/dispensaries/in/united-states/california/madera,Madera,,,,,,,https://weedmaps.com/dispensaries/in/united-states/california,California,,,,United States,,,,,,,,,,
,https://weedmaps.com/dispensaries/in/united-states/california/malibu,Malibu / Pacific Palisades,,,,,,,https://weedmaps.com/dispensaries/in/united-states/california,California,,,,United States,,,,,,,,,,
,https://weedmaps.com/dispensaries/in/united-states/colorado/longmont,Lyons / Longmont,,,,,,,https://weedmaps.com/dispensaries/in/united-states/colorado,Colorado,,,,United States,,,,,,,,,,
,https://weedmaps.com/dispensaries/in/united-states/colorado/moffat,Moffat,,,,,,,https://weedmaps.com/dispensaries/in/united-states/colorado,Colorado,,,,United States,,,,,,,,,,
,https://weedmaps.com/dispensaries/in/united-states/colorado/montrose,Montrose,,,,,,,https://weedmaps.com/dispensaries/in/united-states/colorado,Colorado,,,,United States,,,,,,,,,,
,https://weedmaps.com/dispensaries/in/united-states/california/mammoth-lakes,Mammoth Lakes / Inyo County,,,,,,,https://weedmaps.com/dispensaries/in/united-states/california,California,,,,United States,,,,,,,,,,
,https://weedmaps.com/dispensaries/in/united-states/california/manteca,Manteca,,,,,,,https://weedmaps.com/dispensaries/in/united-states/california,California,,,,United States,,,,,,,,,,
,https://weedmaps.com/dispensaries/in/united-states/california/marin,Marin,,,,,,,https://weedmaps.com/dispensaries/in/united-states/california,California,,,,United States,,,,,,,,,,
,https://weedmaps.com/dispensaries/in/united-states/california/martinez,Martinez / Pleasant Hill,,,,,,,https://weedmaps.com/dispensaries/in/united-states/california,California,,,,United States,,,,,,,,,,
,https://weedmaps.com/dispensaries/in/united-states/california/mendocino,Mendocino,,,,,,,https://weedmaps.com/dispensaries/in/united-states/california,California,,,,United States,,,,,,,,,,
,https://weedmaps.com/dispensaries/in/united-states/california/menifee-winchester,Menifee / Winchester,,,,,,,https://weedmaps.com/dispensaries/in/united-states/california,California,,,,United States,,,,,,,,,,
,https://weedmaps.com/dispensaries/in/united-states/california/merced,Merced,,,,,,,https://weedmaps.com/dispensaries/in/united-states/california,California,,,,United States,,,,,,,,,,
,https://weedmaps.com/dispensaries/in/united-states/california/midtownculver-city,Mid Town,,,,,,,https://weedmaps.com/dispensaries/in/united-states/california,California,,,,United States,,,,,,,,,,
,https://weedmaps.com/dispensaries/in/united-states/california/central-san-diego-clubs,Mission Valley,,,,,,,https://weedmaps.com/dispensaries/in/united-states/california,California,,,,United States,,,,,,,,,,
,https://weedmaps.com/dispensaries/in/united-states/colorado/northglenn-thornton,Northglenn,,,,,,,https://weedmaps.com/dispensaries/in/united-states/colorado,Colorado,,,,United States,,,,,,,,,,
,https://weedmaps.com/dispensaries/in/united-states/colorado/north-west-colorado,North West Colorado,,,,,,,https://weedmaps.com/dispensaries/in/united-states/colorado,Colorado,,,,United States,,,,,,,,,,
,https://weedmaps.com/dispensaries/in/united-states/colorado/pagosa-springs,Pagosa Springs,,,,,,,https://weedmaps.com/dispensaries/in/united-states/colorado,Colorado,,,,United States,,,,,,,,,,
,https://weedmaps.com/dispensaries/in/united-states/colorado/pueblo,Pueblo,,,,,,,https://weedmaps.com/dispensaries/in/united-states/colorado,Colorado,,,,United States,,,,,,,,,,
,https://weedmaps.com/dispensaries/in/united-states/colorado/ridgway,Ridgway,,,,,,,https://weedmaps.com/dispensaries/in/united-states/colorado,Colorado,,,,United States,,,,,,,,,,
,https://weedmaps.com/dispensaries/in/united-states/colorado/rocky-ford,Rocky Ford,,,,,,,https://weedmaps.com/dispensaries/in/united-states/colorado,Colorado,,,,United States,,,,,,,,,,
,https://weedmaps.com/dispensaries/in/united-states/colorado/silverthorne,Silverthorne,,,,,,,https://weedmaps.com/dispensaries/in/united-states/colorado,Colorado,,,,United States,,,,,,,,,,
,https://weedmaps.com/dispensaries/in/united-states/colorado/summit-eagle-county,Summit County / Breckenridge,,,,,,,https://weedmaps.com/dispensaries/in/united-states/colorado,Colorado,,,,United States,,,,,,,,,,
,https://weedmaps.com/dispensaries/in/united-states/colorado/telluride,Telluride,,,,,,,https://weedmaps.com/dispensaries/in/united-states/colorado,Colorado,,,,United States,,,,,,,,,,
,https://weedmaps.com/dispensaries/in/united-states/colorado/trinidad,Trinidad,,,,,,,https://weedmaps.com/dispensaries/in/united-states/colorado,Colorado,,,,United States,,,,,,,,,,
,https://weedmaps.com/dispensaries/in/united-states/california/mission-viejo,Mission Viejo,,,,,,,https://weedmaps.com/dispensaries/in/united-states/california,California,,,,United States,,,,,,,,,,
,https://weedmaps.com/dispensaries/in/united-states/california/modesto,Modesto,,,,,,,https://weedmaps.com/dispensaries/in/united-states/california,California,,,,United States,,,,,,,,,,
,https://weedmaps.com/dispensaries/in/united-states/california/monterey-county,Monterey,,,,,,,https://weedmaps.com/dispensaries/in/united-states/california,California,,,,United States,,,,,,,,,,
,https://weedmaps.com/dispensaries/in/united-states/california/moreno-valley,Moreno Valley,,,,,,,https://weedmaps.com/dispensaries/in/united-states/california,California,,,,United States,,,,,,,,,,
,https://weedmaps.com/dispensaries/in/united-states/california/morgan-hill-gilroy-hollister,Morgan Hill / Gilroy / Hollister,,,,,,,https://weedmaps.com/dispensaries/in/united-states/california,California,,,,United States,,,,,,,,,,
,https://weedmaps.com/dispensaries/in/united-states/california/morro-bay-los-osos,Morro Bay / Los Osos,,,,,,,https://weedmaps.com/dispensaries/in/united-states/california,California,,,,United States,,,,,,,,,,
,https://weedmaps.com/dispensaries/in/united-states/california/palo-alto,Mountain View / Palo Alto,,,,,,,https://weedmaps.com/dispensaries/in/united-states/california,California,,,,United States,,,,,,,,,,
,https://weedmaps.com/dispensaries/in/united-states/california/mt-shasta,Mt Shasta,,,,,,,https://weedmaps.com/dispensaries/in/united-states/california,California,,,,United States,,,,,,,,,,
,https://weedmaps.com/dispensaries/in/united-states/california/murrieta,Murrieta,,,,,,,https://weedmaps.com/dispensaries/in/united-states/california,California,,,,United States,,,,,,,,,,
,https://weedmaps.com/dispensaries/in/united-states/california/needles,Needles / Blythe,,,,,,,https://weedmaps.com/dispensaries/in/united-states/california,California,,,,United States,,,,,,,,,,
,https://weedmaps.com/dispensaries/in/united-states/california/newport-beach,Newport Beach,,,,,,,https://weedmaps.com/dispensaries/in/united-states/california,California,,,,United States,,,,,,,,,,
,https://weedmaps.com/dispensaries/in/united-states/california/normal-heights-north-park,Normal Heights / North Park,,,,,,,https://weedmaps.com/dispensaries/in/united-states/california,California,,,,United States,,,,,,,,,,
,https://weedmaps.com/dispensaries/in/united-states/california/northern-california-brands,Northern California Brands,,,,,,,https://weedmaps.com/dispensaries/in/united-states/california,California,,,,United States,,,,,,,,,,
,https://weedmaps.com/dispensaries/in/united-states/california/north-hollywood,North Hollywood,,,,,,,https://weedmaps.com/dispensaries/in/united-states/california,California,,,,United States,,,,,,,,,,
,https://weedmaps.com/dispensaries/in/united-states/california/north-long-beach,North Long Beach / Signal Hill,,,,,,,https://weedmaps.com/dispensaries/in/united-states/california,California,,,,United States,,,,,,,,,,
,https://weedmaps.com/dispensaries/in/united-states/california/north-oc-brands,North OC Brands,,,,,,,https://weedmaps.com/dispensaries/in/united-states/california,California,,,,United States,,,,,,,,,,
,https://weedmaps.com/dispensaries/in/united-states/california/northridgechatsworth,Northridge / Chatsworth / Reseda,,,,,,,https://weedmaps.com/dispensaries/in/united-states/california,California,,,,United States,,,,,,,,,,
,https://weedmaps.com/dispensaries/in/united-states/california/north-san-diego-brands,North San Diego Brands,,,,,,,https://weedmaps.com/dispensaries/in/united-states/california,California,,,,United States,,,,,,,,,,
,https://weedmaps.com/dispensaries/in/united-states/california/oakdale-riverbank,Oakdale / Riverbank,,,,,,,https://weedmaps.com/dispensaries/in/united-states/california,California,,,,United States,,,,,,,,,,
,https://weedmaps.com/dispensaries/in/united-states/california/oakhurst,Oakhurst,,,,,,,https://weedmaps.com/dispensaries/in/united-states/california,California,,,,United States,,,,,,,,,,
,https://weedmaps.com/dispensaries/in/united-states/california/oakland,Oakland,,,,,,,https://weedmaps.com/dispensaries/in/united-states/california,California,,,,United States,,,,,,,,,,
,https://weedmaps.com/dispensaries/in/united-states/california/stockton-modesto-brands/bay-area--2/bay-area/oakland-brands,Oakland Brands,,,,,,,https://weedmaps.com/dispensaries/in/united-states/california,California,,,,United States,,,,,,,,,,
,https://weedmaps.com/dispensaries/in/united-states/california/ocean-beach,Ocean Beach,,,,,,,https://weedmaps.com/dispensaries/in/united-states/california,California,,,,United States,,,,,,,,,,
,https://weedmaps.com/dispensaries/in/united-states/california/oceansidecarlsbad,Oceanside,,,,,,,https://weedmaps.com/dispensaries/in/united-states/california,California,,,,United States,,,,,,,,,,
,https://weedmaps.com/dispensaries/in/united-states/california/ojai,Ojai,,,,,,,https://weedmaps.com/dispensaries/in/united-states/california,California,,,,United States,,,,,,,,,,
,https://weedmaps.com/dispensaries/in/united-states/california/ontario-montclair,Ontario / Montclair,,,,,,,https://weedmaps.com/dispensaries/in/united-states/california,California,,,,United States,,,,,,,,,,
,https://weedmaps.com/dispensaries/in/united-states/california/orland-willows,Orland / Willows,,,,,,,https://weedmaps.com/dispensaries/in/united-states/california,California,,,,United States,,,,,,,,,,
,https://weedmaps.com/dispensaries/in/united-states/california/oroville,Oroville,,,,,,,https://weedmaps.com/dispensaries/in/united-states/california,California,,,,United States,,,,,,,,,,
,https://weedmaps.com/dispensaries/in/united-states/california/oxnard-camarillo,Oxnard / Camarillo,,,,,,,https://weedmaps.com/dispensaries/in/united-states/california,California,,,,United States,,,,,,,,,,
,https://weedmaps.com/dispensaries/in/united-states/california/pacific-beach,Pacific Beach,,,,,,,https://weedmaps.com/dispensaries/in/united-states/california,California,,,,United States,,,,,,,,,,
,https://weedmaps.com/dispensaries/in/united-states/california/thousand-palmspalm-desert,Palm Desert / Rancho Mirage,,,,,,,https://weedmaps.com/dispensaries/in/united-states/california,California,,,,United States,,,,,,,,,,
,https://weedmaps.com/dispensaries/in/united-states/california/palm-springs,Palm Springs,,,,,,,https://weedmaps.com/dispensaries/in/united-states/california,California,,,,United States,,,,,,,,,,
,https://weedmaps.com/dispensaries/in/united-states/california/palm-springs-brands,Palm Springs Brands,,,,,,,https://weedmaps.com/dispensaries/in/united-states/california,California,,,,United States,,,,,,,,,,
,https://weedmaps.com/dispensaries/in/united-states/california/paradise,Paradise,,,,,,,https://weedmaps.com/dispensaries/in/united-states/california,California,,,,United States,,,,,,,,,,
,https://weedmaps.com/dispensaries/in/united-states/california/pasadena,Pasadena,,,,,,,https://weedmaps.com/dispensaries/in/united-states/california,California,,,,United States,,,,,,,,,,
,https://weedmaps.com/dispensaries/in/united-states/california/paso-robles-atascadero-morro-bay,Paso Robles / Atascadero,,,,,,,https://weedmaps.com/dispensaries/in/united-states/california,California,,,,United States,,,,,,,,,,
,https://weedmaps.com/dispensaries/in/united-states/california/patterson,Patterson,,,,,,,https://weedmaps.com/dispensaries/in/united-states/california,California,,,,United States,,,,,,,,,,
,https://weedmaps.com/dispensaries/in/united-states/california/perris,Perris,,,,,,,https://weedmaps.com/dispensaries/in/united-states/california,California,,,,United States,,,,,,,,,,
,https://weedmaps.com/dispensaries/in/united-states/california/plumas-county,Plumas County,,,,,,,https://weedmaps.com/dispensaries/in/united-states/california,California,,,,United States,,,,,,,,,,
,https://weedmaps.com/dispensaries/in/united-states/california/pomona,Pomona,,,,,,,https://weedmaps.com/dispensaries/in/united-states/california,California,,,,United States,,,,,,,,,,
,https://weedmaps.com/dispensaries/in/united-states/california/north-inland,Poway / Mira Mesa,,,,,,,https://weedmaps.com/dispensaries/in/united-states/california,California,,,,United States,,,,,,,,,,
,https://weedmaps.com/dispensaries/in/united-states/california/primm,Primm,,,,,,,https://weedmaps.com/dispensaries/in/united-states/california,California,,,,United States,,,,,,,,,,
,https://weedmaps.com/dispensaries/in/united-states/california/ramona-julian,Ramona / Julian,,,,,,,https://weedmaps.com/dispensaries/in/united-states/california,California,,,,United States,,,,,,,,,,
,https://weedmaps.com/dispensaries/in/united-states/california/rancho-cucamonga,Rancho Cucamonga,,,,,,,https://weedmaps.com/dispensaries/in/united-states/california,California,,,,United States,,,,,,,,,,
,https://weedmaps.com/dispensaries/in/united-states/california/rancho-santa-margarita,Rancho Santa Margarita,,,,,,,https://weedmaps.com/dispensaries/in/united-states/california,California,,,,United States,,,,,,,,,,
,https://weedmaps.com/dispensaries/in/united-states/california/red-bluff,Red Bluff,,,,,,,https://weedmaps.com/dispensaries/in/united-states/california,California,,,,United States,,,,,,,,,,
,https://weedmaps.com/dispensaries/in/united-states/california/redding,Redding,,,,,,,https://weedmaps.com/dispensaries/in/united-states/california,California,,,,United States,,,,,,,,,,
,https://weedmaps.com/dispensaries/in/united-states/california/redlandsmentone,Redlands / Mentone,,,,,,,https://weedmaps.com/dispensaries/in/united-states/california,California,,,,United States,,,,,,,,,,
,https://weedmaps.com/dispensaries/in/united-states/california/richmond-hercules,Richmond / Hercules,,,,,,,https://weedmaps.com/dispensaries/in/united-states/california,California,,,,United States,,,,,,,,,,
,https://weedmaps.com/dispensaries/in/united-states/california/rio-vista,Rio Vista,,,,,,,https://weedmaps.com/dispensaries/in/united-states/california,California,,,,United States,,,,,,,,,,
,https://weedmaps.com/dispensaries/in/united-states/california/riverside,Riverside,,,,,,,https://weedmaps.com/dispensaries/in/united-states/california,California,,,,United States,,,,,,,,,,
,https://weedmaps.com/dispensaries/in/united-states/california/riverside-brands,Riverside Brands,,,,,,,https://weedmaps.com/dispensaries/in/united-states/california,California,,,,United States,,,,,,,,,,
,https://weedmaps.com/dispensaries/in/united-states/california/rosamond-mojave,Rosamond / Mojave,,,,,,,https://weedmaps.com/dispensaries/in/united-states/california,California,,,,United States,,,,,,,,,,
,https://weedmaps.com/dispensaries/in/united-states/california/the-foothils-sacramento,Roseville / Rocklin,,,,,,,https://weedmaps.com/dispensaries/in/united-states/california,California,,,,United States,,,,,,,,,,
,https://weedmaps.com/dispensaries/in/united-states/california/sacramento,Sacramento,,,,,,,https://weedmaps.com/dispensaries/in/united-states/california,California,,,,United States,,,,,,,,,,
,https://weedmaps.com/dispensaries/in/united-states/california/sacramento-brands,Sacramento Brands,,,,,,,https://weedmaps.com/dispensaries/in/united-states/california,California,,,,United States,,,,,,,,,,
,https://weedmaps.com/dispensaries/in/united-states/california/sacramento-south,Sacramento South,,,,,,,https://weedmaps.com/dispensaries/in/united-states/california,California,,,,United States,,,,,,,,,,
,https://weedmaps.com/dispensaries/in/united-states/california/salinas,Salinas,,,,,,,https://weedmaps.com/dispensaries/in/united-states/california,California,,,,United States,,,,,,,,,,
,https://weedmaps.com/dispensaries/in/united-states/california/san-bernardino,San Bernardino,,,,,,,https://weedmaps.com/dispensaries/in/united-states/california,California,,,,United States,,,,,,,,,,
,https://weedmaps.com/dispensaries/in/united-states/california/san-bernardino-brands,San Bernardino Brands,,,,,,,https://weedmaps.com/dispensaries/in/united-states/california,California,,,,United States,,,,,,,,,,
,https://weedmaps.com/dispensaries/in/united-states/california/san-clemente,San Clemente,,,,,,,https://weedmaps.com/dispensaries/in/united-states/california,California,,,,United States,,,,,,,,,,
,https://weedmaps.com/dispensaries/in/united-states/california/san-dimas-la-verne,San Dimas / La Verne,,,,,,,https://weedmaps.com/dispensaries/in/united-states/california,California,,,,United States,,,,,,,,,,
,https://weedmaps.com/dispensaries/in/united-states/california/central-coast-brands/san-fernando-valley--2/san-fernando-valley-brands,San Fernando Valley Brands,,,,,,,https://weedmaps.com/dispensaries/in/united-states/california,California,,,,United States,,,,,,,,,,
,https://weedmaps.com/dispensaries/in/united-states/california/san-francisco,San Francisco,,,,,,,https://weedmaps.com/dispensaries/in/united-states/california,California,,,,United States,,,,,,,,,,
,https://weedmaps.com/dispensaries/in/united-states/california/san-francisco-brands,San Francisco Brands,,,,,,,https://weedmaps.com/dispensaries/in/united-states/california,California,,,,United States,,,,,,,,,,
,https://weedmaps.com/dispensaries/in/united-states/california/south-san-francisco,San Francisco South,,,,,,,https://weedmaps.com/dispensaries/in/united-states/california,California,,,,United States,,,,,,,,,,
,https://weedmaps.com/dispensaries/in/united-states/california/san-gabriel-valley-brands,San Gabriel Valley Brands,,,,,,,https://weedmaps.com/dispensaries/in/united-states/california,California,,,,United States,,,,,,,,,,
,https://weedmaps.com/dispensaries/in/united-states/california/san-jose,San Jose,,,,,,,https://weedmaps.com/dispensaries/in/united-states/california,California,,,,United States,,,,,,,,,,
,https://weedmaps.com/dispensaries/in/united-states/california/stockton-modesto-brands/bay-area--2/san-jose-brands,San Jose Brands,,,,,,,https://weedmaps.com/dispensaries/in/united-states/california,California,,,,United States,,,,,,,,,,
,https://weedmaps.com/dispensaries/in/united-states/california/san-luis-obispo,San Luis Obispo,,,,,,,https://weedmaps.com/dispensaries/in/united-states/california,California,,,,United States,,,,,,,,,,
,https://weedmaps.com/dispensaries/in/united-states/california/north-county,San Marcos / Escondido,,,,,,,https://weedmaps.com/dispensaries/in/united-states/california,California,,,,United States,,,,,,,,,,
,https://weedmaps.com/dispensaries/in/united-states/california/the-penisula,San Mateo,,,,,,,https://weedmaps.com/dispensaries/in/united-states/california,California,,,,United States,,,,,,,,,,
,https://weedmaps.com/dispensaries/in/united-states/california/san-pedro,San Pedro,,,,,,,https://weedmaps.com/dispensaries/in/united-states/california,California,,,,United States,,,,,,,,,,
,https://weedmaps.com/dispensaries/in/united-states/california/santa-ana,Santa Ana,,,,,,,https://weedmaps.com/dispensaries/in/united-states/california,California,,,,United States,,,,,,,,,,
,https://weedmaps.com/dispensaries/in/united-states/california/santa-barbara,Santa Barbara,,,,,,,https://weedmaps.com/dispensaries/in/united-states/california,California,,,,United States,,,,,,,,,,
,https://weedmaps.com/dispensaries/in/united-states/california/santa-clarita,Santa Clarita,,,,,,,https://weedmaps.com/dispensaries/in/united-states/california,California,,,,United States,,,,,,,,,,
,https://weedmaps.com/dispensaries/in/united-states/california/santa-cruz,Santa Cruz,,,,,,,https://weedmaps.com/dispensaries/in/united-states/california,California,,,,United States,,,,,,,,,,
,https://weedmaps.com/dispensaries/in/united-states/california/santa-fe-springs,Santa Fe Springs,,,,,,,https://weedmaps.com/dispensaries/in/united-states/california,California,,,,United States,,,,,,,,,,
,https://weedmaps.com/dispensaries/in/united-states/california/santa-maria-lompoc-solvang,Santa Maria,,,,,,,https://weedmaps.com/dispensaries/in/united-states/california,California,,,,United States,,,,,,,,,,
,https://weedmaps.com/dispensaries/in/united-states/california/santa-monica,Santa Monica,,,,,,,https://weedmaps.com/dispensaries/in/united-states/california,California,,,,United States,,,,,,,,,,
,https://weedmaps.com/dispensaries/in/united-states/california/santa-paula-fillmore,Santa Paula / Fillmore,,,,,,,https://weedmaps.com/dispensaries/in/united-states/california,California,,,,United States,,,,,,,,,,
,https://weedmaps.com/dispensaries/in/united-states/california/santa-rosa,Santa Rosa,,,,,,,https://weedmaps.com/dispensaries/in/united-states/california,California,,,,United States,,,,,,,,,,
,https://weedmaps.com/dispensaries/in/united-states/california/sherman-oaks,Sherman Oaks / Studio City,,,,,,,https://weedmaps.com/dispensaries/in/united-states/california,California,,,,United States,,,,,,,,,,
,https://weedmaps.com/dispensaries/in/united-states/california/simi-valley,Simi Valley,,,,,,,https://weedmaps.com/dispensaries/in/united-states/california,California,,,,United States,,,,,,,,,,
,https://weedmaps.com/dispensaries/in/united-states/california/solana-beach,Solana Beach,,,,,,,https://weedmaps.com/dispensaries/in/united-states/california,California,,,,United States,,,,,,,,,,
,https://weedmaps.com/dispensaries/in/united-states/california/sonoma-county,Sonoma / Napa,,,,,,,https://weedmaps.com/dispensaries/in/united-states/california,California,,,,United States,,,,,,,,,,
,https://weedmaps.com/dispensaries/in/united-states/california/south-bay,South Bay,,,,,,,https://weedmaps.com/dispensaries/in/united-states/california,California,,,,United States,,,,,,,,,,
,https://weedmaps.com/dispensaries/in/united-states/california/south-bay--2,South Bay - Brands,,,,,,,https://weedmaps.com/dispensaries/in/united-states/california,California,,,,United States,,,,,,,,,,
,https://weedmaps.com/dispensaries/in/united-states/california/south-gatebellflowerartesia,South Gate / Huntington Park / Downey,,,,,,,https://weedmaps.com/dispensaries/in/united-states/california,California,,,,United States,,,,,,,,,,
,https://weedmaps.com/dispensaries/in/united-states/california/south-la,South LA,,,,,,,https://weedmaps.com/dispensaries/in/united-states/california,California,,,,United States,,,,,,,,,,
,https://weedmaps.com/dispensaries/in/united-states/california/long-beach,South Long Beach / Belmont Shore,,,,,,,https://weedmaps.com/dispensaries/in/united-states/california,California,,,,United States,,,,,,,,,,
,https://weedmaps.com/dispensaries/in/united-states/california/south-oc-brands,South OC Brands,,,,,,,https://weedmaps.com/dispensaries/in/united-states/california,California,,,,United States,,,,,,,,,,
,https://weedmaps.com/dispensaries/in/united-states/california/south-san-diego-brands,South San Diego Brands,,,,,,,https://weedmaps.com/dispensaries/in/united-states/california,California,,,,United States,,,,,,,,,,
,https://weedmaps.com/dispensaries/in/united-states/california/stockton,Stockton,,,,,,,https://weedmaps.com/dispensaries/in/united-states/california,California,,,,United States,,,,,,,,,,
,https://weedmaps.com/dispensaries/in/united-states/california/stockton-modesto-brands,Stockton / Modesto Brands,,,,,,,https://weedmaps.com/dispensaries/in/united-states/california,California,,,,United States,,,,,,,,,,
,https://weedmaps.com/dispensaries/in/united-states/california/sunnyvale-santa-clara,Sunnyvale / Santa Clara,,,,,,,https://weedmaps.com/dispensaries/in/united-states/california,California,,,,United States,,,,,,,,,,
,https://weedmaps.com/dispensaries/in/united-states/california/sun-valley,Sun Valley / Sunland / Tujunga,,,,,,,https://weedmaps.com/dispensaries/in/united-states/california,California,,,,United States,,,,,,,,,,
,https://weedmaps.com/dispensaries/in/united-states/california/san-fernando-santa-clarita,Sylmar / Pacoima / Panorama City,,,,,,,https://weedmaps.com/dispensaries/in/united-states/california,California,,,,United States,,,,,,,,,,
,https://weedmaps.com/dispensaries/in/united-states/california/temecula-a-murrieta,Temecula,,,,,,,https://weedmaps.com/dispensaries/in/united-states/california,California,,,,United States,,,,,,,,,,
,https://weedmaps.com/dispensaries/in/united-states/california/temecula-murrieta-brands,Temecula / Murrieta Brands,,,,,,,https://weedmaps.com/dispensaries/in/united-states/california,California,,,,United States,,,,,,,,,,
,https://weedmaps.com/dispensaries/in/united-states/california/thousand-oaks-simi-valley,Thousand Oaks,,,,,,,https://weedmaps.com/dispensaries/in/united-states/california,California,,,,United States,,,,,,,,,,
,https://weedmaps.com/dispensaries/in/united-states/california/topanga,Topanga,,,,,,,https://weedmaps.com/dispensaries/in/united-states/california,California,,,,United States,,,,,,,,,,
,https://weedmaps.com/dispensaries/in/united-states/california/torrance,Torrance,,,,,,,https://weedmaps.com/dispensaries/in/united-states/california,California,,,,United States,,,,,,,,,,
,https://weedmaps.com/dispensaries/in/united-states/california/tracy-manteca,Tracy,,,,,,,https://weedmaps.com/dispensaries/in/united-states/california,California,,,,United States,,,,,,,,,,
,https://weedmaps.com/dispensaries/in/united-states/california/truckee,Truckee,,,,,,,https://weedmaps.com/dispensaries/in/united-states/california,California,,,,United States,,,,,,,,,,
,,,,,,,,,https://weedmaps.com/dispensaries/in/united-states/kansas,Kansas,,,,United States,,,,,,,,,,
,https://weedmaps.com/dispensaries/in/united-states/california/tuolumne-county,Tuolumne County,,,,,,,https://weedmaps.com/dispensaries/in/united-states/california,California,,,,United States,,,,,,,,,,
,https://weedmaps.com/dispensaries/in/united-states/california/turlock,Turlock,,,,,,,https://weedmaps.com/dispensaries/in/united-states/california,California,,,,United States,,,,,,,,,,
,https://weedmaps.com/dispensaries/in/united-states/california/tustin,Tustin,,,,,,,https://weedmaps.com/dispensaries/in/united-states/california,California,,,,United States,,,,,,,,,,
,https://weedmaps.com/dispensaries/in/united-states/california/humboldt,Ukiah,,,,,,,https://weedmaps.com/dispensaries/in/united-states/california,California,,,,United States,,,,,,,,,,
,https://weedmaps.com/dispensaries/in/united-states/california/upland,Upland,,,,,,,https://weedmaps.com/dispensaries/in/united-states/california,California,,,,United States,,,,,,,,,,
,https://weedmaps.com/dispensaries/in/united-states/california/vacaville,Vacaville,,,,,,,https://weedmaps.com/dispensaries/in/united-states/california,California,,,,United States,,,,,,,,,,
,https://weedmaps.com/dispensaries/in/united-states/california/vallejo,Vallejo,,,,,,,https://weedmaps.com/dispensaries/in/united-states/california,California,,,,United States,,,,,,,,,,
,https://weedmaps.com/dispensaries/in/united-states/california/van-nuyssherman-oaks,Van Nuys,,,,,,,https://weedmaps.com/dispensaries/in/united-states/california,California,,,,United States,,,,,,,,,,
,https://weedmaps.com/dispensaries/in/united-states/california/venice,Venice / Marina Del Rey,,,,,,,https://weedmaps.com/dispensaries/in/united-states/california,California,,,,United States,,,,,,,,,,
,https://weedmaps.com/dispensaries/in/united-states/california/ventura,Ventura,,,,,,,https://weedmaps.com/dispensaries/in/united-states/california,California,,,,United States,,,,,,,,,,
,https://weedmaps.com/dispensaries/in/united-states/california/victorvillehigh-desert,Victorville,,,,,,,https://weedmaps.com/dispensaries/in/united-states/california,California,,,,United States,,,,,,,,,,
,https://weedmaps.com/dispensaries/in/united-states/california/visalia,Visalia,,,,,,,https://weedmaps.com/dispensaries/in/united-states/california,California,,,,United States,,,,,,,,,,
,https://weedmaps.com/dispensaries/in/united-states/california/vista,Vista,,,,,,,https://weedmaps.com/dispensaries/in/united-states/california,California,,,,United States,,,,,,,,,,
,https://weedmaps.com/dispensaries/in/united-states/california/walnut-creek,Walnut Creek,,,,,,,https://weedmaps.com/dispensaries/in/united-states/california,California,,,,United States,,,,,,,,,,
,https://weedmaps.com/dispensaries/in/united-states/california/west-hollywood,West Hollywood,,,,,,,https://weedmaps.com/dispensaries/in/united-states/california,California,,,,United States,,,,,,,,,,
,https://weedmaps.com/dispensaries/in/united-states/california/central-coast-brands/san-fernando-valley--2/san-fernando-valley-brands/los-angeles/west-la-brands,West LA Brands,,,,,,,https://weedmaps.com/dispensaries/in/united-states/california,California,,,,United States,,,,,,,,,,
,https://weedmaps.com/dispensaries/in/united-states/california/west-los-angeles,West Los Angeles,,,,,,,https://weedmaps.com/dispensaries/in/united-states/california,California,,,,United States,,,,,,,,,,
,https://weedmaps.com/dispensaries/in/united-states/california/westminster,Westminster / Sunset Beach / Seal Beach,,,,,,,https://weedmaps.com/dispensaries/in/united-states/california,California,,,,United States,,,,,,,,,,
,https://weedmaps.com/dispensaries/in/united-states/california/woodland-hills-tarzana-canoga-park,Woodland Hills / Tarzana / Canoga Park,,,,,,,https://weedmaps.com/dispensaries/in/united-states/california,California,,,,United States,,,,,,,,,,
,https://weedmaps.com/dispensaries/in/united-states/california/yorba-linda-placentia,Yorba Linda / Placentia,,,,,,,https://weedmaps.com/dispensaries/in/united-states/california,California,,,,United States,,,,,,,,,,
,https://weedmaps.com/dispensaries/in/united-states/california/yuba-city-gold-country,Yuba City / Marysville,,,,,,,https://weedmaps.com/dispensaries/in/united-states/california,California,,,,United States,,,,,,,,,,
,https://weedmaps.com/dispensaries/in/united-states/california/yucaipa-beaumont,Yucaipa / Calimesa,,,,,,,https://weedmaps.com/dispensaries/in/united-states/california,California,,,,United States,,,,,,,,,,
,https://weedmaps.com/dispensaries/in/united-states/california/yucca-valley,Yucca Valley,,,,,,,https://weedmaps.com/dispensaries/in/united-states/california,California,,,,United States,,,,,,,,,,
,https://weedmaps.com/dispensaries/in/united-states/hawaii/island-of-hawai-i,Island of Hawai'i,,,,,,,https://weedmaps.com/dispensaries/in/united-states/hawaii,Hawaii,,,,United States,,,,,,,,,,
,https://weedmaps.com/dispensaries/in/united-states/hawaii/kauai,Kauai,,,,,,,https://weedmaps.com/dispensaries/in/united-states/hawaii,Hawaii,,,,United States,,,,,,,,,,
,https://weedmaps.com/dispensaries/in/united-states/hawaii/lanai,Lanai,,,,,,,https://weedmaps.com/dispensaries/in/united-states/hawaii,Hawaii,,,,United States,,,,,,,,,,
,https://weedmaps.com/dispensaries/in/united-states/hawaii/maui,Maui,,,,,,,https://weedmaps.com/dispensaries/in/united-states/hawaii,Hawaii,,,,United States,,,,,,,,,,
,https://weedmaps.com/dispensaries/in/united-states/hawaii/moloka-i,Moloka'i,,,,,,,https://weedmaps.com/dispensaries/in/united-states/hawaii,Hawaii,,,,United States,,,,,,,,,,
,https://weedmaps.com/dispensaries/in/united-states/hawaii/o-ahu,O'ahu,,,,,,,https://weedmaps.com/dispensaries/in/united-states/hawaii,Hawaii,,,,United States,,,,,,,,,,
,,,,,,,,,https://weedmaps.com/dispensaries/in/united-states/kentucky,Kentucky,,,,United States,,,,,,,,,,
,,,,,,,,,https://weedmaps.com/dispensaries/in/united-states/idaho,Idaho,,,,United States,,,,,,,,,,
,https://weedmaps.com/dispensaries/in/united-states/illinois/aurora-il,"Aurora, IL",,,,,,,https://weedmaps.com/dispensaries/in/united-states/illinois,Illinois,,,,United States,,,,,,,,,,
,https://weedmaps.com/dispensaries/in/united-states/illinois/bloomington-normal,Bloomington / Normal,,,,,,,https://weedmaps.com/dispensaries/in/united-states/illinois,Illinois,,,,United States,,,,,,,,,,
,https://weedmaps.com/dispensaries/in/united-states/illinois/champaign-urbana,Champaign / Urbana,,,,,,,https://weedmaps.com/dispensaries/in/united-states/illinois,Illinois,,,,United States,,,,,,,,,,
,https://weedmaps.com/dispensaries/in/united-states/illinois/chicago,Chicago North,,,,,,,https://weedmaps.com/dispensaries/in/united-states/illinois,Illinois,,,,United States,,,,,,,,,,
,https://weedmaps.com/dispensaries/in/united-states/illinois/chicago-south,Chicago South,,,,,,,https://weedmaps.com/dispensaries/in/united-states/illinois,Illinois,,,,United States,,,,,,,,,,
,https://weedmaps.com/dispensaries/in/united-states/illinois/collinsville-fairview-heights,Collinsville / Fairview Heights,,,,,,,https://weedmaps.com/dispensaries/in/united-states/illinois,Illinois,,,,United States,,,,,,,,,,
,https://weedmaps.com/dispensaries/in/united-states/illinois/effingham,Effingham,,,,,,,https://weedmaps.com/dispensaries/in/united-states/illinois,Illinois,,,,United States,,,,,,,,,,
,https://weedmaps.com/dispensaries/in/united-states/illinois/joliet,Joliet,,,,,,,https://weedmaps.com/dispensaries/in/united-states/illinois,Illinois,,,,United States,,,,,,,,,,
,https://weedmaps.com/dispensaries/in/united-states/illinois/marion,Marion,,,,,,,https://weedmaps.com/dispensaries/in/united-states/illinois,Illinois,,,,United States,,,,,,,,,,
,https://weedmaps.com/dispensaries/in/united-states/illinois/davenport-moline,Moline,,,,,,,https://weedmaps.com/dispensaries/in/united-states/illinois,Illinois,,,,United States,,,,,,,,,,
,https://weedmaps.com/dispensaries/in/united-states/illinois/mundelein,Mundelein,,,,,,,https://weedmaps.com/dispensaries/in/united-states/illinois,Illinois,,,,United States,,,,,,,,,,
,https://weedmaps.com/dispensaries/in/united-states/illinois/ottawa-il,"Ottawa, IL",,,,,,,https://weedmaps.com/dispensaries/in/united-states/illinois,Illinois,,,,United States,,,,,,,,,,
,https://weedmaps.com/dispensaries/in/united-states/illinois/peoria-springfield,"Peoria, IL",,,,,,,https://weedmaps.com/dispensaries/in/united-states/illinois,Illinois,,,,United States,,,,,,,,,,
,https://weedmaps.com/dispensaries/in/united-states/illinois/quincy-il,"Quincy, IL",,,,,,,https://weedmaps.com/dispensaries/in/united-states/illinois,Illinois,,,,United States,,,,,,,,,,
,https://weedmaps.com/dispensaries/in/united-states/illinois/rockford,Rockford,,,,,,,https://weedmaps.com/dispensaries/in/united-states/illinois,Illinois,,,,United States,,,,,,,,,,
,https://weedmaps.com/dispensaries/in/united-states/illinois/springfield,"Springfield, IL",,,,,,,https://weedmaps.com/dispensaries/in/united-states/illinois,Illinois,,,,United States,,,,,,,,,,
,,,,,,,,,https://weedmaps.com/dispensaries/in/united-states/indiana,Indiana,,,,United States,,,,,,,,,,
,https://weedmaps.com/dispensaries/in/united-states/iowa/council-bluffs,Council Bluffs,,,,,,,https://weedmaps.com/dispensaries/in/united-states/iowa,Iowa,,,,United States,,,,,,,,,,
,https://weedmaps.com/dispensaries/in/united-states/iowa/davenport,Davenport,,,,,,,https://weedmaps.com/dispensaries/in/united-states/iowa,Iowa,,,,United States,,,,,,,,,,
,https://weedmaps.com/dispensaries/in/united-states/iowa/des-moines,Des Moines,,,,,,,https://weedmaps.com/dispensaries/in/united-states/iowa,Iowa,,,,United States,,,,,,,,,,
,https://weedmaps.com/dispensaries/in/united-states/iowa/sioux-city,Sioux City,,,,,,,https://weedmaps.com/dispensaries/in/united-states/iowa,Iowa,,,,United States,,,,,,,,,,
,https://weedmaps.com/dispensaries/in/united-states/iowa/waterloo-ia,"Waterloo, IA",,,,,,,https://weedmaps.com/dispensaries/in/united-states/iowa,Iowa,,,,United States,,,,,,,,,,
,https://weedmaps.com/dispensaries/in/united-states/massachusetts/ayer,Ayer,,,,,,,https://weedmaps.com/dispensaries/in/united-states/massachusetts,Massachusetts,,,,United States,,,,,,,,,,
,https://weedmaps.com/dispensaries/in/united-states/massachusetts/boston,Boston,,,,,,,https://weedmaps.com/dispensaries/in/united-states/massachusetts,Massachusetts,,,,United States,,,,,,,,,,
,https://weedmaps.com/dispensaries/in/united-states/massachusetts/brockton,Brockton,,,,,,,https://weedmaps.com/dispensaries/in/united-states/massachusetts,Massachusetts,,,,United States,,,,,,,,,,
,https://weedmaps.com/dispensaries/in/united-states/massachusetts/cambridge,"Cambridge, MA",,,,,,,https://weedmaps.com/dispensaries/in/united-states/massachusetts,Massachusetts,,,,United States,,,,,,,,,,
,https://weedmaps.com/dispensaries/in/united-states/massachusetts/cape-cod,Cape Cod,,,,,,,https://weedmaps.com/dispensaries/in/united-states/massachusetts,Massachusetts,,,,United States,,,,,,,,,,
,https://weedmaps.com/dispensaries/in/united-states/massachusetts/fall-river,Fall River,,,,,,,https://weedmaps.com/dispensaries/in/united-states/massachusetts,Massachusetts,,,,United States,,,,,,,,,,
,https://weedmaps.com/dispensaries/in/united-states/massachusetts/framingham,Framingham,,,,,,,https://weedmaps.com/dispensaries/in/united-states/massachusetts,Massachusetts,,,,United States,,,,,,,,,,
,https://weedmaps.com/dispensaries/in/united-states/massachusetts/gardner-ma,"Gardner, MA",,,,,,,https://weedmaps.com/dispensaries/in/united-states/massachusetts,Massachusetts,,,,United States,,,,,,,,,,
,https://weedmaps.com/dispensaries/in/united-states/massachusetts/georgetown,Georgetown,,,,,,,https://weedmaps.com/dispensaries/in/united-states/massachusetts,Massachusetts,,,,United States,,,,,,,,,,
,https://weedmaps.com/dispensaries/in/united-states/massachusetts/greenfield-ma,"Greenfield, MA",,,,,,,https://weedmaps.com/dispensaries/in/united-states/massachusetts,Massachusetts,,,,United States,,,,,,,,,,
,https://weedmaps.com/dispensaries/in/united-states/massachusetts/holyoke,Holyoke,,,,,,,https://weedmaps.com/dispensaries/in/united-states/massachusetts,Massachusetts,,,,United States,,,,,,,,,,
,https://weedmaps.com/dispensaries/in/united-states/massachusetts/leominster,Leominster,,,,,,,https://weedmaps.com/dispensaries/in/united-states/massachusetts,Massachusetts,,,,United States,,,,,,,,,,
,https://weedmaps.com/dispensaries/in/united-states/massachusetts/lowell,Lowell,,,,,,,https://weedmaps.com/dispensaries/in/united-states/massachusetts,Massachusetts,,,,United States,,,,,,,,,,
,https://weedmaps.com/dispensaries/in/united-states/massachusetts/nantucket,Nantucket,,,,,,,https://weedmaps.com/dispensaries/in/united-states/massachusetts,Massachusetts,,,,United States,,,,,,,,,,
,https://weedmaps.com/dispensaries/in/united-states/massachusetts/newton,Newton,,,,,,,https://weedmaps.com/dispensaries/in/united-states/massachusetts,Massachusetts,,,,United States,,,,,,,,,,
,https://weedmaps.com/dispensaries/in/united-states/massachusetts/northampton,Northampton,,,,,,,https://weedmaps.com/dispensaries/in/united-states/massachusetts,Massachusetts,,,,United States,,,,,,,,,,
,https://weedmaps.com/dispensaries/in/united-states/massachusetts/pittsfield,Pittsfield,,,,,,,https://weedmaps.com/dispensaries/in/united-states/massachusetts,Massachusetts,,,,United States,,,,,,,,,,
,https://weedmaps.com/dispensaries/in/united-states/massachusetts/plymouth-ma,"Plymouth, MA",,,,,,,https://weedmaps.com/dispensaries/in/united-states/massachusetts,Massachusetts,,,,United States,,,,,,,,,,
,https://weedmaps.com/dispensaries/in/united-states/massachusetts/quincy,"Quincy, MA",,,,,,,https://weedmaps.com/dispensaries/in/united-states/massachusetts,Massachusetts,,,,United States,,,,,,,,,,
,https://weedmaps.com/dispensaries/in/united-states/massachusetts/salem-peabody,Salem / Peabody,,,,,,,https://weedmaps.com/dispensaries/in/united-states/massachusetts,Massachusetts,,,,United States,,,,,,,,,,
,https://weedmaps.com/dispensaries/in/united-states/massachusetts/somerville,Somerville,,,,,,,https://weedmaps.com/dispensaries/in/united-states/massachusetts,Massachusetts,,,,United States,,,,,,,,,,
,https://weedmaps.com/dispensaries/in/united-states/massachusetts/springfield-ma,"Springfield, MA",,,,,,,https://weedmaps.com/dispensaries/in/united-states/massachusetts,Massachusetts,,,,United States,,,,,,,,,,
,https://weedmaps.com/dispensaries/in/united-states/massachusetts/taunton,Taunton,,,,,,,https://weedmaps.com/dispensaries/in/united-states/massachusetts,Massachusetts,,,,United States,,,,,,,,,,
,https://weedmaps.com/dispensaries/in/united-states/massachusetts/worcester,Worcester,,,,,,,https://weedmaps.com/dispensaries/in/united-states/massachusetts,Massachusetts,,,,United States,,,,,,,,,,
,https://weedmaps.com/dispensaries/in/united-states/maryland/annapolis,Annapolis,,,,,,,https://weedmaps.com/dispensaries/in/united-states/maryland,Maryland,,,,United States,,,,,,,,,,
,https://weedmaps.com/dispensaries/in/united-states/maryland/baltimore,Baltimore,,,,,,,https://weedmaps.com/dispensaries/in/united-states/maryland,Maryland,,,,United States,,,,,,,,,,
,https://weedmaps.com/dispensaries/in/united-states/maryland/bel-air,Bel Air,,,,,,,https://weedmaps.com/dispensaries/in/united-states/maryland,Maryland,,,,United States,,,,,,,,,,
,https://weedmaps.com/dispensaries/in/united-states/maryland/bethesda,Bethesda,,,,,,,https://weedmaps.com/dispensaries/in/united-states/maryland,Maryland,,,,United States,,,,,,,,,,
,https://weedmaps.com/dispensaries/in/united-states/maryland/bowie,Bowie,,,,,,,https://weedmaps.com/dispensaries/in/united-states/maryland,Maryland,,,,United States,,,,,,,,,,
,https://weedmaps.com/dispensaries/in/united-states/maryland/centreville,Centreville,,,,,,,https://weedmaps.com/dispensaries/in/united-states/maryland,Maryland,,,,United States,,,,,,,,,,
,https://weedmaps.com/dispensaries/in/united-states/maryland/columbia,"Columbia, MD",,,,,,,https://weedmaps.com/dispensaries/in/united-states/maryland,Maryland,,,,United States,,,,,,,,,,
,https://weedmaps.com/dispensaries/in/united-states/maryland/cumberland,Cumberland,,,,,,,https://weedmaps.com/dispensaries/in/united-states/maryland,Maryland,,,,United States,,,,,,,,,,
,https://weedmaps.com/dispensaries/in/united-states/maryland/elkton,Elkton,,,,,,,https://weedmaps.com/dispensaries/in/united-states/maryland,Maryland,,,,United States,,,,,,,,,,
,https://weedmaps.com/dispensaries/in/united-states/maryland/frederick,Frederick,,,,,,,https://weedmaps.com/dispensaries/in/united-states/maryland,Maryland,,,,United States,,,,,,,,,,
,https://weedmaps.com/dispensaries/in/united-states/maryland/germantown,Germantown,,,,,,,https://weedmaps.com/dispensaries/in/united-states/maryland,Maryland,,,,United States,,,,,,,,,,
,https://weedmaps.com/dispensaries/in/united-states/maryland/glen-burnie,Glen Burnie,,,,,,,https://weedmaps.com/dispensaries/in/united-states/maryland,Maryland,,,,United States,,,,,,,,,,
,https://weedmaps.com/dispensaries/in/united-states/maryland/hagerstown,Hagerstown,,,,,,,https://weedmaps.com/dispensaries/in/united-states/maryland,Maryland,,,,United States,,,,,,,,,,
,https://weedmaps.com/dispensaries/in/united-states/maryland/ocean-city,Ocean City,,,,,,,https://weedmaps.com/dispensaries/in/united-states/maryland,Maryland,,,,United States,,,,,,,,,,
,https://weedmaps.com/dispensaries/in/united-states/maryland/rockville,Rockville,,,,,,,https://weedmaps.com/dispensaries/in/united-states/maryland,Maryland,,,,United States,,,,,,,,,,
,https://weedmaps.com/dispensaries/in/united-states/maryland/salisbury,Salisbury,,,,,,,https://weedmaps.com/dispensaries/in/united-states/maryland,Maryland,,,,United States,,,,,,,,,,
,https://weedmaps.com/dispensaries/in/united-states/maryland/silver-spring,Silver Spring,,,,,,,https://weedmaps.com/dispensaries/in/united-states/maryland,Maryland,,,,United States,,,,,,,,,,
,https://weedmaps.com/dispensaries/in/united-states/maryland/southern-maryland,Southern Maryland,,,,,,,https://weedmaps.com/dispensaries/in/united-states/maryland,Maryland,,,,United States,,,,,,,,,,
,https://weedmaps.com/dispensaries/in/united-states/maryland/takoma-park,Takoma Park,,,,,,,https://weedmaps.com/dispensaries/in/united-states/maryland,Maryland,,,,United States,,,,,,,,,,
,https://weedmaps.com/dispensaries/in/united-states/maryland/temple-hills,Temple Hills,,,,,,,https://weedmaps.com/dispensaries/in/united-states/maryland,Maryland,,,,United States,,,,,,,,,,
,https://weedmaps.com/dispensaries/in/united-states/maryland/towson,Towson,,,,,,,https://weedmaps.com/dispensaries/in/united-states/maryland,Maryland,,,,United States,,,,,,,,,,
,https://weedmaps.com/dispensaries/in/united-states/maryland/waldorf,Waldorf,,,,,,,https://weedmaps.com/dispensaries/in/united-states/maryland,Maryland,,,,United States,,,,,,,,,,
,https://weedmaps.com/dispensaries/in/united-states/maryland/westminster-md,"Westminster, MD",,,,,,,https://weedmaps.com/dispensaries/in/united-states/maryland,Maryland,,,,United States,,,,,,,,,,
,https://weedmaps.com/dispensaries/in/united-states/maryland/white-marsh,White Marsh,,,,,,,https://weedmaps.com/dispensaries/in/united-states/maryland,Maryland,,,,United States,,,,,,,,,,
,https://weedmaps.com/dispensaries/in/united-states/missouri/columbia-mo,"Columbia, MO",,,,,,,https://weedmaps.com/dispensaries/in/united-states/missouri,Missouri,,,,United States,,,,,,,,,,
,https://weedmaps.com/dispensaries/in/united-states/missouri/kansas-city,Kansas City,,,,,,,https://weedmaps.com/dispensaries/in/united-states/missouri,Missouri,,,,United States,,,,,,,,,,
,https://weedmaps.com/dispensaries/in/united-states/missouri/springfield-mo,"Springfield, MO",,,,,,,https://weedmaps.com/dispensaries/in/united-states/missouri,Missouri,,,,United States,,,,,,,,,,
,https://weedmaps.com/dispensaries/in/united-states/missouri/st-louis,St. Louis,,,,,,,https://weedmaps.com/dispensaries/in/united-states/missouri,Missouri,,,,United States,,,,,,,,,,
,https://weedmaps.com/dispensaries/in/united-states/louisiana/alexandria,Alexandria,,,,,,,https://weedmaps.com/dispensaries/in/united-states/louisiana,Louisiana,,,,United States,,,,,,,,,,
,https://weedmaps.com/dispensaries/in/united-states/louisiana/baton-rouge,Baton Rouge,,,,,,,https://weedmaps.com/dispensaries/in/united-states/louisiana,Louisiana,,,,United States,,,,,,,,,,
,https://weedmaps.com/dispensaries/in/united-states/louisiana/lafayette,Lafayette,,,,,,,https://weedmaps.com/dispensaries/in/united-states/louisiana,Louisiana,,,,United States,,,,,,,,,,
,https://weedmaps.com/dispensaries/in/united-states/louisiana/lake-charles,Lake Charles,,,,,,,https://weedmaps.com/dispensaries/in/united-states/louisiana,Louisiana,,,,United States,,,,,,,,,,
,https://weedmaps.com/dispensaries/in/united-states/louisiana/monroe,Monroe,,,,,,,https://weedmaps.com/dispensaries/in/united-states/louisiana,Louisiana,,,,United States,,,,,,,,,,
,https://weedmaps.com/dispensaries/in/united-states/louisiana/new-orleans,New Orleans,,,,,,,https://weedmaps.com/dispensaries/in/united-states/louisiana,Louisiana,,,,United States,,,,,,,,,,
,https://weedmaps.com/dispensaries/in/united-states/louisiana/shreveport,Shreveport,,,,,,,https://weedmaps.com/dispensaries/in/united-states/louisiana,Louisiana,,,,United States,,,,,,,,,,
,,,,,,,,,https://weedmaps.com/dispensaries/in/united-states/mississippi,Mississippi,,,,United States,,,,,,,,,,
,https://weedmaps.com/dispensaries/in/united-states/maine/aroostook-county,Aroostook County,,,,,,,https://weedmaps.com/dispensaries/in/united-states/maine,Maine,,,,United States,,,,,,,,,,
,https://weedmaps.com/dispensaries/in/united-states/maine/augusta,Augusta,,,,,,,https://weedmaps.com/dispensaries/in/united-states/maine,Maine,,,,United States,,,,,,,,,,
,https://weedmaps.com/dispensaries/in/united-states/maine/bangor,Bangor,,,,,,,https://weedmaps.com/dispensaries/in/united-states/maine,Maine,,,,United States,,,,,,,,,,
,https://weedmaps.com/dispensaries/in/united-states/maine/berwick,Berwick,,,,,,,https://weedmaps.com/dispensaries/in/united-states/maine,Maine,,,,United States,,,,,,,,,,
,https://weedmaps.com/dispensaries/in/united-states/maine/biddeford,Biddeford,,,,,,,https://weedmaps.com/dispensaries/in/united-states/maine,Maine,,,,United States,,,,,,,,,,
,https://weedmaps.com/dispensaries/in/united-states/maine/brunswick,Brunswick,,,,,,,https://weedmaps.com/dispensaries/in/united-states/maine,Maine,,,,United States,,,,,,,,,,
,,,,,,,,,https://weedmaps.com/dispensaries/in/united-states/nebraska,Nebraska,,,,United States,,,,,,,,,,
,https://weedmaps.com/dispensaries/in/united-states/maine/eliot-kittery,Eliot / Kittery,,,,,,,https://weedmaps.com/dispensaries/in/united-states/maine,Maine,,,,United States,,,,,,,,,,
,https://weedmaps.com/dispensaries/in/united-states/maine/farmington,Farmington,,,,,,,https://weedmaps.com/dispensaries/in/united-states/maine,Maine,,,,United States,,,,,,,,,,
,https://weedmaps.com/dispensaries/in/united-states/maine/lewiston-auburn,Lewiston / Auburn,,,,,,,https://weedmaps.com/dispensaries/in/united-states/maine,Maine,,,,United States,,,,,,,,,,
,https://weedmaps.com/dispensaries/in/united-states/maine/portland,"Portland, ME",,,,,,,https://weedmaps.com/dispensaries/in/united-states/maine,Maine,,,,United States,,,,,,,,,,
,https://weedmaps.com/dispensaries/in/united-states/maine/sebago-lake,Sebago Lake,,,,,,,https://weedmaps.com/dispensaries/in/united-states/maine,Maine,,,,United States,,,,,,,,,,
,https://weedmaps.com/dispensaries/in/united-states/michigan/adrian-monroe,Adrian / Monroe,,,,,,,https://weedmaps.com/dispensaries/in/united-states/michigan,Michigan,,,,United States,,,,,,,,,,
,https://weedmaps.com/dispensaries/in/united-states/michigan/ann-arbor,Ann Arbor,,,,,,,https://weedmaps.com/dispensaries/in/united-states/michigan,Michigan,,,,United States,,,,,,,,,,
,https://weedmaps.com/dispensaries/in/united-states/michigan/battle-creek,Battle Creek,,,,,,,https://weedmaps.com/dispensaries/in/united-states/michigan,Michigan,,,,United States,,,,,,,,,,
,https://weedmaps.com/dispensaries/in/united-states/michigan/bay-city-saginaw,Bay City / Saginaw,,,,,,,https://weedmaps.com/dispensaries/in/united-states/michigan,Michigan,,,,United States,,,,,,,,,,
,https://weedmaps.com/dispensaries/in/united-states/michigan/big-rapids-reed-city-evart,Big Rapids / Reed City / Evart,,,,,,,https://weedmaps.com/dispensaries/in/united-states/michigan,Michigan,,,,United States,,,,,,,,,,
,https://weedmaps.com/dispensaries/in/united-states/michigan/coldwater-reading,Coldwater / Reading,,,,,,,https://weedmaps.com/dispensaries/in/united-states/michigan,Michigan,,,,United States,,,,,,,,,,
,https://weedmaps.com/dispensaries/in/united-states/michigan/downriver,Downriver / River Rouge,,,,,,,https://weedmaps.com/dispensaries/in/united-states/michigan,Michigan,,,,United States,,,,,,,,,,
,https://weedmaps.com/dispensaries/in/united-states/minnesota/bloomington-mn,"Bloomington, MN",,,,,,,https://weedmaps.com/dispensaries/in/united-states/minnesota,Minnesota,,,,United States,,,,,,,,,,
,https://weedmaps.com/dispensaries/in/united-states/minnesota/brooklyn-park,Brooklyn Park,,,,,,,https://weedmaps.com/dispensaries/in/united-states/minnesota,Minnesota,,,,United States,,,,,,,,,,
,https://weedmaps.com/dispensaries/in/united-states/minnesota/duluth,Duluth,,,,,,,https://weedmaps.com/dispensaries/in/united-states/minnesota,Minnesota,,,,United States,,,,,,,,,,
,https://weedmaps.com/dispensaries/in/united-states/michigan/east-detroit,East Detroit,,,,,,,https://weedmaps.com/dispensaries/in/united-states/michigan,Michigan,,,,United States,,,,,,,,,,
,https://weedmaps.com/dispensaries/in/united-states/michigan/flint,Flint,,,,,,,https://weedmaps.com/dispensaries/in/united-states/michigan,Michigan,,,,United States,,,,,,,,,,
,https://weedmaps.com/dispensaries/in/united-states/michigan/grand-rapids,Grand Rapids,,,,,,,https://weedmaps.com/dispensaries/in/united-states/michigan,Michigan,,,,United States,,,,,,,,,,
,https://weedmaps.com/dispensaries/in/united-states/michigan/grayling,Grayling,,,,,,,https://weedmaps.com/dispensaries/in/united-states/michigan,Michigan,,,,United States,,,,,,,,,,
,https://weedmaps.com/dispensaries/in/united-states/michigan/huron-county,Huron County,,,,,,,https://weedmaps.com/dispensaries/in/united-states/michigan,Michigan,,,,United States,,,,,,,,,,
,https://weedmaps.com/dispensaries/in/united-states/michigan/jackson-mi,"Jackson, MI",,,,,,,https://weedmaps.com/dispensaries/in/united-states/michigan,Michigan,,,,United States,,,,,,,,,,
,https://weedmaps.com/dispensaries/in/united-states/michigan/kalamazoo,Kalamazoo,,,,,,,https://weedmaps.com/dispensaries/in/united-states/michigan,Michigan,,,,United States,,,,,,,,,,
,https://weedmaps.com/dispensaries/in/united-states/michigan/lansing,Lansing,,,,,,,https://weedmaps.com/dispensaries/in/united-states/michigan,Michigan,,,,United States,,,,,,,,,,
,https://weedmaps.com/dispensaries/in/united-states/michigan/lapeer-county,Lapeer County,,,,,,,https://weedmaps.com/dispensaries/in/united-states/michigan,Michigan,,,,United States,,,,,,,,,,
,https://weedmaps.com/dispensaries/in/united-states/michigan/macomb-county,Macomb County,,,,,,,https://weedmaps.com/dispensaries/in/united-states/michigan,Michigan,,,,United States,,,,,,,,,,
,https://weedmaps.com/dispensaries/in/united-states/michigan/mt-pleasant,Mt Pleasant,,,,,,,https://weedmaps.com/dispensaries/in/united-states/michigan,Michigan,,,,United States,,,,,,,,,,
,https://weedmaps.com/dispensaries/in/united-states/michigan/oakland-county,Oakland County,,,,,,,https://weedmaps.com/dispensaries/in/united-states/michigan,Michigan,,,,United States,,,,,,,,,,
,https://weedmaps.com/dispensaries/in/united-states/minnesota/eagan,Eagan,,,,,,,https://weedmaps.com/dispensaries/in/united-states/minnesota,Minnesota,,,,United States,,,,,,,,,,
,https://weedmaps.com/dispensaries/in/united-states/minnesota/hibbing,Hibbing,,,,,,,https://weedmaps.com/dispensaries/in/united-states/minnesota,Minnesota,,,,United States,,,,,,,,,,
,https://weedmaps.com/dispensaries/in/united-states/michigan/pinconning,Pinconning,,,,,,,https://weedmaps.com/dispensaries/in/united-states/michigan,Michigan,,,,United States,,,,,,,,,,
,https://weedmaps.com/dispensaries/in/united-states/michigan/sw-michigan,South West Michigan,,,,,,,https://weedmaps.com/dispensaries/in/united-states/michigan,Michigan,,,,United States,,,,,,,,,,
,https://weedmaps.com/dispensaries/in/united-states/michigan/st-clair-county,St. Clair County,,,,,,,https://weedmaps.com/dispensaries/in/united-states/michigan,Michigan,,,,United States,,,,,,,,,,
,https://weedmaps.com/dispensaries/in/united-states/michigan/michigan-2,Traverse City,,,,,,,https://weedmaps.com/dispensaries/in/united-states/michigan,Michigan,,,,United States,,,,,,,,,,
,https://weedmaps.com/dispensaries/in/united-states/michigan/upper-peninsula,Upper Peninsula,,,,,,,https://weedmaps.com/dispensaries/in/united-states/michigan,Michigan,,,,United States,,,,,,,,,,
,https://weedmaps.com/dispensaries/in/united-states/michigan/west-detroit,West Detroit,,,,,,,https://weedmaps.com/dispensaries/in/united-states/michigan,Michigan,,,,United States,,,,,,,,,,
,https://weedmaps.com/dispensaries/in/united-states/michigan/ypsilanti--2,Ypsilanti / Wayne,,,,,,,https://weedmaps.com/dispensaries/in/united-states/michigan,Michigan,,,,United States,,,,,,,,,,
,https://weedmaps.com/dispensaries/in/united-states/montana/anaconda,Anaconda,,,,,,,https://weedmaps.com/dispensaries/in/united-states/montana,Montana,,,,United States,,,,,,,,,,
,https://weedmaps.com/dispensaries/in/united-states/minnesota/minneapolis,Minneapolis,,,,,,,https://weedmaps.com/dispensaries/in/united-states/minnesota,Minnesota,,,,United States,,,,,,,,,,
,https://weedmaps.com/dispensaries/in/united-states/minnesota/moorhead,Moorhead,,,,,,,https://weedmaps.com/dispensaries/in/united-states/minnesota,Minnesota,,,,United States,,,,,,,,,,
,https://weedmaps.com/dispensaries/in/united-states/minnesota/plymouth-mn,"Plymouth, MN",,,,,,,https://weedmaps.com/dispensaries/in/united-states/minnesota,Minnesota,,,,United States,,,,,,,,,,
,https://weedmaps.com/dispensaries/in/united-states/minnesota/rochester-mn,"Rochester, MN",,,,,,,https://weedmaps.com/dispensaries/in/united-states/minnesota,Minnesota,,,,United States,,,,,,,,,,
,https://weedmaps.com/dispensaries/in/united-states/minnesota/st-cloud,St. Cloud,,,,,,,https://weedmaps.com/dispensaries/in/united-states/minnesota,Minnesota,,,,United States,,,,,,,,,,
,https://weedmaps.com/dispensaries/in/united-states/minnesota/st-paul,St. Paul,,,,,,,https://weedmaps.com/dispensaries/in/united-states/minnesota,Minnesota,,,,United States,,,,,,,,,,
,https://weedmaps.com/dispensaries/in/united-states/minnesota/woodbury,Woodbury,,,,,,,https://weedmaps.com/dispensaries/in/united-states/minnesota,Minnesota,,,,United States,,,,,,,,,,
,https://weedmaps.com/dispensaries/in/united-states/montana/big-sky,Big Sky,,,,,,,https://weedmaps.com/dispensaries/in/united-states/montana,Montana,,,,United States,,,,,,,,,,
,https://weedmaps.com/dispensaries/in/united-states/montana/billings,Billings,,,,,,,https://weedmaps.com/dispensaries/in/united-states/montana,Montana,,,,United States,,,,,,,,,,
,https://weedmaps.com/dispensaries/in/united-states/montana/bozeman,Bozeman,,,,,,,https://weedmaps.com/dispensaries/in/united-states/montana,Montana,,,,United States,,,,,,,,,,
,https://weedmaps.com/dispensaries/in/united-states/montana/butte,Butte,,,,,,,https://weedmaps.com/dispensaries/in/united-states/montana,Montana,,,,United States,,,,,,,,,,
,https://weedmaps.com/dispensaries/in/united-states/montana/glasgow,Glasgow,,,,,,,https://weedmaps.com/dispensaries/in/united-states/montana,Montana,,,,United States,,,,,,,,,,
,https://weedmaps.com/dispensaries/in/united-states/montana/great-falls,Great Falls,,,,,,,https://weedmaps.com/dispensaries/in/united-states/montana,Montana,,,,United States,,,,,,,,,,
,https://weedmaps.com/dispensaries/in/united-states/montana/havre,Havre,,,,,,,https://weedmaps.com/dispensaries/in/united-states/montana,Montana,,,,United States,,,,,,,,,,
,https://weedmaps.com/dispensaries/in/united-states/new-hampshire/concord,Concord,,,,,,,https://weedmaps.com/dispensaries/in/united-states/new-hampshire,New Hampshire,,,,United States,,,,,,,,,,
,https://weedmaps.com/dispensaries/in/united-states/new-hampshire/derry-village,Derry Village,,,,,,,https://weedmaps.com/dispensaries/in/united-states/new-hampshire,New Hampshire,,,,United States,,,,,,,,,,
,https://weedmaps.com/dispensaries/in/united-states/new-hampshire/dover-nh,"Dover, NH",,,,,,,https://weedmaps.com/dispensaries/in/united-states/new-hampshire,New Hampshire,,,,United States,,,,,,,,,,
,https://weedmaps.com/dispensaries/in/united-states/new-hampshire/keene,Keene,,,,,,,https://weedmaps.com/dispensaries/in/united-states/new-hampshire,New Hampshire,,,,United States,,,,,,,,,,
,https://weedmaps.com/dispensaries/in/united-states/new-hampshire/lebanon-nh,"Lebanon, NH",,,,,,,https://weedmaps.com/dispensaries/in/united-states/new-hampshire,New Hampshire,,,,United States,,,,,,,,,,
,https://weedmaps.com/dispensaries/in/united-states/montana/helena,Helena,,,,,,,https://weedmaps.com/dispensaries/in/united-states/montana,Montana,,,,United States,,,,,,,,,,
,https://weedmaps.com/dispensaries/in/united-states/montana/kalispell,Kalispell,,,,,,,https://weedmaps.com/dispensaries/in/united-states/montana,Montana,,,,United States,,,,,,,,,,
,https://weedmaps.com/dispensaries/in/united-states/montana/lake-county,Lake County,,,,,,,https://weedmaps.com/dispensaries/in/united-states/montana,Montana,,,,United States,,,,,,,,,,
,https://weedmaps.com/dispensaries/in/united-states/montana/madison-county,Madison County,,,,,,,https://weedmaps.com/dispensaries/in/united-states/montana,Montana,,,,United States,,,,,,,,,,
,https://weedmaps.com/dispensaries/in/united-states/montana/miles-city,Miles City,,,,,,,https://weedmaps.com/dispensaries/in/united-states/montana,Montana,,,,United States,,,,,,,,,,
,https://weedmaps.com/dispensaries/in/united-states/montana/missoula,Missoula,,,,,,,https://weedmaps.com/dispensaries/in/united-states/montana,Montana,,,,United States,,,,,,,,,,
,https://weedmaps.com/dispensaries/in/united-states/new-hampshire/manchester,Manchester,,,,,,,https://weedmaps.com/dispensaries/in/united-states/new-hampshire,New Hampshire,,,,United States,,,,,,,,,,
,https://weedmaps.com/dispensaries/in/united-states/new-hampshire/merrimack,Merrimack,,,,,,,https://weedmaps.com/dispensaries/in/united-states/new-hampshire,New Hampshire,,,,United States,,,,,,,,,,
,https://weedmaps.com/dispensaries/in/united-states/new-hampshire/nashua,Nashua,,,,,,,https://weedmaps.com/dispensaries/in/united-states/new-hampshire,New Hampshire,,,,United States,,,,,,,,,,
,https://weedmaps.com/dispensaries/in/united-states/new-hampshire/plymouth-nh,"Plymouth, NH",,,,,,,https://weedmaps.com/dispensaries/in/united-states/new-hampshire,New Hampshire,,,,United States,,,,,,,,,,
,https://weedmaps.com/dispensaries/in/united-states/new-hampshire/rochester-nh,"Rochester, NH",,,,,,,https://weedmaps.com/dispensaries/in/united-states/new-hampshire,New Hampshire,,,,United States,,,,,,,,,,
,https://weedmaps.com/dispensaries/in/united-states/new-hampshire/salem-nh,"Salem, NH",,,,,,,https://weedmaps.com/dispensaries/in/united-states/new-hampshire,New Hampshire,,,,United States,,,,,,,,,,
,,,,,,,,,https://weedmaps.com/dispensaries/in/united-states/connecticut/danbury,Danbury,,,,Connecticut,,,,,,,,,,
,https://weedmaps.com/dispensaries/in/united-states/new-jersey/atlantic-city,Atlantic City,,,,,,,https://weedmaps.com/dispensaries/in/united-states/new-jersey,New Jersey,,,,United States,,,,,,,,,,
,https://weedmaps.com/dispensaries/in/united-states/new-jersey/camden,Camden,,,,,,,https://weedmaps.com/dispensaries/in/united-states/new-jersey,New Jersey,,,,United States,,,,,,,,,,
,https://weedmaps.com/dispensaries/in/united-states/new-jersey/clifton,"Clifton, NJ",,,,,,,https://weedmaps.com/dispensaries/in/united-states/new-jersey,New Jersey,,,,United States,,,,,,,,,,
,https://weedmaps.com/dispensaries/in/united-states/new-jersey/elizabeth,Elizabeth,,,,,,,https://weedmaps.com/dispensaries/in/united-states/new-jersey,New Jersey,,,,United States,,,,,,,,,,
,https://weedmaps.com/dispensaries/in/united-states/new-jersey/jersey-city,Jersey City,,,,,,,https://weedmaps.com/dispensaries/in/united-states/new-jersey,New Jersey,,,,United States,,,,,,,,,,
,https://weedmaps.com/dispensaries/in/united-states/new-jersey/newark-nj,"Newark, NJ",,,,,,,https://weedmaps.com/dispensaries/in/united-states/new-jersey,New Jersey,,,,United States,,,,,,,,,,
,,,,,,,,,https://weedmaps.com/dispensaries/in/united-states/connecticut/new-britain,New Britain,,,,Connecticut,,,,,,,,,,
,https://weedmaps.com/dispensaries/in/united-states/new-jersey/passaic,Passaic,,,,,,,https://weedmaps.com/dispensaries/in/united-states/new-jersey,New Jersey,,,,United States,,,,,,,,,,
,https://weedmaps.com/dispensaries/in/united-states/new-jersey/paterson,Paterson,,,,,,,https://weedmaps.com/dispensaries/in/united-states/new-jersey,New Jersey,,,,United States,,,,,,,,,,
,https://weedmaps.com/dispensaries/in/united-states/new-jersey/secaucus,Secaucus,,,,,,,https://weedmaps.com/dispensaries/in/united-states/new-jersey,New Jersey,,,,United States,,,,,,,,,,
,https://weedmaps.com/dispensaries/in/united-states/new-jersey/toms-river,Toms River,,,,,,,https://weedmaps.com/dispensaries/in/united-states/new-jersey,New Jersey,,,,United States,,,,,,,,,,
,https://weedmaps.com/dispensaries/in/united-states/new-jersey/trenton,Trenton,,,,,,,https://weedmaps.com/dispensaries/in/united-states/new-jersey,New Jersey,,,,United States,,,,,,,,,,
,,,,,,,,,https://weedmaps.com/dispensaries/in/united-states/connecticut/bridgeport,Bridgeport,,,,Connecticut,,,,,,,,,,
,https://weedmaps.com/dispensaries/in/united-states/new-york/albany-ny,"Albany, NY",,,,,,,https://weedmaps.com/dispensaries/in/united-states/new-york,New York,,,,United States,,,,,,,,,,
,https://weedmaps.com/dispensaries/in/united-states/new-york/bronx,Bronx,,,,,,,https://weedmaps.com/dispensaries/in/united-states/new-york,New York,,,,United States,,,,,,,,,,
,https://weedmaps.com/dispensaries/in/united-states/new-york/brooklyn,Brooklyn,,,,,,,https://weedmaps.com/dispensaries/in/united-states/new-york,New York,,,,United States,,,,,,,,,,
,https://weedmaps.com/dispensaries/in/united-states/new-york/buffalo,Buffalo,,,,,,,https://weedmaps.com/dispensaries/in/united-states/new-york,New York,,,,United States,,,,,,,,,,
,https://weedmaps.com/dispensaries/in/united-states/new-york/johnson-city,Johnson City,,,,,,,https://weedmaps.com/dispensaries/in/united-states/new-york,New York,,,,United States,,,,,,,,,,
,https://weedmaps.com/dispensaries/in/united-states/new-york/long-island,Long Island,,,,,,,https://weedmaps.com/dispensaries/in/united-states/new-york,New York,,,,United States,,,,,,,,,,
,https://weedmaps.com/dispensaries/in/united-states/new-york/manhattan,Manhattan,,,,,,,https://weedmaps.com/dispensaries/in/united-states/new-york,New York,,,,United States,,,,,,,,,,
,https://weedmaps.com/dispensaries/in/united-states/new-york/nassau,Nassau,,,,,,,https://weedmaps.com/dispensaries/in/united-states/new-york,New York,,,,United States,,,,,,,,,,
,https://weedmaps.com/dispensaries/in/united-states/new-york/poughkeepsie,Poughkeepsie,,,,,,,https://weedmaps.com/dispensaries/in/united-states/new-york,New York,,,,United States,,,,,,,,,,
,https://weedmaps.com/dispensaries/in/united-states/new-york/queens,Queens,,,,,,,https://weedmaps.com/dispensaries/in/united-states/new-york,New York,,,,United States,,,,,,,,,,
,https://weedmaps.com/dispensaries/in/united-states/new-york/rochester-ny,"Rochester, NY",,,,,,,https://weedmaps.com/dispensaries/in/united-states/new-york,New York,,,,United States,,,,,,,,,,
,https://weedmaps.com/dispensaries/in/united-states/new-york/staten-island,Staten Island,,,,,,,https://weedmaps.com/dispensaries/in/united-states/new-york,New York,,,,United States,,,,,,,,,,
,https://weedmaps.com/dispensaries/in/united-states/new-york/syracuse,Syracuse,,,,,,,https://weedmaps.com/dispensaries/in/united-states/new-york,New York,,,,United States,,,,,,,,,,
,https://weedmaps.com/dispensaries/in/united-states/new-york/upstate-new-york,Upstate New York,,,,,,,https://weedmaps.com/dispensaries/in/united-states/new-york,New York,,,,United States,,,,,,,,,,
,https://weedmaps.com/dispensaries/in/united-states/new-york/utica,Utica,,,,,,,https://weedmaps.com/dispensaries/in/united-states/new-york,New York,,,,United States,,,,,,,,,,
,https://weedmaps.com/dispensaries/in/united-states/new-york/westchester-county,Westchester County,,,,,,,https://weedmaps.com/dispensaries/in/united-states/new-york,New York,,,,United States,,,,,,,,,,
,https://weedmaps.com/dispensaries/in/united-states/nevada/carson-city,Carson City,,,,,,,https://weedmaps.com/dispensaries/in/united-states/nevada,Nevada,,,,United States,,,,,,,,,,
,https://weedmaps.com/dispensaries/in/united-states/nevada/henderson,East Las Vegas / Henderson,,,,,,,https://weedmaps.com/dispensaries/in/united-states/nevada,Nevada,,,,United States,,,,,,,,,,
,https://weedmaps.com/dispensaries/in/united-states/nevada/ely,Ely,,,,,,,https://weedmaps.com/dispensaries/in/united-states/nevada,Nevada,,,,United States,,,,,,,,,,
,https://weedmaps.com/dispensaries/in/united-states/nevada/fallon,Fallon,,,,,,,https://weedmaps.com/dispensaries/in/united-states/nevada,Nevada,,,,United States,,,,,,,,,,
,https://weedmaps.com/dispensaries/in/united-states/arizona/laughlin-bullhead-city,Laughlin / Bullhead City,,,,,,,https://weedmaps.com/dispensaries/in/united-states/nevada,Nevada,,,,United States,,,,,,,,,,
,https://weedmaps.com/dispensaries/in/united-states/nevada/mesquite,Mesquite,,,,,,,https://weedmaps.com/dispensaries/in/united-states/nevada,Nevada,,,,United States,,,,,,,,,,
,https://weedmaps.com/dispensaries/in/united-states/nevada/north-las-vegas,North Las Vegas,,,,,,,https://weedmaps.com/dispensaries/in/united-states/nevada,Nevada,,,,United States,,,,,,,,,,
,https://weedmaps.com/dispensaries/in/united-states/nevada/pahrump,Pahrump,,,,,,,https://weedmaps.com/dispensaries/in/united-states/nevada,Nevada,,,,United States,,,,,,,,,,
,https://weedmaps.com/dispensaries/in/united-states/california/primm,Primm,,,,,,,https://weedmaps.com/dispensaries/in/united-states/nevada,Nevada,,,,United States,,,,,,,,,,
,https://weedmaps.com/dispensaries/in/united-states/nevada/reno-2,Reno,,,,,,,https://weedmaps.com/dispensaries/in/united-states/nevada,Nevada,,,,United States,,,,,,,,,,
,https://weedmaps.com/dispensaries/in/united-states/nevada/east-las-vegas-the-strip,The Strip,,,,,,,https://weedmaps.com/dispensaries/in/united-states/nevada,Nevada,,,,United States,,,,,,,,,,
,https://weedmaps.com/dispensaries/in/united-states/nevada/west-las-vegas,West Las Vegas,,,,,,,https://weedmaps.com/dispensaries/in/united-states/nevada,Nevada,,,,United States,,,,,,,,,,
,https://weedmaps.com/dispensaries/in/united-states/nevada/west-wendover,West Wendover,,,,,,,https://weedmaps.com/dispensaries/in/united-states/nevada,Nevada,,,,United States,,,,,,,,,,
,https://weedmaps.com/dispensaries/in/united-states/nevada/yerington,Yerington,,,,,,,https://weedmaps.com/dispensaries/in/united-states/nevada,Nevada,,,,United States,,,,,,,,,,
,,,,,,,,,https://weedmaps.com/dispensaries/in/united-states/connecticut/new-london,New London,,,,Connecticut,,,,,,,,,,
,,,,,,,,,https://weedmaps.com/dispensaries/in/united-states/north-carolina,North Carolina,,,,United States,,,,,,,,,,
,,,,,,,,,https://weedmaps.com/dispensaries/in/united-states/connecticut/hartford,Hartford,,,,Connecticut,,,,,,,,,,
,,,,,,,,,https://weedmaps.com/dispensaries/in/united-states/connecticut/stamford,Stamford,,,,Connecticut,,,,,,,,,,
,,,,,,,,,https://weedmaps.com/dispensaries/in/united-states/connecticut/norwalk,Norwalk,,,,Connecticut,,,,,,,,,,
,https://weedmaps.com/dispensaries/in/united-states/north-dakota/bismarck,Bismarck,,,,,,,https://weedmaps.com/dispensaries/in/united-states/north-dakota,North Dakota,,,,United States,,,,,,,,,,
,https://weedmaps.com/dispensaries/in/united-states/north-dakota/dickinson,Dickinson,,,,,,,https://weedmaps.com/dispensaries/in/united-states/north-dakota,North Dakota,,,,United States,,,,,,,,,,
,https://weedmaps.com/dispensaries/in/united-states/north-dakota/fargo,Fargo,,,,,,,https://weedmaps.com/dispensaries/in/united-states/north-dakota,North Dakota,,,,United States,,,,,,,,,,
,https://weedmaps.com/dispensaries/in/united-states/north-dakota/grand-forks,Grand Forks,,,,,,,https://weedmaps.com/dispensaries/in/united-states/north-dakota,North Dakota,,,,United States,,,,,,,,,,
,https://weedmaps.com/dispensaries/in/united-states/north-dakota/jamestown,Jamestown,,,,,,,https://weedmaps.com/dispensaries/in/united-states/north-dakota,North Dakota,,,,United States,,,,,,,,,,
,https://weedmaps.com/dispensaries/in/united-states/north-dakota/mandan,Mandan,,,,,,,https://weedmaps.com/dispensaries/in/united-states/north-dakota,North Dakota,,,,United States,,,,,,,,,,
,https://weedmaps.com/dispensaries/in/united-states/north-dakota/minot,Minot,,,,,,,https://weedmaps.com/dispensaries/in/united-states/north-dakota,North Dakota,,,,United States,,,,,,,,,,
,https://weedmaps.com/dispensaries/in/united-states/north-dakota/wahpeton,Wahpeton,,,,,,,https://weedmaps.com/dispensaries/in/united-states/north-dakota,North Dakota,,,,United States,,,,,,,,,,
,https://weedmaps.com/dispensaries/in/united-states/north-dakota/west-fargo,West Fargo,,,,,,,https://weedmaps.com/dispensaries/in/united-states/north-dakota,North Dakota,,,,United States,,,,,,,,,,
,https://weedmaps.com/dispensaries/in/united-states/north-dakota/williston,Williston,,,,,,,https://weedmaps.com/dispensaries/in/united-states/north-dakota,North Dakota,,,,United States,,,,,,,,,,
,https://weedmaps.com/dispensaries/in/united-states/new-mexico/albuquerque,Albuquerque,,,,,,,https://weedmaps.com/dispensaries/in/united-states/new-mexico,New Mexico,,,,United States,,,,,,,,,,
,https://weedmaps.com/dispensaries/in/united-states/new-mexico/farmington-nm,"Farmington, NM",,,,,,,https://weedmaps.com/dispensaries/in/united-states/new-mexico,New Mexico,,,,United States,,,,,,,,,,
,https://weedmaps.com/dispensaries/in/united-states/new-mexico/gallup,Gallup,,,,,,,https://weedmaps.com/dispensaries/in/united-states/new-mexico,New Mexico,,,,United States,,,,,,,,,,
,,,,,,,,,https://weedmaps.com/dispensaries/in/united-states/connecticut/new-haven,New Haven,,,,Connecticut,,,,,,,,,,
,https://weedmaps.com/dispensaries/in/united-states/new-mexico/las-cruces,Las Cruces,,,,,,,https://weedmaps.com/dispensaries/in/united-states/new-mexico,New Mexico,,,,United States,,,,,,,,,,
,https://weedmaps.com/dispensaries/in/united-states/new-mexico/raton,Raton,,,,,,,https://weedmaps.com/dispensaries/in/united-states/new-mexico,New Mexico,,,,United States,,,,,,,,,,
,https://weedmaps.com/dispensaries/in/united-states/new-mexico/roswell-carlsbad-hobbs,Roswell / Carlsbad / Hobbs,,,,,,,https://weedmaps.com/dispensaries/in/united-states/new-mexico,New Mexico,,,,United States,,,,,,,,,,
,https://weedmaps.com/dispensaries/in/united-states/new-mexico/santa-fe,Santa Fe,,,,,,,https://weedmaps.com/dispensaries/in/united-states/new-mexico,New Mexico,,,,United States,,,,,,,,,,
,https://weedmaps.com/dispensaries/in/united-states/new-mexico/silver-city,Silver City,,,,,,,https://weedmaps.com/dispensaries/in/united-states/new-mexico,New Mexico,,,,United States,,,,,,,,,,
,https://weedmaps.com/dispensaries/in/united-states/new-mexico/taos,Taos,,,,,,,https://weedmaps.com/dispensaries/in/united-states/new-mexico,New Mexico,,,,United States,,,,,,,,,,
,https://weedmaps.com/dispensaries/in/united-states/new-mexico/truth-or-consequences,Truth or Consequences,,,,,,,https://weedmaps.com/dispensaries/in/united-states/new-mexico,New Mexico,,,,United States,,,,,,,,,,
,,,,,,,,,https://weedmaps.com/dispensaries/in/united-states/connecticut/waterbury,Waterbury,,,,Connecticut,,,,,,,,,,
,,,,,,,,,https://weedmaps.com/dispensaries/in/united-states/arkansas/el-dorado,El Dorado,,,,Arkansas,,,,,,,,,,
,,,,,,,,,https://weedmaps.com/dispensaries/in/united-states/arkansas/hot-springs-ar,"Hot Springs, AR",,,,Arkansas,,,,,,,,,,
,https://weedmaps.com/dispensaries/in/united-states/ohio/akron,Akron,,,,,,,https://weedmaps.com/dispensaries/in/united-states/ohio,Ohio,,,,United States,,,,,,,,,,
,https://weedmaps.com/dispensaries/in/united-states/ohio/archbold,Archbold,,,,,,,https://weedmaps.com/dispensaries/in/united-states/ohio,Ohio,,,,United States,,,,,,,,,,
,https://weedmaps.com/dispensaries/in/united-states/ohio/athens-oh,"Athens, OH",,,,,,,https://weedmaps.com/dispensaries/in/united-states/ohio,Ohio,,,,United States,,,,,,,,,,
,https://weedmaps.com/dispensaries/in/united-states/ohio/canton,Canton,,,,,,,https://weedmaps.com/dispensaries/in/united-states/ohio,Ohio,,,,United States,,,,,,,,,,
,https://weedmaps.com/dispensaries/in/united-states/ohio/cincinnati,Cincinnati,,,,,,,https://weedmaps.com/dispensaries/in/united-states/ohio,Ohio,,,,United States,,,,,,,,,,
,https://weedmaps.com/dispensaries/in/united-states/ohio/cleveland,Cleveland,,,,,,,https://weedmaps.com/dispensaries/in/united-states/ohio,Ohio,,,,United States,,,,,,,,,,
,https://weedmaps.com/dispensaries/in/united-states/ohio/columbus,Columbus,,,,,,,https://weedmaps.com/dispensaries/in/united-states/ohio,Ohio,,,,United States,,,,,,,,,,
,https://weedmaps.com/dispensaries/in/united-states/ohio/dayton,Dayton,,,,,,,https://weedmaps.com/dispensaries/in/united-states/ohio,Ohio,,,,United States,,,,,,,,,,
,https://weedmaps.com/dispensaries/in/united-states/ohio/lima,Lima,,,,,,,https://weedmaps.com/dispensaries/in/united-states/ohio,Ohio,,,,United States,,,,,,,,,,
,https://weedmaps.com/dispensaries/in/united-states/ohio/lorain,Lorain,,,,,,,https://weedmaps.com/dispensaries/in/united-states/ohio,Ohio,,,,United States,,,,,,,,,,
,https://weedmaps.com/dispensaries/in/united-states/ohio/parma,Parma,,,,,,,https://weedmaps.com/dispensaries/in/united-states/ohio,Ohio,,,,United States,,,,,,,,,,
,https://weedmaps.com/dispensaries/in/united-states/ohio/steubenville,Steubenville,,,,,,,https://weedmaps.com/dispensaries/in/united-states/ohio,Ohio,,,,United States,,,,,,,,,,
,https://weedmaps.com/dispensaries/in/united-states/ohio/toledo,Toledo,,,,,,,https://weedmaps.com/dispensaries/in/united-states/ohio,Ohio,,,,United States,,,,,,,,,,
,https://weedmaps.com/dispensaries/in/united-states/ohio/youngstown,Youngstown,,,,,,,https://weedmaps.com/dispensaries/in/united-states/ohio,Ohio,,,,United States,,,,,,,,,,
,,,,,,,,,https://weedmaps.com/dispensaries/in/united-states/arkansas/conway,Conway,,,,Arkansas,,,,,,,,,,
,https://weedmaps.com/dispensaries/in/united-states/oregon/albany-corvallis,Albany / Corvallis,,,,,,,https://weedmaps.com/dispensaries/in/united-states/oregon,Oregon,,,,United States,,,,,,,,,,
,https://weedmaps.com/dispensaries/in/united-states/oregon/oregon-coast,Astoria / Seaside,,,,,,,https://weedmaps.com/dispensaries/in/united-states/oregon,Oregon,,,,United States,,,,,,,,,,
,https://weedmaps.com/dispensaries/in/united-states/oregon/salem-eugene,Bend,,,,,,,https://weedmaps.com/dispensaries/in/united-states/oregon,Oregon,,,,United States,,,,,,,,,,
,https://weedmaps.com/dispensaries/in/united-states/oregon/newport-brookings,Brookings,,,,,,,https://weedmaps.com/dispensaries/in/united-states/oregon,Oregon,,,,United States,,,,,,,,,,
,https://weedmaps.com/dispensaries/in/united-states/oregon/burns-hines,Burns / Hines,,,,,,,https://weedmaps.com/dispensaries/in/united-states/oregon,Oregon,,,,United States,,,,,,,,,,
,https://weedmaps.com/dispensaries/in/united-states/oregon/cave-junction,Cave Junction,,,,,,,https://weedmaps.com/dispensaries/in/united-states/oregon,Oregon,,,,United States,,,,,,,,,,
,https://weedmaps.com/dispensaries/in/united-states/oregon/columbia-gorge,Columbia River Gorge,,,,,,,https://weedmaps.com/dispensaries/in/united-states/oregon,Oregon,,,,United States,,,,,,,,,,
,https://weedmaps.com/dispensaries/in/united-states/oregon/coos-bay,Coos Bay,,,,,,,https://weedmaps.com/dispensaries/in/united-states/oregon,Oregon,,,,United States,,,,,,,,,,
,https://weedmaps.com/dispensaries/in/united-states/oregon/cottage-grove,Cottage Grove,,,,,,,https://weedmaps.com/dispensaries/in/united-states/oregon,Oregon,,,,United States,,,,,,,,,,
,https://weedmaps.com/dispensaries/in/united-states/oregon/eugene-springfield,Eugene / Springfield,,,,,,,https://weedmaps.com/dispensaries/in/united-states/oregon,Oregon,,,,United States,,,,,,,,,,
,https://weedmaps.com/dispensaries/in/united-states/oregon/florence,Florence,,,,,,,https://weedmaps.com/dispensaries/in/united-states/oregon,Oregon,,,,United States,,,,,,,,,,
,https://weedmaps.com/dispensaries/in/united-states/oregon/hillsboro-forest-grove,Hillsboro / Forest Grove,,,,,,,https://weedmaps.com/dispensaries/in/united-states/oregon,Oregon,,,,United States,,,,,,,,,,
,https://weedmaps.com/dispensaries/in/united-states/oregon/klamath-falls-lakeview,Klamath Falls / Lakeview,,,,,,,https://weedmaps.com/dispensaries/in/united-states/oregon,Oregon,,,,United States,,,,,,,,,,
,https://weedmaps.com/dispensaries/in/united-states/oregon/la-grande-huntington,La Grande / Huntington,,,,,,,https://weedmaps.com/dispensaries/in/united-states/oregon,Oregon,,,,United States,,,,,,,,,,
,https://weedmaps.com/dispensaries/in/united-states/oregon/madras-prineville,Madras / Prineville,,,,,,,https://weedmaps.com/dispensaries/in/united-states/oregon,Oregon,,,,United States,,,,,,,,,,
,https://weedmaps.com/dispensaries/in/united-states/oregon/medford-grants-pass,Medford / Grants Pass,,,,,,,https://weedmaps.com/dispensaries/in/united-states/oregon,Oregon,,,,United States,,,,,,,,,,
,https://weedmaps.com/dispensaries/in/united-states/oregon/mt-hood,Mt Hood,,,,,,,https://weedmaps.com/dispensaries/in/united-states/oregon,Oregon,,,,United States,,,,,,,,,,
,https://weedmaps.com/dispensaries/in/united-states/oregon/newberg-mcminnville,Newberg / McMinnville,,,,,,,https://weedmaps.com/dispensaries/in/united-states/oregon,Oregon,,,,United States,,,,,,,,,,
,https://weedmaps.com/dispensaries/in/united-states/oregon/newport-lincoln-city,Newport / Lincoln City,,,,,,,https://weedmaps.com/dispensaries/in/united-states/oregon,Oregon,,,,United States,,,,,,,,,,
,https://weedmaps.com/dispensaries/in/united-states/oregon/pendleton,Pendleton,,,,,,,https://weedmaps.com/dispensaries/in/united-states/oregon,Oregon,,,,United States,,,,,,,,,,
,https://weedmaps.com/dispensaries/in/united-states/oregon/portland-east,Portland East,,,,,,,https://weedmaps.com/dispensaries/in/united-states/oregon,Oregon,,,,United States,,,,,,,,,,
,https://weedmaps.com/dispensaries/in/united-states/oregon/portland-north,Portland North,,,,,,,https://weedmaps.com/dispensaries/in/united-states/oregon,Oregon,,,,United States,,,,,,,,,,
,https://weedmaps.com/dispensaries/in/united-states/oregon/portland-west,Portland West,,,,,,,https://weedmaps.com/dispensaries/in/united-states/oregon,Oregon,,,,United States,,,,,,,,,,
,https://weedmaps.com/dispensaries/in/united-states/oregon/rainier,Rainier,,,,,,,https://weedmaps.com/dispensaries/in/united-states/oregon,Oregon,,,,United States,,,,,,,,,,
,https://weedmaps.com/dispensaries/in/united-states/oregon/roseburg,Roseburg,,,,,,,https://weedmaps.com/dispensaries/in/united-states/oregon,Oregon,,,,United States,,,,,,,,,,
,https://weedmaps.com/dispensaries/in/united-states/oregon/salem-albany,Salem,,,,,,,https://weedmaps.com/dispensaries/in/united-states/oregon,Oregon,,,,United States,,,,,,,,,,
,https://weedmaps.com/dispensaries/in/united-states/oregon/scappoose,Scappoose / St. Helens,,,,,,,https://weedmaps.com/dispensaries/in/united-states/oregon,Oregon,,,,United States,,,,,,,,,,
,https://weedmaps.com/dispensaries/in/united-states/oregon/sumpter,Sumpter,,,,,,,https://weedmaps.com/dispensaries/in/united-states/oregon,Oregon,,,,United States,,,,,,,,,,
,https://weedmaps.com/dispensaries/in/united-states/oregon/tillamook,Tillamook,,,,,,,https://weedmaps.com/dispensaries/in/united-states/oregon,Oregon,,,,United States,,,,,,,,,,
,https://weedmaps.com/dispensaries/in/united-states/oregon/waldport,Waldport,,,,,,,https://weedmaps.com/dispensaries/in/united-states/oregon,Oregon,,,,United States,,,,,,,,,,
,,,,,,,,,https://weedmaps.com/dispensaries/in/united-states/arkansas/fayetteville,Fayetteville,,,,Arkansas,,,,,,,,,,
,,,,,,,,,https://weedmaps.com/dispensaries/in/united-states/arizona/apache-county,Apache County,,,,Arizona,,,,,,,,,,
,https://weedmaps.com/dispensaries/in/united-states/oklahoma/ardmore,Ardmore,,,,,,,https://weedmaps.com/dispensaries/in/united-states/oklahoma,Oklahoma,,,,United States,,,,,,,,,,
,https://weedmaps.com/dispensaries/in/united-states/oklahoma/bartlesville,Bartlesville,,,,,,,https://weedmaps.com/dispensaries/in/united-states/oklahoma,Oklahoma,,,,United States,,,,,,,,,,
,https://weedmaps.com/dispensaries/in/united-states/oklahoma/broken-arrow,Broken Arrow,,,,,,,https://weedmaps.com/dispensaries/in/united-states/oklahoma,Oklahoma,,,,United States,,,,,,,,,,
,https://weedmaps.com/dispensaries/in/united-states/oklahoma/durant,Durant,,,,,,,https://weedmaps.com/dispensaries/in/united-states/oklahoma,Oklahoma,,,,United States,,,,,,,,,,
,https://weedmaps.com/dispensaries/in/united-states/oklahoma/edmond,Edmond,,,,,,,https://weedmaps.com/dispensaries/in/united-states/oklahoma,Oklahoma,,,,United States,,,,,,,,,,
,https://weedmaps.com/dispensaries/in/united-states/oklahoma/elk-city-weatherford,Elk City / Weatherford,,,,,,,https://weedmaps.com/dispensaries/in/united-states/oklahoma,Oklahoma,,,,United States,,,,,,,,,,
,https://weedmaps.com/dispensaries/in/united-states/oklahoma/el-reno-yukon,El Reno / Yukon,,,,,,,https://weedmaps.com/dispensaries/in/united-states/oklahoma,Oklahoma,,,,United States,,,,,,,,,,
,https://weedmaps.com/dispensaries/in/united-states/oklahoma/enid,Enid,,,,,,,https://weedmaps.com/dispensaries/in/united-states/oklahoma,Oklahoma,,,,United States,,,,,,,,,,
,https://weedmaps.com/dispensaries/in/united-states/oklahoma/guymon,Guymon,,,,,,,https://weedmaps.com/dispensaries/in/united-states/oklahoma,Oklahoma,,,,United States,,,,,,,,,,
,https://weedmaps.com/dispensaries/in/united-states/oklahoma/idabel-broken-bow,Idabel / Broken Bow,,,,,,,https://weedmaps.com/dispensaries/in/united-states/oklahoma,Oklahoma,,,,United States,,,,,,,,,,
,https://weedmaps.com/dispensaries/in/united-states/oklahoma/lawton,Lawton,,,,,,,https://weedmaps.com/dispensaries/in/united-states/oklahoma,Oklahoma,,,,United States,,,,,,,,,,
,https://weedmaps.com/dispensaries/in/united-states/oklahoma/mcalester,McAlester,,,,,,,https://weedmaps.com/dispensaries/in/united-states/oklahoma,Oklahoma,,,,United States,,,,,,,,,,
,https://weedmaps.com/dispensaries/in/united-states/oklahoma/miami-ok,"Miami, OK",,,,,,,https://weedmaps.com/dispensaries/in/united-states/oklahoma,Oklahoma,,,,United States,,,,,,,,,,
,https://weedmaps.com/dispensaries/in/united-states/oklahoma/midwest-city-del-city,Midwest City / Del City,,,,,,,https://weedmaps.com/dispensaries/in/united-states/oklahoma,Oklahoma,,,,United States,,,,,,,,,,
,https://weedmaps.com/dispensaries/in/united-states/oklahoma/moore,Moore,,,,,,,https://weedmaps.com/dispensaries/in/united-states/oklahoma,Oklahoma,,,,United States,,,,,,,,,,
,https://weedmaps.com/dispensaries/in/united-states/oklahoma/muskogee,Muskogee,,,,,,,https://weedmaps.com/dispensaries/in/united-states/oklahoma,Oklahoma,,,,United States,,,,,,,,,,
,https://weedmaps.com/dispensaries/in/united-states/oklahoma/norman,Norman,,,,,,,https://weedmaps.com/dispensaries/in/united-states/oklahoma,Oklahoma,,,,United States,,,,,,,,,,
,https://weedmaps.com/dispensaries/in/united-states/oklahoma/oklahoma-city,Oklahoma City,,,,,,,https://weedmaps.com/dispensaries/in/united-states/oklahoma,Oklahoma,,,,United States,,,,,,,,,,
,https://weedmaps.com/dispensaries/in/united-states/oklahoma/okmulgee,Okmulgee,,,,,,,https://weedmaps.com/dispensaries/in/united-states/oklahoma,Oklahoma,,,,United States,,,,,,,,,,
,https://weedmaps.com/dispensaries/in/united-states/oklahoma/owasso-claremore,Owasso / Claremore,,,,,,,https://weedmaps.com/dispensaries/in/united-states/oklahoma,Oklahoma,,,,United States,,,,,,,,,,
,https://weedmaps.com/dispensaries/in/united-states/oklahoma/sallisaw-poteau,Sallisaw / Poteau,,,,,,,https://weedmaps.com/dispensaries/in/united-states/oklahoma,Oklahoma,,,,United States,,,,,,,,,,
,https://weedmaps.com/dispensaries/in/united-states/oklahoma/sapulpa-sand-springs,Sapulpa / Sand Springs,,,,,,,https://weedmaps.com/dispensaries/in/united-states/oklahoma,Oklahoma,,,,United States,,,,,,,,,,
,https://weedmaps.com/dispensaries/in/united-states/oklahoma/shawnee,Shawnee,,,,,,,https://weedmaps.com/dispensaries/in/united-states/oklahoma,Oklahoma,,,,United States,,,,,,,,,,
,https://weedmaps.com/dispensaries/in/united-states/oklahoma/stillwater,Stillwater,,,,,,,https://weedmaps.com/dispensaries/in/united-states/oklahoma,Oklahoma,,,,United States,,,,,,,,,,
,https://weedmaps.com/dispensaries/in/united-states/oklahoma/tulsa,Tulsa,,,,,,,https://weedmaps.com/dispensaries/in/united-states/oklahoma,Oklahoma,,,,United States,,,,,,,,,,
,https://weedmaps.com/dispensaries/in/united-states/oklahoma/woodward,Woodward,,,,,,,https://weedmaps.com/dispensaries/in/united-states/oklahoma,Oklahoma,,,,United States,,,,,,,,,,
,,,,,,,,,https://weedmaps.com/dispensaries/in/united-states/arkansas/little-rock,Little Rock,,,,Arkansas,,,,,,,,,,
,,,,,,,,,https://weedmaps.com/dispensaries/in/united-states/arkansas/fort-smith,Fort Smith,,,,Arkansas,,,,,,,,,,
,,,,,,,,,https://weedmaps.com/dispensaries/in/united-states/arizona/casa-grande-maricopa,Casa Grande / Maricopa,,,,Arizona,,,,,,,,,,
,,,,,,,,,https://weedmaps.com/dispensaries/in/united-states/arizona/cave-creek,Cave Creek,,,,Arizona,,,,,,,,,,
,https://weedmaps.com/dispensaries/in/united-states/rhode-island/rhode-island-cannbis-clubs,Providence,,,,,,,https://weedmaps.com/dispensaries/in/united-states/rhode-island,Rhode Island,,,,United States,,,,,,,,,,
,https://weedmaps.com/dispensaries/in/united-states/rhode-island/warwick,Warwick,,,,,,,https://weedmaps.com/dispensaries/in/united-states/rhode-island,Rhode Island,,,,United States,,,,,,,,,,
,,,,,,,,,https://weedmaps.com/dispensaries/in/united-states/arkansas/north-little-rock,North Little Rock,,,,Arkansas,,,,,,,,,,
,,,,,,,,,https://weedmaps.com/dispensaries/in/united-states/arkansas/pine-bluff,Pine Bluff,,,,Arkansas,,,,,,,,,,
,,,,,,,,,https://weedmaps.com/dispensaries/in/united-states/arkansas/jonesboro,Jonesboro,,,,Arkansas,,,,,,,,,,
,https://weedmaps.com/dispensaries/in/united-states/pennsylvania/allentown,Allentown,,,,,,,https://weedmaps.com/dispensaries/in/united-states/pennsylvania,Pennsylvania,,,,United States,,,,,,,,,,
,https://weedmaps.com/dispensaries/in/united-states/pennsylvania/bensalem,Bensalem,,,,,,,https://weedmaps.com/dispensaries/in/united-states/pennsylvania,Pennsylvania,,,,United States,,,,,,,,,,
,https://weedmaps.com/dispensaries/in/united-states/pennsylvania/bethlehem,Bethlehem,,,,,,,https://weedmaps.com/dispensaries/in/united-states/pennsylvania,Pennsylvania,,,,United States,,,,,,,,,,
,https://weedmaps.com/dispensaries/in/united-states/pennsylvania/dunmore,Dunmore,,,,,,,https://weedmaps.com/dispensaries/in/united-states/pennsylvania,Pennsylvania,,,,United States,,,,,,,,,,
,https://weedmaps.com/dispensaries/in/united-states/pennsylvania/erie,Erie,,,,,,,https://weedmaps.com/dispensaries/in/united-states/pennsylvania,Pennsylvania,,,,United States,,,,,,,,,,
,https://weedmaps.com/dispensaries/in/united-states/pennsylvania/harrisburg,"Harrisburg, PA",,,,,,,https://weedmaps.com/dispensaries/in/united-states/pennsylvania,Pennsylvania,,,,United States,,,,,,,,,,
,https://weedmaps.com/dispensaries/in/united-states/pennsylvania/johnstown,Johnstown,,,,,,,https://weedmaps.com/dispensaries/in/united-states/pennsylvania,Pennsylvania,,,,United States,,,,,,,,,,
,https://weedmaps.com/dispensaries/in/united-states/pennsylvania/king-of-prussia,King of Prussia,,,,,,,https://weedmaps.com/dispensaries/in/united-states/pennsylvania,Pennsylvania,,,,United States,,,,,,,,,,
,https://weedmaps.com/dispensaries/in/united-states/pennsylvania/lancaster-pa,"Lancaster, PA",,,,,,,https://weedmaps.com/dispensaries/in/united-states/pennsylvania,Pennsylvania,,,,United States,,,,,,,,,,
,https://weedmaps.com/dispensaries/in/united-states/pennsylvania/philadelphia,Philadelphia,,,,,,,https://weedmaps.com/dispensaries/in/united-states/pennsylvania,Pennsylvania,,,,United States,,,,,,,,,,
,https://weedmaps.com/dispensaries/in/united-states/pennsylvania/pittsburgh,Pittsburgh,,,,,,,https://weedmaps.com/dispensaries/in/united-states/pennsylvania,Pennsylvania,,,,United States,,,,,,,,,,
,https://weedmaps.com/dispensaries/in/united-states/pennsylvania/reading,Reading,,,,,,,https://weedmaps.com/dispensaries/in/united-states/pennsylvania,Pennsylvania,,,,United States,,,,,,,,,,
,https://weedmaps.com/dispensaries/in/united-states/pennsylvania/scranton,Scranton,,,,,,,https://weedmaps.com/dispensaries/in/united-states/pennsylvania,Pennsylvania,,,,United States,,,,,,,,,,
,https://weedmaps.com/dispensaries/in/united-states/pennsylvania/upper-darby,Upper Darby,,,,,,,https://weedmaps.com/dispensaries/in/united-states/pennsylvania,Pennsylvania,,,,United States,,,,,,,,,,
,https://weedmaps.com/dispensaries/in/united-states/pennsylvania/waynesburg,Waynesburg,,,,,,,https://weedmaps.com/dispensaries/in/united-states/pennsylvania,Pennsylvania,,,,United States,,,,,,,,,,
,https://weedmaps.com/dispensaries/in/united-states/pennsylvania/williamsport,Williamsport,,,,,,,https://weedmaps.com/dispensaries/in/united-states/pennsylvania,Pennsylvania,,,,United States,,,,,,,,,,
